{
  "type": "FeatureCollection",
  "name": "PRC_Curanilahue",
  "crs": {
    "type": "name",
    "properties": {
      "name": "urn:ogc:def:crs:OGC:1.3:CRS84"
    }
  },
  "features": [
    {
      "type": "Feature",
      "properties": {
        "zona": "Z-4",
        "nombre": "Z-4 Zona Industrial y Bodegaje",
        "decreto": "4ta Modificacion PRC Curanilahue. Decreto V y U N°27. Fecha promulgacion 27.04.2012. Fecha publicacion D.O. 22.04.2013.",
        "comuna": "Curanilahue"
      },
      "geometry": {
        "type": "Polygon",
        "coordinates": [
          [
            [
              -73.36019354823476,
              -37.46163547371495
            ],
            [
              -73.3601411540243,
              -37.461586092915184
            ],
            [
              -73.36013428790578,
              -37.46146806840215
            ],
            [
              -73.36019354823476,
              -37.46163547371495
            ]
          ]
        ]
      }
    },
    {
      "type": "Feature",
      "properties": {
        "zona": "Z-3",
        "nombre": "Z-3 Zona Mixta con Industria Molesta No Contaminante",
        "decreto": "Publicacion PRC Curanilahue. Decreto supremo V y U N°56. Fecha promulgacion 22.04.1982. Fecha publicacion D.O. 27.05.1982.",
        "comuna": "Curanilahue"
      },
      "geometry": {
        "type": "Polygon",
        "coordinates": [
          [
            [
              -73.35320880522542,
              -37.47305010801321
            ],
            [
              -73.35429492035222,
              -37.47288996534177
            ],
            [
              -73.35462447972331,
              -37.47267044454846
            ],
            [
              -73.35477767874704,
              -37.472479262347214
            ],
            [
              -73.35493087812938,
              -37.47228807903747
            ],
            [
              -73.35517718590255,
              -37.472049804398125
            ],
            [
              -73.35537263940498,
              -37.47187888811995
            ],
            [
              -73.3557593757861,
              -37.4717009057371
            ],
            [
              -73.35621442620781,
              -37.471520399158436
            ],
            [
              -73.35764055088887,
              -37.47108574772929
            ],
            [
              -73.35801614806353,
              -37.47095182308031
            ],
            [
              -73.35822208622668,
              -37.47072594830367
            ],
            [
              -73.35879601415947,
              -37.4702354672468
            ],
            [
              -73.359860932614,
              -37.47112373080016
            ],
            [
              -73.35960640427282,
              -37.47122044629099
            ],
            [
              -73.3591129099943,
              -37.47144604013455
            ],
            [
              -73.35882309330874,
              -37.47164227721644
            ],
            [
              -73.35835402643369,
              -37.47205249066557
            ],
            [
              -73.3580308172532,
              -37.47238091927999
            ],
            [
              -73.35761386205662,
              -37.47274555103941
            ],
            [
              -73.35717753828101,
              -37.473012677101956
            ],
            [
              -73.35680346612243,
              -37.473408461735616
            ],
            [
              -73.35647834415734,
              -37.47370421787747
            ],
            [
              -73.35620407424712,
              -37.473932614749216
            ],
            [
              -73.35573914588123,
              -37.47417896580156
            ],
            [
              -73.35547093721841,
              -37.47427617753667
            ],
            [
              -73.35549283260534,
              -37.474417241406655
            ],
            [
              -73.35591530987901,
              -37.47508917386615
            ],
            [
              -73.35559307709734,
              -37.475199295418285
            ],
            [
              -73.35526831069838,
              -37.475265855621444
            ],
            [
              -73.35462573903959,
              -37.4755187638489
            ],
            [
              -73.35389120351903,
              -37.47630981414066
            ],
            [
              -73.35337401367136,
              -37.47707101021529
            ],
            [
              -73.35244625029834,
              -37.47783644518472
            ],
            [
              -73.35235643348351,
              -37.47864734333956
            ],
            [
              -73.35266199971659,
              -37.479192642488314
            ],
            [
              -73.35292505134046,
              -37.47947759146961
            ],
            [
              -73.35320556811394,
              -37.479827374838635
            ],
            [
              -73.35325922133286,
              -37.48004365937469
            ],
            [
              -73.35332970528407,
              -37.48031388982618
            ],
            [
              -73.35284569479423,
              -37.48306007564565
            ],
            [
              -73.3527328336462,
              -37.483238854327716
            ],
            [
              -73.35239019318871,
              -37.48346976693972
            ],
            [
              -73.34890206717412,
              -37.484482435732176
            ],
            [
              -73.34890877653056,
              -37.48436214133586
            ],
            [
              -73.34943326306416,
              -37.483960832631844
            ],
            [
              -73.34968342091955,
              -37.4837879060206
            ],
            [
              -73.34988017974116,
              -37.48363877540256
            ],
            [
              -73.35000861090725,
              -37.48349216529705
            ],
            [
              -73.35006934729101,
              -37.48335896491939
            ],
            [
              -73.35002999681971,
              -37.483153064172946
            ],
            [
              -73.34991726191843,
              -37.48286256427679
            ],
            [
              -73.34980452446048,
              -37.48257206423271
            ],
            [
              -73.34949857860704,
              -37.4822559505736
            ],
            [
              -73.34934801227986,
              -37.48202141138895
            ],
            [
              -73.3491612621513,
              -37.481635420467605
            ],
            [
              -73.34899640079036,
              -37.48139049487685
            ],
            [
              -73.34893453732458,
              -37.481032637430246
            ],
            [
              -73.34896225199196,
              -37.480802436291675
            ],
            [
              -73.34908941638608,
              -37.48063404728081
            ],
            [
              -73.34931602904858,
              -37.48052747005717
            ],
            [
              -73.34943205673588,
              -37.48040314502137
            ],
            [
              -73.34951506214958,
              -37.48018181693413
            ],
            [
              -73.34952911103203,
              -37.47995211954254
            ],
            [
              -73.34984669666946,
              -37.47952570091873
            ],
            [
              -73.35000599673558,
              -37.47920333944813
            ],
            [
              -73.35012430066894,
              -37.47888248977097
            ],
            [
              -73.35020540482675,
              -37.47862849228329
            ],
            [
              -73.35018162115936,
              -37.47845475716401
            ],
            [
              -73.35012861029304,
              -37.4782493604026
            ],
            [
              -73.34992883511133,
              -37.47787476363457
            ],
            [
              -73.3496874377673,
              -37.477490789517276
            ],
            [
              -73.34976120245344,
              -37.47734619520887
            ],
            [
              -73.35000842604335,
              -37.47735890300514
            ],
            [
              -73.3503929247457,
              -37.47737745965789
            ],
            [
              -73.35063318985186,
              -37.47727037641131
            ],
            [
              -73.3507066045668,
              -37.477237656035854
            ],
            [
              -73.3507635190807,
              -37.477141270994395
            ],
            [
              -73.35076768317258,
              -37.47699258224898
            ],
            [
              -73.35060725591946,
              -37.476823888113906
            ],
            [
              -73.34659863964853,
              -37.475705760640565
            ],
            [
              -73.34672595700117,
              -37.475068096396804
            ],
            [
              -73.34684948140284,
              -37.47436509249312
            ],
            [
              -73.34783707003568,
              -37.47439416600463
            ],
            [
              -73.34867878205156,
              -37.47450500505395
            ],
            [
              -73.34920938853335,
              -37.474681877622
            ],
            [
              -73.34957476622976,
              -37.47484301407898
            ],
            [
              -73.34983083378877,
              -37.47500818241722
            ],
            [
              -73.35003414432225,
              -37.47520803603556
            ],
            [
              -73.35025428208071,
              -37.47546183474873
            ],
            [
              -73.35047631876347,
              -37.475748302760095
            ],
            [
              -73.35063003593982,
              -37.476037290851906
            ],
            [
              -73.35081715717416,
              -37.476194086820044
            ],
            [
              -73.35100491175226,
              -37.476361772398874
            ],
            [
              -73.35122986388404,
              -37.47646260586717
            ],
            [
              -73.35149517632709,
              -37.476551035560554
            ],
            [
              -73.35170013896233,
              -37.47654347252814
            ],
            [
              -73.35184791443493,
              -37.47649436651921
            ],
            [
              -73.35091959222385,
              -37.47347835472476
            ],
            [
              -73.35320880522542,
              -37.47305010801321
            ]
          ]
        ]
      }
    },
    {
      "type": "Feature",
      "properties": {
        "zona": "Z-1",
        "nombre": "Z-1 Zona Central Residencial Mixta",
        "decreto": "Publicacion PRC Curanilahue. Decreto supremo V y U N°56. Fecha promulgacion 22.04.1982. Fecha publicacion D.O. 27.05.1982.",
        "comuna": "Curanilahue"
      },
      "geometry": {
        "type": "Polygon",
        "coordinates": [
          [
            [
              -73.35320880522542,
              -37.47305010801321
            ],
            [
              -73.35091959222385,
              -37.47347835472476
            ],
            [
              -73.35184791443493,
              -37.47649436651921
            ],
            [
              -73.35170013896233,
              -37.47654347252814
            ],
            [
              -73.35149517632709,
              -37.476551035560554
            ],
            [
              -73.35122986388404,
              -37.47646260586717
            ],
            [
              -73.35100491175226,
              -37.476361772398874
            ],
            [
              -73.35081715717416,
              -37.476194086820044
            ],
            [
              -73.35063003593982,
              -37.476037290851906
            ],
            [
              -73.35047631876347,
              -37.475748302760095
            ],
            [
              -73.35025428208071,
              -37.47546183474873
            ],
            [
              -73.35003414432225,
              -37.47520803603556
            ],
            [
              -73.34983083378877,
              -37.47500818241722
            ],
            [
              -73.34957476622976,
              -37.47484301407898
            ],
            [
              -73.34920938853335,
              -37.474681877622
            ],
            [
              -73.34867878205156,
              -37.47450500505395
            ],
            [
              -73.34783707003568,
              -37.47439416600463
            ],
            [
              -73.34684948140284,
              -37.47436509249312
            ],
            [
              -73.34672595700117,
              -37.475068096396804
            ],
            [
              -73.34659863964853,
              -37.475705760640565
            ],
            [
              -73.35060725591946,
              -37.476823888113906
            ],
            [
              -73.35076768317258,
              -37.47699258224898
            ],
            [
              -73.3507635190807,
              -37.477141270994395
            ],
            [
              -73.3507066045668,
              -37.477237656035854
            ],
            [
              -73.35038868855132,
              -37.477186633612845
            ],
            [
              -73.34999767379705,
              -37.47717377390758
            ],
            [
              -73.34965606603687,
              -37.47718637375705
            ],
            [
              -73.34937480713872,
              -37.47729496772548
            ],
            [
              -73.3490748238085,
              -37.477316943936685
            ],
            [
              -73.34840376167402,
              -37.47707977118421
            ],
            [
              -73.34795512436995,
              -37.47689987294192
            ],
            [
              -73.34767109327544,
              -37.47672481901699
            ],
            [
              -73.34744993653766,
              -37.47668931914738
            ],
            [
              -73.34713692198613,
              -37.476722684085416
            ],
            [
              -73.3463194363857,
              -37.47726574107466
            ],
            [
              -73.34602031943292,
              -37.47753868435368
            ],
            [
              -73.3455196273065,
              -37.4781137137736
            ],
            [
              -73.34517824835548,
              -37.478366385415285
            ],
            [
              -73.3438324559789,
              -37.4792453768999
            ],
            [
              -73.3435642122186,
              -37.47934256338305
            ],
            [
              -73.3432295376952,
              -37.47947493685438
            ],
            [
              -73.34149707036309,
              -37.48006256956465
            ],
            [
              -73.34023023056243,
              -37.48041477501287
            ],
            [
              -73.33956884401796,
              -37.48058098863168
            ],
            [
              -73.33924025067513,
              -37.480582166986544
            ],
            [
              -73.33901908495749,
              -37.48054665114174
            ],
            [
              -73.33887738648698,
              -37.48046455812361
            ],
            [
              -73.33853049836557,
              -37.48014992083038
            ],
            [
              -73.33829230254968,
              -37.479820370666324
            ],
            [
              -73.33820883851496,
              -37.47956152055741
            ],
            [
              -73.33810981830004,
              -37.47927050328534
            ],
            [
              -73.33819474874011,
              -37.47908185183743
            ],
            [
              -73.33856306991204,
              -37.47905738930524
            ],
            [
              -73.33883699814034,
              -37.47905822444206
            ],
            [
              -73.33933461015162,
              -37.479138135046284
            ],
            [
              -73.33959424323757,
              -37.479128581292876
            ],
            [
              -73.33981161835855,
              -37.47909875470194
            ],
            [
              -73.34007923594413,
              -37.47899068604051
            ],
            [
              -73.34029156241981,
              -37.478873738371966
            ],
            [
              -73.34076077420819,
              -37.478463588854
            ],
            [
              -73.34133172329284,
              -37.477918731723605
            ],
            [
              -73.34149421293696,
              -37.477650830205256
            ],
            [
              -73.34164177583783,
              -37.47736165166954
            ],
            [
              -73.3415141539671,
              -37.47704986317229
            ],
            [
              -73.34132073802981,
              -37.47678415108145
            ],
            [
              -73.34104407313646,
              -37.476499674936285
            ],
            [
              -73.34077792127354,
              -37.47616024570124
            ],
            [
              -73.34036881835505,
              -37.475716943161245
            ],
            [
              -73.34020630583586,
              -37.47527547752102
            ],
            [
              -73.34005010475308,
              -37.47494291262739
            ],
            [
              -73.34163633131095,
              -37.47348762120887
            ],
            [
              -73.34192620442701,
              -37.4732914231818
            ],
            [
              -73.34338925962973,
              -37.47301928334468
            ],
            [
              -73.346091029482,
              -37.47238499672922
            ],
            [
              -73.34754038359354,
              -37.47211330993383
            ],
            [
              -73.35141749783622,
              -37.471206389566476
            ],
            [
              -73.35187091512957,
              -37.472411947747325
            ],
            [
              -73.35253283008772,
              -37.47225656145449
            ],
            [
              -73.352677946492,
              -37.4726331705445
            ],
            [
              -73.35279737739432,
              -37.47280337493101
            ],
            [
              -73.35320880522542,
              -37.47305010801321
            ]
          ]
        ]
      }
    },
    {
      "type": "Feature",
      "properties": {
        "zona": "Z-2",
        "nombre": "Z-2 Zona Residencial Mixta con Industria Inofensiva",
        "decreto": "3ra Modificacion PRC Curanilahue. Res. Gore N°82. Fecha promulgacion 13.07.2009. Fecha publicacion D.O. 21.08.2009.",
        "comuna": "Curanilahue"
      },
      "geometry": {
        "type": "Polygon",
        "coordinates": [
          [
            [
              -73.34490536560378,
              -37.488001975619405
            ],
            [
              -73.34339318739775,
              -37.487550216856484
            ],
            [
              -73.33977492192109,
              -37.48655936369499
            ],
            [
              -73.33756414048938,
              -37.48598590659541
            ],
            [
              -73.3351433544261,
              -37.485332819881265
            ],
            [
              -73.3342088178264,
              -37.48503977169417
            ],
            [
              -73.33392372172545,
              -37.48508299064714
            ],
            [
              -73.33351457012277,
              -37.48534903421319
            ],
            [
              -73.33303834429583,
              -37.4856393679539
            ],
            [
              -73.33250934104694,
              -37.485964379019684
            ],
            [
              -73.33186552505788,
              -37.48643547874082
            ],
            [
              -73.33096581966608,
              -37.486981454281086
            ],
            [
              -73.33006987852754,
              -37.48759276478856
            ],
            [
              -73.32948429207175,
              -37.48788710019472
            ],
            [
              -73.32899436729703,
              -37.4881779210165
            ],
            [
              -73.32886966366961,
              -37.48838985276896
            ],
            [
              -73.32854202952433,
              -37.488882068654306
            ],
            [
              -73.32844969416823,
              -37.489180118986596
            ],
            [
              -73.32836787693192,
              -37.48942321547181
            ],
            [
              -73.32831528123133,
              -37.48969798054738
            ],
            [
              -73.32817564673046,
              -37.48988863300995
            ],
            [
              -73.32791678499035,
              -37.490149141889475
            ],
            [
              -73.32777777894673,
              -37.49035068465283
            ],
            [
              -73.32763436436788,
              -37.49047599508062
            ],
            [
              -73.32737361120124,
              -37.49070383201153
            ],
            [
              -73.32715574646456,
              -37.4909628341814
            ],
            [
              -73.32693410334673,
              -37.491156494584175
            ],
            [
              -73.32664601076206,
              -37.49138533411529
            ],
            [
              -73.32638650944114,
              -37.49163494941055
            ],
            [
              -73.32618671068798,
              -37.491969680517606
            ],
            [
              -73.32600606308928,
              -37.49216183544057
            ],
            [
              -73.32587208413388,
              -37.492450498654435
            ],
            [
              -73.32579591840371,
              -37.4927916076128
            ],
            [
              -73.3256146399972,
              -37.49297287104162
            ],
            [
              -73.32544199452244,
              -37.493066511924255
            ],
            [
              -73.32510282010696,
              -37.49312260651323
            ],
            [
              -73.32484124683525,
              -37.49309946096328
            ],
            [
              -73.32453992971276,
              -37.49309959855779
            ],
            [
              -73.32401363832246,
              -37.49299885208342
            ],
            [
              -73.32367068926241,
              -37.492989601215406
            ],
            [
              -73.32307119770485,
              -37.493044321959985
            ],
            [
              -73.3227183535368,
              -37.49310091136689
            ],
            [
              -73.32239850266652,
              -37.49325451024231
            ],
            [
              -73.32235402390631,
              -37.49272138485577
            ],
            [
              -73.32228535595105,
              -37.49224371323627
            ],
            [
              -73.32217174929723,
              -37.49146211424871
            ],
            [
              -73.322104969673,
              -37.49101711316769
            ],
            [
              -73.32199970406084,
              -37.49061717567176
            ],
            [
              -73.32191125021937,
              -37.49027118974014
            ],
            [
              -73.32193402081494,
              -37.48995386710101
            ],
            [
              -73.32206768734693,
              -37.489185030407725
            ],
            [
              -73.32218030437424,
              -37.48852609959165
            ],
            [
              -73.3222434457767,
              -37.4881963837323
            ],
            [
              -73.3223010919616,
              -37.48800874306085
            ],
            [
              -73.32238104289966,
              -37.48773297779149
            ],
            [
              -73.32259640244884,
              -37.48743042208584
            ],
            [
              -73.32311825082627,
              -37.487454945357875
            ],
            [
              -73.32395300552311,
              -37.48720607137545
            ],
            [
              -73.32439771360276,
              -37.48708063011972
            ],
            [
              -73.32481634567753,
              -37.48697797001025
            ],
            [
              -73.32536615301524,
              -37.487012371107504
            ],
            [
              -73.32543556985082,
              -37.486791556867544
            ],
            [
              -73.32560802753342,
              -37.486457829728465
            ],
            [
              -73.32571718419372,
              -37.48621373108738
            ],
            [
              -73.32582085357843,
              -37.48611170795955
            ],
            [
              -73.32604940706307,
              -37.486037843828036
            ],
            [
              -73.32625251418,
              -37.485997652348864
            ],
            [
              -73.32638270969365,
              -37.48564364770815
            ],
            [
              -73.32675403870432,
              -37.485433583041896
            ],
            [
              -73.3269739573072,
              -37.48544734043748
            ],
            [
              -73.32726094782004,
              -37.48543680909646
            ],
            [
              -73.32758327303317,
              -37.48532676001721
            ],
            [
              -73.32773656804142,
              -37.48513560747883
            ],
            [
              -73.32773890480611,
              -37.484939081124594
            ],
            [
              -73.32760395129289,
              -37.48473667962195
            ],
            [
              -73.32740947960743,
              -37.48468924916463
            ],
            [
              -73.32721815490999,
              -37.48469626982896
            ],
            [
              -73.32698583096936,
              -37.48470479500344
            ],
            [
              -73.32671250891758,
              -37.48471482356042
            ],
            [
              -73.32651992494787,
              -37.484700063226555
            ],
            [
              -73.3263651930353,
              -37.48462934652789
            ],
            [
              -73.32627564689027,
              -37.484501671185136
            ],
            [
              -73.32628976716812,
              -37.484271972132305
            ],
            [
              -73.32630137024887,
              -37.48399871244471
            ],
            [
              -73.32642167137679,
              -37.48371055107943
            ],
            [
              -73.32659600644104,
              -37.48340949367026
            ],
            [
              -73.3267995590788,
              -37.48314010405522
            ],
            [
              -73.32710883864829,
              -37.48304144903799
            ],
            [
              -73.32752870176337,
              -37.48296056115368
            ],
            [
              -73.3278566798011,
              -37.482948524881245
            ],
            [
              -73.32842264091047,
              -37.48302597296138
            ],
            [
              -73.3286534172557,
              -37.481806118473095
            ],
            [
              -73.32887555863658,
              -37.48067388773128
            ],
            [
              -73.32909580566677,
              -37.47950898553149
            ],
            [
              -73.3293774485155,
              -37.478221781680915
            ],
            [
              -73.32947506940688,
              -37.47754156901334
            ],
            [
              -73.3298595704743,
              -37.47756019254707
            ],
            [
              -73.33028569545921,
              -37.477588200499056
            ],
            [
              -73.33064475718001,
              -37.47764049563455
            ],
            [
              -73.33096030551738,
              -37.47765073447461
            ],
            [
              -73.33132925311453,
              -37.47763718434696
            ],
            [
              -73.33188824638336,
              -37.47759482572
            ],
            [
              -73.33280000217748,
              -37.477495850161276
            ],
            [
              -73.33402478122036,
              -37.477363538412064
            ],
            [
              -73.33489427419741,
              -37.47724427401509
            ],
            [
              -73.33586382910744,
              -37.47719771781732
            ],
            [
              -73.33638182234145,
              -37.477156844870485
            ],
            [
              -73.33688362654813,
              -37.4770729124316
            ],
            [
              -73.33720400821048,
              -37.47693016955328
            ],
            [
              -73.33750946329468,
              -37.47676614850963
            ],
            [
              -73.33765157341732,
              -37.476619048552266
            ],
            [
              -73.33795681582211,
              -37.47621494098578
            ],
            [
              -73.33843464440174,
              -37.47571717670252
            ],
            [
              -73.33879579711146,
              -37.475332836725876
            ],
            [
              -73.33934193460613,
              -37.47483255569058
            ],
            [
              -73.33978064659486,
              -37.474368966250616
            ],
            [
              -73.34020022631923,
              -37.47404795149139
            ],
            [
              -73.339506306352,
              -37.47388796093208
            ],
            [
              -73.33899737545534,
              -37.47361202607725
            ],
            [
              -73.33836231948138,
              -37.47328616277656
            ],
            [
              -73.33791982361222,
              -37.472975039359596
            ],
            [
              -73.3371611742536,
              -37.472642801710734
            ],
            [
              -73.33675546995596,
              -37.47249402054042
            ],
            [
              -73.33598902072251,
              -37.47320974303366
            ],
            [
              -73.33506644065908,
              -37.47217415061318
            ],
            [
              -73.33558714637455,
              -37.47170756208965
            ],
            [
              -73.3360222880813,
              -37.47141873140967
            ],
            [
              -73.33649546897998,
              -37.471314026442506
            ],
            [
              -73.33686375221116,
              -37.47128957097891
            ],
            [
              -73.33725263438637,
              -37.47138440368887
            ],
            [
              -73.33807769588265,
              -37.47168145837831
            ],
            [
              -73.33885378679497,
              -37.472078528628465
            ],
            [
              -73.33952057557366,
              -37.47247961562841
            ],
            [
              -73.34009971214385,
              -37.47278570439536
            ],
            [
              -73.34036563088975,
              -37.47288505117291
            ],
            [
              -73.34128718906076,
              -37.47272017121802
            ],
            [
              -73.34186232542851,
              -37.472720825420346
            ],
            [
              -73.34265901079007,
              -37.4725277916972
            ],
            [
              -73.34334402656312,
              -37.47247528290543
            ],
            [
              -73.34338925962973,
              -37.47301928334468
            ],
            [
              -73.34192620442701,
              -37.4732914231818
            ],
            [
              -73.34163633131095,
              -37.47348762120887
            ],
            [
              -73.34005010475308,
              -37.47494291262739
            ],
            [
              -73.34020630583586,
              -37.47527547752102
            ],
            [
              -73.34036881835505,
              -37.475716943161245
            ],
            [
              -73.34077792127354,
              -37.47616024570124
            ],
            [
              -73.34104407313646,
              -37.476499674936285
            ],
            [
              -73.34132073802981,
              -37.47678415108145
            ],
            [
              -73.3415141539671,
              -37.47704986317229
            ],
            [
              -73.34164177583783,
              -37.47736165166954
            ],
            [
              -73.34149421293696,
              -37.477650830205256
            ],
            [
              -73.34133172329284,
              -37.477918731723605
            ],
            [
              -73.34076077420819,
              -37.478463588854
            ],
            [
              -73.34029156241981,
              -37.478873738371966
            ],
            [
              -73.34007923594413,
              -37.47899068604051
            ],
            [
              -73.33981161835855,
              -37.47909875470194
            ],
            [
              -73.33959424323757,
              -37.479128581292876
            ],
            [
              -73.33933461015162,
              -37.479138135046284
            ],
            [
              -73.33883699814034,
              -37.47905822444206
            ],
            [
              -73.33856306991204,
              -37.47905738930524
            ],
            [
              -73.33819474874011,
              -37.47908185183743
            ],
            [
              -73.33810981830004,
              -37.47927050328534
            ],
            [
              -73.33820883851496,
              -37.47956152055741
            ],
            [
              -73.33829230254968,
              -37.479820370666324
            ],
            [
              -73.33853049836557,
              -37.48014992083038
            ],
            [
              -73.33887738648698,
              -37.48046455812361
            ],
            [
              -73.33901908495749,
              -37.48054665114174
            ],
            [
              -73.33924025067513,
              -37.480582166986544
            ],
            [
              -73.33956884401796,
              -37.48058098863168
            ],
            [
              -73.34023023056243,
              -37.48041477501287
            ],
            [
              -73.34149707036309,
              -37.48006256956465
            ],
            [
              -73.3432295376952,
              -37.47947493685438
            ],
            [
              -73.3435642122186,
              -37.47934256338305
            ],
            [
              -73.3438324559789,
              -37.4792453768999
            ],
            [
              -73.34517824835548,
              -37.478366385415285
            ],
            [
              -73.3455196273065,
              -37.4781137137736
            ],
            [
              -73.34602031943292,
              -37.47753868435368
            ],
            [
              -73.3463194363857,
              -37.47726574107466
            ],
            [
              -73.34713692198613,
              -37.476722684085416
            ],
            [
              -73.34744993653766,
              -37.47668931914738
            ],
            [
              -73.34767109327544,
              -37.47672481901699
            ],
            [
              -73.34795512436995,
              -37.47689987294192
            ],
            [
              -73.34840376167402,
              -37.47707977118421
            ],
            [
              -73.3490748238085,
              -37.477316943936685
            ],
            [
              -73.34937480713872,
              -37.47729496772548
            ],
            [
              -73.34965606603687,
              -37.47718637375705
            ],
            [
              -73.34999767379705,
              -37.47717377390758
            ],
            [
              -73.35038868855132,
              -37.477186633612845
            ],
            [
              -73.3507066045668,
              -37.477237656035854
            ],
            [
              -73.35063318985186,
              -37.47727037641131
            ],
            [
              -73.3503929247457,
              -37.47737745965789
            ],
            [
              -73.35000842604335,
              -37.47735890300514
            ],
            [
              -73.34976120245344,
              -37.47734619520887
            ],
            [
              -73.3496874377673,
              -37.477490789517276
            ],
            [
              -73.34992883511133,
              -37.47787476363457
            ],
            [
              -73.35012861029304,
              -37.4782493604026
            ],
            [
              -73.35018162115936,
              -37.47845475716401
            ],
            [
              -73.35020540482675,
              -37.47862849228329
            ],
            [
              -73.35012430066894,
              -37.47888248977097
            ],
            [
              -73.35000599673558,
              -37.47920333944813
            ],
            [
              -73.34984669666946,
              -37.47952570091873
            ],
            [
              -73.34952911103203,
              -37.47995211954254
            ],
            [
              -73.34951506214958,
              -37.48018181693413
            ],
            [
              -73.34943205673588,
              -37.48040314502137
            ],
            [
              -73.34931602904858,
              -37.48052747005717
            ],
            [
              -73.34908941638608,
              -37.48063404728081
            ],
            [
              -73.34896225199196,
              -37.480802436291675
            ],
            [
              -73.34893453732458,
              -37.481032637430246
            ],
            [
              -73.34899640079036,
              -37.48139049487685
            ],
            [
              -73.3491612621513,
              -37.481635420467605
            ],
            [
              -73.34934801227986,
              -37.48202141138895
            ],
            [
              -73.34949857860704,
              -37.4822559505736
            ],
            [
              -73.34980452446048,
              -37.48257206423271
            ],
            [
              -73.34991726191843,
              -37.48286256427679
            ],
            [
              -73.35002999681971,
              -37.483153064172946
            ],
            [
              -73.35006934729101,
              -37.48335896491939
            ],
            [
              -73.35000861090725,
              -37.48349216529705
            ],
            [
              -73.34988017974116,
              -37.48363877540256
            ],
            [
              -73.34968342091955,
              -37.4837879060206
            ],
            [
              -73.34943326306416,
              -37.483960832631844
            ],
            [
              -73.34890877653056,
              -37.48436214133586
            ],
            [
              -73.34890206717412,
              -37.484482435732176
            ],
            [
              -73.34835309611479,
              -37.48463909660006
            ],
            [
              -73.34726640505454,
              -37.48502838833239
            ],
            [
              -73.34671306102658,
              -37.48516883313098
            ],
            [
              -73.3461838858839,
              -37.48525381785729
            ],
            [
              -73.345628957134,
              -37.48536703229445
            ],
            [
              -73.34548736177481,
              -37.485404990579376
            ],
            [
              -73.34516403987844,
              -37.485733390489834
            ],
            [
              -73.34489960488156,
              -37.48625060341483
            ],
            [
              -73.34482530941919,
              -37.48650434692236
            ],
            [
              -73.34487183487371,
              -37.487070125076634
            ],
            [
              -73.34496872208764,
              -37.48767769957006
            ],
            [
              -73.34490536560378,
              -37.488001975619405
            ]
          ]
        ]
      }
    },
    {
      "type": "Feature",
      "properties": {
        "zona": "Z-2",
        "nombre": "Z-2 Zona Residencial Mixta con Industria Inofensiva",
        "decreto": "Publicacion PRC Curanilahue. Decreto supremo V y U N°56. Fecha promulgacion 22.04.1982. Fecha publicacion D.O. 27.05.1982.",
        "comuna": "Curanilahue"
      },
      "geometry": {
        "type": "Polygon",
        "coordinates": [
          [
            [
              -73.36194745690243,
              -37.462912949381064
            ],
            [
              -73.36297512706172,
              -37.463467505883074
            ],
            [
              -73.36397997734109,
              -37.46403055831403
            ],
            [
              -73.36552555741186,
              -37.46494463921916
            ],
            [
              -73.36570887020738,
              -37.4650360725815
            ],
            [
              -73.36502944606383,
              -37.46653450845772
            ],
            [
              -73.36595491753378,
              -37.46714413314673
            ],
            [
              -73.3652990018878,
              -37.46857622057325
            ],
            [
              -73.36483248337181,
              -37.469499287028164
            ],
            [
              -73.36446653646104,
              -37.46999619525164
            ],
            [
              -73.36376503156183,
              -37.470621515578465
            ],
            [
              -73.36306919760949,
              -37.47096142960924
            ],
            [
              -73.36257888725335,
              -37.471241485824386
            ],
            [
              -73.36205934562156,
              -37.47148988116174
            ],
            [
              -73.36118582545681,
              -37.47177319222896
            ],
            [
              -73.36040287262735,
              -37.471965841879836
            ],
            [
              -73.35986458387559,
              -37.47212761523635
            ],
            [
              -73.35897730462122,
              -37.472880688922515
            ],
            [
              -73.35860387721749,
              -37.47328736940475
            ],
            [
              -73.35812909736929,
              -37.47359957266808
            ],
            [
              -73.3575694391195,
              -37.47410043722971
            ],
            [
              -73.35708795396116,
              -37.47453293144219
            ],
            [
              -73.35651561452,
              -37.47481599387942
            ],
            [
              -73.35591530987901,
              -37.47508917386615
            ],
            [
              -73.35549283260534,
              -37.474417241406655
            ],
            [
              -73.35547093721841,
              -37.47427617753667
            ],
            [
              -73.35573914588123,
              -37.47417896580156
            ],
            [
              -73.35620407424712,
              -37.473932614749216
            ],
            [
              -73.35647834415734,
              -37.47370421787747
            ],
            [
              -73.35680346612243,
              -37.473408461735616
            ],
            [
              -73.35717753828101,
              -37.473012677101956
            ],
            [
              -73.35761386205662,
              -37.47274555103941
            ],
            [
              -73.3580308172532,
              -37.47238091927999
            ],
            [
              -73.35835402643369,
              -37.47205249066557
            ],
            [
              -73.35882309330874,
              -37.47164227721644
            ],
            [
              -73.3591129099943,
              -37.47144604013455
            ],
            [
              -73.35960640427282,
              -37.47122044629099
            ],
            [
              -73.359860932614,
              -37.47112373080016
            ],
            [
              -73.35879601415947,
              -37.4702354672468
            ],
            [
              -73.35822208622668,
              -37.47072594830367
            ],
            [
              -73.35801614806353,
              -37.47095182308031
            ],
            [
              -73.35764055088887,
              -37.47108574772929
            ],
            [
              -73.35621442620781,
              -37.471520399158436
            ],
            [
              -73.3557593757861,
              -37.4717009057371
            ],
            [
              -73.35537263940498,
              -37.47187888811995
            ],
            [
              -73.35517718590255,
              -37.472049804398125
            ],
            [
              -73.35493087812938,
              -37.47228807903747
            ],
            [
              -73.35477767874704,
              -37.472479262347214
            ],
            [
              -73.35462447972331,
              -37.47267044454846
            ],
            [
              -73.35429492035222,
              -37.47288996534177
            ],
            [
              -73.35320880522542,
              -37.47305010801321
            ],
            [
              -73.35279737739432,
              -37.47280337493101
            ],
            [
              -73.352677946492,
              -37.4726331705445
            ],
            [
              -73.35253283008772,
              -37.47225656145449
            ],
            [
              -73.35273524970842,
              -37.47220543765219
            ],
            [
              -73.35301268870312,
              -37.4720314983666
            ],
            [
              -73.35323863782497,
              -37.47191402553757
            ],
            [
              -73.35358982701077,
              -37.47159548968019
            ],
            [
              -73.35406941672888,
              -37.47113033991649
            ],
            [
              -73.35462654932066,
              -37.470585932243445
            ],
            [
              -73.35575002024059,
              -37.469420376118144
            ],
            [
              -73.35716506254886,
              -37.46790843574546
            ],
            [
              -73.35725551893398,
              -37.46788026522178
            ],
            [
              -73.35947435017177,
              -37.46591623325147
            ],
            [
              -73.36094025323897,
              -37.46454013304977
            ],
            [
              -73.36173875043656,
              -37.463771235021355
            ],
            [
              -73.36198539226645,
              -37.46317957878327
            ],
            [
              -73.36194745690243,
              -37.462912949381064
            ]
          ]
        ]
      }
    },
    {
      "type": "Feature",
      "properties": {
        "zona": "Z-4",
        "nombre": "Z-4 Zona Industrial y Bodegaje",
        "decreto": "4ta Modificacion PRC Curanilahue. Decreto V y U N°27. Fecha promulgacion 27.04.2012. Fecha publicacion D.O. 22.04.2013.",
        "comuna": "Curanilahue"
      },
      "geometry": {
        "type": "Polygon",
        "coordinates": [
          [
            [
              -73.36013428790578,
              -37.46146806840215
            ],
            [
              -73.36008540307958,
              -37.46062778667891
            ],
            [
              -73.36009289081728,
              -37.45957983574538
            ],
            [
              -73.36010853382055,
              -37.45914272677129
            ],
            [
              -73.3601292449695,
              -37.45879273695029
            ],
            [
              -73.36014072856884,
              -37.458519480748066
            ],
            [
              -73.36027551632519,
              -37.45801248744446
            ],
            [
              -73.36053966267035,
              -37.457140574158565
            ],
            [
              -73.36065571773005,
              -37.45654696722783
            ],
            [
              -73.36071043883823,
              -37.456075673962125
            ],
            [
              -73.36069939241284,
              -37.455650464293804
            ],
            [
              -73.36061497843863,
              -37.45514066123202
            ],
            [
              -73.3604168511871,
              -37.45455866960511
            ],
            [
              -73.36006538675898,
              -37.45345850810831
            ],
            [
              -73.35993710647782,
              -37.45313585136574
            ],
            [
              -73.35977798490103,
              -37.45298894701577
            ],
            [
              -73.35959027581555,
              -37.452821273091516
            ],
            [
              -73.35932124298823,
              -37.45266751644175
            ],
            [
              -73.35876409157547,
              -37.452502580456965
            ],
            [
              -73.35843056246118,
              -37.45241668517238
            ],
            [
              -73.35824159191397,
              -37.452227228478336
            ],
            [
              -73.35807867449199,
              -37.452014982444005
            ],
            [
              -73.3580920675552,
              -37.45177439519155
            ],
            [
              -73.35817565639691,
              -37.45156395499428
            ],
            [
              -73.35843871647408,
              -37.45137962269386
            ],
            [
              -73.35922146693301,
              -37.451186998603205
            ],
            [
              -73.35865158937177,
              -37.44962563161423
            ],
            [
              -73.3578233243224,
              -37.447386270336004
            ],
            [
              -73.35717889181304,
              -37.44571851658886
            ],
            [
              -73.36082775826982,
              -37.444677879456286
            ],
            [
              -73.36167745673,
              -37.44446094006326
            ],
            [
              -73.36205354941222,
              -37.44433790034991
            ],
            [
              -73.3624000704027,
              -37.44441239283736
            ],
            [
              -73.36279073430966,
              -37.444539816962155
            ],
            [
              -73.36355390214919,
              -37.44518821171242
            ],
            [
              -73.36402997367173,
              -37.44560713165899
            ],
            [
              -73.36455209589153,
              -37.44611165061271
            ],
            [
              -73.36509554987876,
              -37.44627706717288
            ],
            [
              -73.36527720158699,
              -37.44657591625397
            ],
            [
              -73.36162856160507,
              -37.44997394974823
            ],
            [
              -73.36078505458634,
              -37.45076906571618
            ],
            [
              -73.36027704045121,
              -37.451213463674634
            ],
            [
              -73.3600806565836,
              -37.45160268727119
            ],
            [
              -73.35996686084049,
              -37.45199977141248
            ],
            [
              -73.35999029317836,
              -37.45240269615223
            ],
            [
              -73.36014553008516,
              -37.45295353463374
            ],
            [
              -73.36048495787853,
              -37.45384678958391
            ],
            [
              -73.36067041384302,
              -37.454210983969794
            ],
            [
              -73.36084446872748,
              -37.45437916165223
            ],
            [
              -73.36113766221666,
              -37.45447745467951
            ],
            [
              -73.36143149165812,
              -37.454586636017154
            ],
            [
              -73.36180854836131,
              -37.45471456536
            ],
            [
              -73.36196704571468,
              -37.45485057724035
            ],
            [
              -73.36207153722897,
              -37.454999498178815
            ],
            [
              -73.36212265670362,
              -37.45517222001802
            ],
            [
              -73.36207942320746,
              -37.45537025755493
            ],
            [
              -73.3619164154326,
              -37.455627291330586
            ],
            [
              -73.36139725406831,
              -37.45611575919339
            ],
            [
              -73.36157701785274,
              -37.45638194408176
            ],
            [
              -73.36187113571317,
              -37.45673120499763
            ],
            [
              -73.36213033026544,
              -37.45695079839378
            ],
            [
              -73.36241558021797,
              -37.45714760038264
            ],
            [
              -73.3628158196818,
              -37.45743836790565
            ],
            [
              -73.36332851656822,
              -37.4577795402869
            ],
            [
              -73.36385361010144,
              -37.45809842503756
            ],
            [
              -73.3644352534378,
              -37.458447954144944
            ],
            [
              -73.36472431996063,
              -37.45871008922882
            ],
            [
              -73.36444690322537,
              -37.45935332326639
            ],
            [
              -73.36449324797283,
              -37.45967900566267
            ],
            [
              -73.36469176696176,
              -37.460031796772206
            ],
            [
              -73.36488965436548,
              -37.460373697696646
            ],
            [
              -73.3651005690131,
              -37.460704202571044
            ],
            [
              -73.36521868912862,
              -37.461321886458954
            ],
            [
              -73.36526821110914,
              -37.4617020170961
            ],
            [
              -73.3653526693923,
              -37.462211813700506
            ],
            [
              -73.36534310753714,
              -37.46251773853926
            ],
            [
              -73.36511462282705,
              -37.46306094394269
            ],
            [
              -73.36494175665348,
              -37.463383825707076
            ],
            [
              -73.36501923734475,
              -37.46377383550846
            ],
            [
              -73.3652047440413,
              -37.46413801976219
            ],
            [
              -73.36545919531237,
              -37.4645105652241
            ],
            [
              -73.3655109652169,
              -37.46469417468081
            ],
            [
              -73.36552555741186,
              -37.46494463921916
            ],
            [
              -73.36397997734109,
              -37.46403055831403
            ],
            [
              -73.36297512706172,
              -37.463467505883074
            ],
            [
              -73.3618584652375,
              -37.46286492663452
            ],
            [
              -73.3607609055839,
              -37.46211975702148
            ],
            [
              -73.36028600437267,
              -37.46172261067433
            ],
            [
              -73.36019354823476,
              -37.46163547371495
            ],
            [
              -73.36013428790578,
              -37.46146806840215
            ]
          ]
        ]
      }
    },
    {
      "type": "Feature",
      "properties": {
        "zona": "Z-2",
        "nombre": "Z-2 Zona Residencial Mixta con Industria Inofensiva",
        "decreto": "Publicacion PRC Curanilahue. Decreto supremo V y U N°56. Fecha promulgacion 22.04.1982. Fecha publicacion D.O. 27.05.1982.",
        "comuna": "Curanilahue"
      },
      "geometry": {
        "type": "Polygon",
        "coordinates": [
          [
            [
              -73.36012347243609,
              -37.464243164286295
            ],
            [
              -73.36012202252836,
              -37.464245510007764
            ],
            [
              -73.3601205267605,
              -37.46424571095889
            ],
            [
              -73.36012347243609,
              -37.464243164286295
            ]
          ]
        ]
      }
    },
    {
      "type": "Feature",
      "properties": {
        "zona": "Z-2",
        "nombre": "Z-2 Zona Residencial Mixta con Industria Inofensiva",
        "decreto": "Publicacion PRC Curanilahue. Decreto supremo V y U N°56. Fecha promulgacion 22.04.1982. Fecha publicacion D.O. 27.05.1982.",
        "comuna": "Curanilahue"
      },
      "geometry": {
        "type": "Polygon",
        "coordinates": [
          [
            [
              -73.35964211007459,
              -37.46465926433931
            ],
            [
              -73.35981406467447,
              -37.46443563362769
            ],
            [
              -73.35988950485023,
              -37.46427674609271
            ],
            [
              -73.3601205267605,
              -37.46424571095889
            ],
            [
              -73.35964211007459,
              -37.46465926433931
            ]
          ]
        ]
      }
    },
    {
      "type": "Feature",
      "properties": {
        "zona": "Z-2",
        "nombre": "Z-2 Zona Residencial Mixta con Industria Inofensiva",
        "decreto": "Publicacion PRC Curanilahue. Decreto supremo V y U N°56. Fecha promulgacion 22.04.1982. Fecha publicacion D.O. 27.05.1982.",
        "comuna": "Curanilahue"
      },
      "geometry": {
        "type": "Polygon",
        "coordinates": [
          [
            [
              -73.36012347243609,
              -37.464243164286295
            ],
            [
              -73.36030780395784,
              -37.463944969070276
            ],
            [
              -73.36022901155428,
              -37.4641519339559
            ],
            [
              -73.36012347243609,
              -37.464243164286295
            ]
          ]
        ]
      }
    },
    {
      "type": "Feature",
      "properties": {
        "zona": "Z-2",
        "nombre": "Z-2 Zona Residencial Mixta con Industria Inofensiva",
        "decreto": "Publicacion PRC Curanilahue. Decreto supremo V y U N°56. Fecha promulgacion 22.04.1982. Fecha publicacion D.O. 27.05.1982.",
        "comuna": "Curanilahue"
      },
      "geometry": {
        "type": "Polygon",
        "coordinates": [
          [
            [
              -73.35895328967722,
              -37.46521555274947
            ],
            [
              -73.35896912104624,
              -37.465208966231906
            ],
            [
              -73.35920553476487,
              -37.465036530180036
            ],
            [
              -73.35920690023151,
              -37.46503546310826
            ],
            [
              -73.35957222914698,
              -37.46475014386823
            ],
            [
              -73.35964211007459,
              -37.46465926433931
            ],
            [
              -73.3601205267605,
              -37.46424571095889
            ],
            [
              -73.36012202252836,
              -37.464245510007764
            ],
            [
              -73.36012347243609,
              -37.464243164286295
            ],
            [
              -73.36022901155428,
              -37.4641519339559
            ],
            [
              -73.36030780395784,
              -37.463944969070276
            ],
            [
              -73.36053306225432,
              -37.46358056330404
            ],
            [
              -73.36066622270341,
              -37.46297069928771
            ],
            [
              -73.36019354823476,
              -37.46163547371495
            ],
            [
              -73.36028600437267,
              -37.46172261067433
            ],
            [
              -73.3607609055839,
              -37.46211975702148
            ],
            [
              -73.3618584652375,
              -37.46286492663452
            ],
            [
              -73.36194745690243,
              -37.462912949381064
            ],
            [
              -73.36198539226645,
              -37.46317957878327
            ],
            [
              -73.36173875043656,
              -37.463771235021355
            ],
            [
              -73.36094025323897,
              -37.46454013304977
            ],
            [
              -73.35947435017177,
              -37.46591623325147
            ],
            [
              -73.35725551893398,
              -37.46788026522178
            ],
            [
              -73.35716506254886,
              -37.46790843574546
            ],
            [
              -73.35575002024059,
              -37.469420376118144
            ],
            [
              -73.35462654932066,
              -37.470585932243445
            ],
            [
              -73.35406941672888,
              -37.47113033991649
            ],
            [
              -73.35358982701077,
              -37.47159548968019
            ],
            [
              -73.35323863782497,
              -37.47191402553757
            ],
            [
              -73.35301268870312,
              -37.4720314983666
            ],
            [
              -73.35273524970842,
              -37.47220543765219
            ],
            [
              -73.35253283008772,
              -37.47225656145449
            ],
            [
              -73.35187091512957,
              -37.472411947747325
            ],
            [
              -73.35141749783622,
              -37.471206389566476
            ],
            [
              -73.34754038359354,
              -37.47211330993383
            ],
            [
              -73.346091029482,
              -37.47238499672922
            ],
            [
              -73.34338925962973,
              -37.47301928334468
            ],
            [
              -73.34334402656312,
              -37.47247528290543
            ],
            [
              -73.34328021518827,
              -37.47066602139285
            ],
            [
              -73.34630767522918,
              -37.471634907516226
            ],
            [
              -73.34746448269664,
              -37.47198514800436
            ],
            [
              -73.3476402113596,
              -37.471945930406584
            ],
            [
              -73.34974387719751,
              -37.4713881755726
            ],
            [
              -73.35075534031961,
              -37.47112168697962
            ],
            [
              -73.35135754442433,
              -37.47096019746027
            ],
            [
              -73.35136431211303,
              -37.47098804752035
            ],
            [
              -73.35216090041787,
              -37.47066738520767
            ],
            [
              -73.35239658729401,
              -37.470434125278786
            ],
            [
              -73.35254444896783,
              -37.47033539441199
            ],
            [
              -73.3527504038052,
              -37.47010952683406
            ],
            [
              -73.35300215035036,
              -37.4697291836169
            ],
            [
              -73.35307982146331,
              -37.46959352704107
            ],
            [
              -73.3533145843861,
              -37.46923568095033
            ],
            [
              -73.35383790975047,
              -37.468566610870376
            ],
            [
              -73.35457576233176,
              -37.468203291490674
            ],
            [
              -73.35595354664537,
              -37.467726712528155
            ],
            [
              -73.35700587092987,
              -37.46697087477754
            ],
            [
              -73.35895720653558,
              -37.465240786076144
            ],
            [
              -73.35895328967722,
              -37.46521555274947
            ]
          ]
        ]
      }
    }
  ]
}