{"type":"FeatureCollection","features":[{"type":"Feature","properties":{"zona_code":"ZM","zona":"ZM Zona Mixta","comuna":"ElCarmen"},"geometry":{"type":"Polygon","coordinates":[[[-72.08599291292809,-36.90170948214836],[-72.08597687116182,-36.90171617125602],[-72.08598626420738,-36.901718106764434],[-72.08460488616115,-36.90350982408119],[-72.08447482070939,-36.90381837461439],[-72.08435585054782,-36.904107562776424],[-72.08427668843095,-36.904500618620425],[-72.0821195698202,-36.90401306537352],[-72.08240394605684,-36.903214870015915],[-72.08240734518664,-36.90319731034989],[-72.08264750829612,-36.902673774032046],[-72.08404589351257,-36.90083503879434],[-72.08574873952472,-36.89859737420772],[-72.08589602895418,-36.898421887405796],[-72.08811240676404,-36.8989101581587],[-72.08790723123883,-36.89918097416372],[-72.0859892857677,-36.90171872882136],[-72.08598626420738,-36.901718106764434],[-72.08599291292809,-36.90170948214836]]]}},{"type":"Feature","properties":{"zona_code":"ZE-1","zona":"ZE-1 Zona de Equipamiento Comercio","comuna":"ElCarmen"},"geometry":{"type":"Polygon","coordinates":[[[-72.02166889259796,-36.895246720695845],[-72.02440514019139,-36.895305786983535],[-72.02798936176643,-36.895414689188264],[-72.02793703605059,-36.89664387603706],[-72.02789512730544,-36.897883723240454],[-72.02778324681402,-36.900121742995765],[-72.02776795469116,-36.900485719604276],[-72.02487057996707,-36.90041057469264],[-72.02332562681205,-36.900378408303496],[-72.02273897368438,-36.90036950673657],[-72.02147693225075,-36.900359913309096],[-72.02155641607726,-36.89786046150072],[-72.02166889259796,-36.895246720695845]],[[-72.02391643384759,-36.898415286519544],[-72.02536089275443,-36.89845954424924],[-72.02541194079583,-36.897340249471824],[-72.02487626443495,-36.89731318384299],[-72.02390150584405,-36.89728556551913],[-72.02391643384759,-36.898415286519544]]]}},{"type":"Feature","properties":{"zona_code":"ZE-3","zona":"ZE-3 Zona de Equipamiento Esparcimiento","comuna":"ElCarmen"},"geometry":{"type":"Polygon","coordinates":[[[-72.02498695254832,-36.89354252225649],[-72.02499879940865,-36.892102204722995],[-72.02507445833007,-36.892080341783206],[-72.02517683439252,-36.89204197116441],[-72.02527179526605,-36.892003787717],[-72.02541217750782,-36.89198828978045],[-72.02564869543146,-36.891964380541665],[-72.02590004018883,-36.891940092532536],[-72.02608123070036,-36.89190567166109],[-72.02611050725066,-36.89189538977086],[-72.02612220753743,-36.89352780320457],[-72.0261230063974,-36.89363909860715],[-72.02613393995739,-36.89364012492553],[-72.02613790271528,-36.89367805760875],[-72.02576803294032,-36.89363264891557],[-72.02547370819525,-36.893621076525065],[-72.02498695254832,-36.89354252225649]]]}},{"type":"Feature","properties":{"zona_code":"ZE-4","zona":"ZE-4 Zona de Equipamiento Comercio y Servicios","comuna":"ElCarmen"},"geometry":{"type":"Polygon","coordinates":[[[-71.99883336561636,-36.89662075518792],[-72.0022461501127,-36.896027853081534],[-72.00347007069038,-36.895824040702976],[-72.00465761422153,-36.895639016732886],[-72.00535263815442,-36.895573739069285],[-72.00612296745788,-36.89553635447297],[-72.00667584152126,-36.89550831161729],[-72.00621951121067,-36.89681448438815],[-72.0049122887072,-36.896900271814076],[-72.00369961049614,-36.89708831754739],[-72.00086056853405,-36.89758927390324],[-71.99878241645155,-36.89796365494322],[-71.99836651173509,-36.89803783296192],[-71.99883336561636,-36.89662075518792]]]}},{"type":"Feature","properties":{"zona_code":"ZE-4","zona":"ZE-4 Zona de Equipamiento Comercio y Servicios","comuna":"ElCarmen"},"geometry":{"type":"Polygon","coordinates":[[[-72.03792875345272,-36.89642574904233],[-72.03924649477375,-36.896120224044864],[-72.0416265948332,-36.895995104687636],[-72.04182244029778,-36.897021872978186],[-72.0407681933482,-36.8971238519345],[-72.04039892875993,-36.89716907335725],[-72.03786426710491,-36.89778457313627],[-72.03792875345272,-36.89642574904233]]]}},{"type":"Feature","properties":{"zona_code":"ZE-5","zona":"ZE-5 Zona de Equipamiento Deporte","comuna":"ElCarmen"},"geometry":{"type":"Polygon","coordinates":[[[-72.0318053345409,-36.89440415451062],[-72.0315227658996,-36.89423970985536],[-72.03127549887213,-36.894067210032],[-72.03094732153323,-36.89387531896479],[-72.0304437679545,-36.89375227695979],[-72.0302688300175,-36.89370017146851],[-72.03028439045201,-36.89340777832629],[-72.03029426965291,-36.893282357276185],[-72.03027108719903,-36.893259107033295],[-72.03022542977689,-36.89323047088329],[-72.0302191782433,-36.89288492390307],[-72.03018892895865,-36.89268304116426],[-72.03013997265539,-36.89257104199352],[-72.03005442215525,-36.89247189824197],[-72.03000829253777,-36.89243135273617],[-72.03002042460515,-36.89173559084315],[-72.03040514173455,-36.891658286338014],[-72.03071272589355,-36.89155506726129],[-72.03096147472819,-36.8914652705845],[-72.03117268689893,-36.89136451065947],[-72.0313327118563,-36.89128293841223],[-72.03151332792214,-36.89115911820083],[-72.03170499840486,-36.89093964726227],[-72.03188349049448,-36.890762236962935],[-72.03204327974777,-36.890674708628815],[-72.03216396172594,-36.890666478665196],[-72.03255227815009,-36.894445726663925],[-72.03224743163136,-36.894448056493914],[-72.0319430088157,-36.894443911681606],[-72.0318053345409,-36.89440415451062]]]}},{"type":"Feature","properties":{"zona_code":"ZE-6","zona":"ZE-6 Zona de Equipamiento Esparcimiento","comuna":"ElCarmen"},"geometry":{"type":"Polygon","coordinates":[[[-72.02611050725066,-36.89189538977086],[-72.02626420926194,-36.89184140342089],[-72.02688033252001,-36.89165880414536],[-72.0275163388383,-36.8914160884304],[-72.02775626717269,-36.89129076108382],[-72.0279521857206,-36.89117847545355],[-72.02825718277859,-36.89100976421084],[-72.02838591096824,-36.890887271369756],[-72.028668779972,-36.89053435001427],[-72.02882244995995,-36.89029201127336],[-72.028944940787,-36.89019947975718],[-72.02905283938125,-36.89011328005934],[-72.02914803288752,-36.890081049317374],[-72.02922957516333,-36.89007896895474],[-72.0293039416277,-36.890083031228954],[-72.02940219556618,-36.89012820725281],[-72.02950927476151,-36.89020892155237],[-72.02964165662698,-36.89036647462154],[-72.02968248972783,-36.890460799863604],[-72.02968578745313,-36.89054416195085],[-72.02966343685613,-36.89072950622654],[-72.02963566858891,-36.89077789901149],[-72.02948211281777,-36.8908354610199],[-72.02914534816149,-36.890951342755976],[-72.02901308828899,-36.89098452021911],[-72.02896260963706,-36.89102156983335],[-72.02890471694644,-36.89105880964862],[-72.02885470847495,-36.89110776934814],[-72.02881999705734,-36.89116825959482],[-72.02881635131028,-36.89126371933878],[-72.02881941233211,-36.8913411272182],[-72.0287844661947,-36.89139566239272],[-72.02874210597771,-36.89145038776732],[-72.02876764125072,-36.89153318270184],[-72.02890049619715,-36.89170264589363],[-72.02905111474789,-36.89175840701599],[-72.02924574165465,-36.89180112433368],[-72.02965370480882,-36.891796674582245],[-72.02996341161312,-36.89174704694639],[-72.03002042460515,-36.89173559084315],[-72.03000829253777,-36.89243135273617],[-72.03005442215525,-36.89247189824197],[-72.03013997265539,-36.89257104199352],[-72.03018892895865,-36.89268304116426],[-72.0302191782433,-36.89288492390307],[-72.03022542977689,-36.89323047088329],[-72.03027108719903,-36.893259107033295],[-72.03029426965291,-36.893282357276185],[-72.03028439045201,-36.89340777832629],[-72.0302688300175,-36.89370017146851],[-72.03020046375502,-36.89367980901432],[-72.02992214134063,-36.893622541350815],[-72.0291483166952,-36.89342056051553],[-72.0286917925308,-36.893360683162875],[-72.02848034959676,-36.89338825019336],[-72.02823041342869,-36.89344826943767],[-72.02790434407392,-36.8936473206203],[-72.02766746917248,-36.89385005666695],[-72.02753296961907,-36.89401441957426],[-72.02745377590871,-36.894076042974405],[-72.02718465553548,-36.89421403630245],[-72.02697201926503,-36.894279062595835],[-72.02684599032895,-36.894282276385084],[-72.02671996030563,-36.894285489111645],[-72.02666806609459,-36.89428681255572],[-72.02665182653521,-36.89425146409295],[-72.02666971510814,-36.89395298530587],[-72.02662205901838,-36.893685980071204],[-72.0261230063974,-36.89363909860715],[-72.02611050725066,-36.89189538977086]]]}},{"type":"Feature","properties":{"zona_code":"ZE-7","zona":"ZE-7 Zona de Equipamiento Comercio","comuna":"ElCarmen"},"geometry":{"type":"Polygon","coordinates":[[[-72.00731624620053,-36.89856105422666],[-72.00579615159808,-36.90129119159728],[-72.00525858144756,-36.90127817706119],[-72.00541714034598,-36.899114086369124],[-72.00567087744103,-36.89848217327639],[-72.00731624620053,-36.89856105422666]]]}},{"type":"Feature","properties":{"zona_code":"ZE-8","zona":"ZE-8 Zona de Equipamiento Comercio","comuna":"ElCarmen"},"geometry":{"type":"Polygon","coordinates":[[[-72.00205882464805,-36.901969733721636],[-72.00210503710794,-36.90076335610985],[-72.00220096723898,-36.898364339665655],[-72.00479483279744,-36.8984989837578],[-72.00460060416528,-36.9008117966893],[-72.00446169951415,-36.90124375196946],[-72.00388550948313,-36.902674542823675],[-72.00375870337948,-36.90262053121151],[-72.00364107643273,-36.902573439215296],[-72.0034978767138,-36.9025556049465],[-72.00342669837015,-36.90255740539214],[-72.00331215523902,-36.902588913753675],[-72.00322542332277,-36.90264832956215],[-72.00316566542988,-36.90271421413144],[-72.00307977497569,-36.90279506597718],[-72.00297636933198,-36.90288351254959],[-72.00290715192064,-36.902935331498746],[-72.00281817796632,-36.90293758247132],[-72.00271056944355,-36.90291884636045],[-72.00266271949414,-36.90283422589851],[-72.00257920986171,-36.90252162499825],[-72.00249766292158,-36.90225904291362],[-72.00243005871151,-36.9021248535334],[-72.00231159190734,-36.90205632413233],[-72.00220230293064,-36.90199471534058],[-72.00211220853676,-36.90196838400384],[-72.00205882464805,-36.901969733721636]]]}},{"type":"Feature","properties":{"zona_code":"ZE-9","zona":"ZE-9 Zona de Equipamiento Comercio e infraestructura","comuna":"ElCarmen"},"geometry":{"type":"Polygon","coordinates":[[[-72.00567087744103,-36.89848217327639],[-72.00634379795734,-36.89680626917015],[-72.00832464425011,-36.89667532555071],[-72.00839806253181,-36.896670268708874],[-72.00759201098889,-36.89806575095114],[-72.00731624620053,-36.89856105422666],[-72.00567087744103,-36.89848217327639]]]}},{"type":"Feature","properties":{"zona_code":"ZEP","zona":"ZEP Zona de Espacio Público","comuna":"ElCarmen"},"geometry":{"type":"Polygon","coordinates":[[[-72.02391643384759,-36.898415286519544],[-72.02390150584405,-36.89728556551913],[-72.02487626443495,-36.89731318384299],[-72.02541194079583,-36.897340249471824],[-72.02536089275443,-36.89845954424924],[-72.02391643384759,-36.898415286519544]]]}},{"type":"Feature","properties":{"zona_code":"ZCH","zona":"ZCH Zona de Conservación Histórica","comuna":"ElCarmen"},"geometry":{"type":"Polygon","coordinates":[[[-72.01760284198805,-36.89741115480183],[-72.01763454026903,-36.896859602723815],[-72.0191506889757,-36.896900817391476],[-72.01912726036065,-36.897451072874446],[-72.01760284198805,-36.89741115480183]]]}},{"type":"Feature","properties":{"zona_code":"ZES-1","zona":"ZES-1 Zona de Equipamiento de Salud/ Hospital\na de Equipamiento de Salud/ Cementerio","comuna":"ElCarmen"},"geometry":{"type":"Polygon","coordinates":[[[-72.03433697047407,-36.89785036561211],[-72.03434309216115,-36.897630269768236],[-72.03552759045361,-36.89765064963887],[-72.03547660970013,-36.89814309341502],[-72.03544997083986,-36.89878153966256],[-72.03426162853496,-36.898758277287484],[-72.03432450262339,-36.89791028853201],[-72.03433697047407,-36.89785036561211]]]}},{"type":"Feature","properties":{"zona_code":"ZES-2","zona":"ZES-2 Zona de Equipamiento de Salud/ Cementerio","comuna":"ElCarmen"},"geometry":{"type":"Polygon","coordinates":[[[-72.03016278619886,-36.90192253832366],[-72.0301325729786,-36.90178626969801],[-72.03021021366958,-36.901122679140904],[-72.03094562505952,-36.901139666494636],[-72.03095605995827,-36.90046587066714],[-72.0309888874751,-36.90035774476311],[-72.03102572138035,-36.90035084429403],[-72.03107020602761,-36.90034970857213],[-72.0312636787165,-36.900362648206155],[-72.03240321339989,-36.90046467452188],[-72.03245699756759,-36.900510983038735],[-72.0328434713486,-36.90052495183732],[-72.03286126314678,-36.900786755969975],[-72.03310569197714,-36.90077454997418],[-72.03307606817707,-36.90115081402707],[-72.033013646431,-36.90204185647414],[-72.03234886188004,-36.902014715748834],[-72.03016278619886,-36.90192253832366]]]}},{"type":"Feature","properties":{"zona_code":"ZR","zona":"ZR Zona Residencial","comuna":"ElCarmen"},"geometry":{"type":"Polygon","coordinates":[[[-72.02071669625475,-36.899073922372764],[-72.01848297199666,-36.89907709797845],[-72.01853794368401,-36.897835925496096],[-72.01919551695329,-36.897837083670474],[-72.02030323753488,-36.89788639165607],[-72.02155641607726,-36.89786046150072],[-72.02147693225075,-36.900359913309096],[-72.02273897368438,-36.90036950673657],[-72.02332562681205,-36.900378408303496],[-72.02487057996707,-36.90041057469264],[-72.02776795469116,-36.900485719604276],[-72.02778324681402,-36.900121742995765],[-72.02789512730544,-36.897883723240454],[-72.03043155269495,-36.89799185237636],[-72.03243799580127,-36.89805982315742],[-72.03245821913434,-36.89782088891256],[-72.03433697047407,-36.89785036561211],[-72.03432450262339,-36.89791028853201],[-72.03426162853496,-36.898758277287484],[-72.03544997083986,-36.89878153966256],[-72.03547660970013,-36.89814309341502],[-72.0357066731742,-36.89814317034582],[-72.035705820939,-36.898219008879465],[-72.03583496490288,-36.89960448628276],[-72.03586409567733,-36.90090072985008],[-72.03539889818725,-36.900960310522095],[-72.03307606817707,-36.90115081402707],[-72.03310569197714,-36.90077454997418],[-72.03286126314678,-36.900786755969975],[-72.0328434713486,-36.90052495183732],[-72.03245699756759,-36.900510983038735],[-72.03240321339989,-36.90046467452188],[-72.0312636787165,-36.900362648206155],[-72.03107020602761,-36.90034970857213],[-72.03102572138035,-36.90035084429403],[-72.0309888874751,-36.90035774476311],[-72.03095605995827,-36.90046587066714],[-72.03094562505952,-36.901139666494636],[-72.03021021366958,-36.901122679140904],[-72.0301325729786,-36.90178626969801],[-72.03016278619886,-36.90192253832366],[-72.02697847364914,-36.90178819662671],[-72.0261019484607,-36.9017688217512],[-72.02607170122906,-36.90231795321692],[-72.02604286667682,-36.90252730450879],[-72.02594765620832,-36.90293504157721],[-72.02570838711019,-36.90420475431415],[-72.02574346404825,-36.904339287656846],[-72.02560033904135,-36.90430369650168],[-72.02529698170683,-36.90428997087271],[-72.0252755861853,-36.90431197432276],[-72.02499015775606,-36.90475197656686],[-72.02488839500388,-36.904828193552966],[-72.02483370467188,-36.904699458197136],[-72.02483643680836,-36.90461832711728],[-72.02502089534168,-36.903726711880736],[-72.02525638787361,-36.90232358225308],[-72.02524029699151,-36.901766095395764],[-72.02446861005602,-36.90175442058809],[-72.02073234915792,-36.90165987502784],[-72.02071669625475,-36.899073922372764]]]}},{"type":"Feature","properties":{"zona_code":"ZR","zona":"ZR Zona Residencial","comuna":"ElCarmen"},"geometry":{"type":"Polygon","coordinates":[[[-72.00510882738494,-36.901274551256606],[-72.00446169951415,-36.90124375196946],[-72.00460060416528,-36.9008117966893],[-72.00479483279744,-36.8984989837578],[-72.0049122887072,-36.896900271814076],[-72.00621951121067,-36.89681448438815],[-72.00634379795734,-36.89680626917015],[-72.00541714034598,-36.899114086369124],[-72.00525858144756,-36.90127817706119],[-72.00510882738494,-36.901274551256606]]]}},{"type":"Feature","properties":{"zona_code":"ZR","zona":"ZR Zona Residencial","comuna":"ElCarmen"},"geometry":{"type":"Polygon","coordinates":[[[-72.01908613097822,-36.89640784689321],[-72.01771353581037,-36.89637837414803],[-72.01648964977103,-36.89628073381333],[-72.01651527302869,-36.895800860911436],[-72.01645964260142,-36.895745054392165],[-72.01649799478436,-36.89513611295477],[-72.02166889259796,-36.895246720695845],[-72.02161855312247,-36.89641652042187],[-72.01908613097822,-36.89640784689321]]]}},{"type":"Feature","properties":{"zona_code":"ZR","zona":"ZR Zona Residencial","comuna":"ElCarmen"},"geometry":{"type":"Polygon","coordinates":[[[-72.02314703129188,-36.89527863704185],[-72.02322920786429,-36.894347259719424],[-72.02383452633705,-36.89434137900082],[-72.02424713791402,-36.894416698187705],[-72.02449717159598,-36.89443417066773],[-72.02439977734207,-36.89530567148743],[-72.02314703129188,-36.89527863704185]]]}},{"type":"Feature","properties":{"zona_code":"ZR","zona":"ZR Zona Residencial","comuna":"ElCarmen"},"geometry":{"type":"Polygon","coordinates":[[[-72.02491856865149,-36.895321393414115],[-72.02498522174577,-36.893753065466356],[-72.02498695254832,-36.89354252225649],[-72.02547370819525,-36.893621076525065],[-72.02576803294032,-36.89363264891557],[-72.02613790271528,-36.89367805760875],[-72.0260902928789,-36.895357001886254],[-72.02491856865149,-36.895321393414115]]]}},{"type":"Feature","properties":{"zona_code":"ZR","zona":"ZR Zona Residencial","comuna":"ElCarmen"},"geometry":{"type":"Polygon","coordinates":[[[-72.0286917925308,-36.893360683162875],[-72.0291483166952,-36.89342056051553],[-72.02992214134063,-36.893622541350815],[-72.03020046375502,-36.89367980901432],[-72.0304437679545,-36.89375227695979],[-72.03094732153323,-36.89387531896479],[-72.03127549887213,-36.894067210032],[-72.0315227658996,-36.89423970985536],[-72.0318053345409,-36.89440415451062],[-72.031717716775,-36.89556510067912],[-72.03017865741539,-36.895604396377415],[-72.03018955367936,-36.89610479493716],[-72.02945892012465,-36.89609483314667],[-72.02946002687942,-36.896699850683405],[-72.02793703605059,-36.89664387603706],[-72.02798936176643,-36.895414689188264],[-72.02864919452388,-36.89543600362514],[-72.0286917925308,-36.893360683162875]]]}},{"type":"Feature","properties":{"zona_code":"ZR","zona":"ZR Zona Residencial","comuna":"ElCarmen"},"geometry":{"type":"Polygon","coordinates":[[[-72.0130793522203,-36.89575259778608],[-72.0127318655438,-36.89344847023821],[-72.01367814121176,-36.893474401494856],[-72.01392351482394,-36.89348094577204],[-72.01398559222606,-36.89403668188325],[-72.01339179279996,-36.8941089772222],[-72.01373345565682,-36.895851488472445],[-72.0130793522203,-36.89575259778608]]]}},{"type":"Feature","properties":{"zona_code":"ZE-2","zona":"ZE-2 Zona de Equipamiento Comercio y Servicios","comuna":"ElCarmen"},"geometry":{"type":"Polygon","coordinates":[[[-72.02793703605059,-36.89664387603706],[-72.0294686189122,-36.89670016660349],[-72.03343992382149,-36.896837169681575],[-72.03592434244906,-36.89690717213789],[-72.03792875345272,-36.89642574904233],[-72.03786426710491,-36.89778457313627],[-72.03639294254532,-36.89814183084378],[-72.03623867053771,-36.89818153952896],[-72.03594306306286,-36.89821294145481],[-72.035705820939,-36.898219008879465],[-72.0357066731742,-36.89814317034582],[-72.03547660970013,-36.89814309341502],[-72.03552759045361,-36.89765064963887],[-72.03434309216115,-36.897630269768236],[-72.03433697047407,-36.89785036561211],[-72.03245821913434,-36.89782088891256],[-72.03243799580127,-36.89805982315742],[-72.03043155269495,-36.89799185237636],[-72.02789512730544,-36.897883723240454],[-72.02793703605059,-36.89664387603706]]]}},{"type":"Feature","properties":{"zona_code":"ZE-2","zona":"ZE-2 Zona de Equipamiento Comercio y Servicios","comuna":"ElCarmen"},"geometry":{"type":"Polygon","coordinates":[[[-72.00667584152126,-36.89550831161729],[-72.00727134409738,-36.89547892223881],[-72.0083639261353,-36.895408324090035],[-72.00934281698922,-36.89539066672503],[-72.01008262477569,-36.8954076733867],[-72.01058194880723,-36.89542362108931],[-72.01187006191053,-36.895569761527064],[-72.01373345565682,-36.895851488472445],[-72.01586741451095,-36.89621929502153],[-72.01648964977103,-36.89628073381333],[-72.01771353581037,-36.89637837414803],[-72.01908613097822,-36.89640784689321],[-72.02161855312247,-36.89641652042187],[-72.02155641607726,-36.89786046150072],[-72.02030323753488,-36.89788639165607],[-72.01919551695329,-36.897837083670474],[-72.01853794368401,-36.897835925496096],[-72.01827393444445,-36.897853287682594],[-72.01720875614566,-36.89771585715073],[-72.01477170310268,-36.897341468015554],[-72.01227904032497,-36.89691121945535],[-72.01158004807817,-36.896800207830715],[-72.01116883748254,-36.89676057110121],[-72.01029331959185,-36.896689791841304],[-72.00978452773872,-36.89665977759868],[-72.0086532568506,-36.89665269196653],[-72.00832464425011,-36.89667532555071],[-72.00621951121067,-36.89681448438815],[-72.00667584152126,-36.89550831161729]],[[-72.0191506889757,-36.896900817391476],[-72.01763454026903,-36.896859602723815],[-72.01760284198805,-36.89741115480183],[-72.01912726036065,-36.897451072874446],[-72.0191506889757,-36.896900817391476]]]}},{"type":"Feature","properties":{"zona_code":"ZER","zona":"ZER Zona de Extensión Residencial","comuna":"ElCarmen"},"geometry":{"type":"Polygon","coordinates":[[[-72.02426360239012,-36.90520716541487],[-72.02420252740686,-36.90497626343122],[-72.02407896641066,-36.90447873440503],[-72.02409120721745,-36.904412857930865],[-72.02419773032416,-36.90391542713045],[-72.02439006338882,-36.90277208170122],[-72.02446977765669,-36.90215970161443],[-72.02446861005602,-36.90175442058809],[-72.02524029699151,-36.901766095395764],[-72.02525638787361,-36.90232358225308],[-72.02502089534168,-36.903726711880736],[-72.02483643680836,-36.90461832711728],[-72.02483370467188,-36.904699458197136],[-72.02488839500388,-36.904828193552966],[-72.02478254888175,-36.9049074692154],[-72.02468248636642,-36.904967240011906],[-72.02459287433736,-36.90506608282859],[-72.02451802109992,-36.90520031198238],[-72.02450149570511,-36.90523291913652],[-72.02445340591275,-36.90525560135704],[-72.02431021146525,-36.905306525710586],[-72.02426360239012,-36.90520716541487]]]}},{"type":"Feature","properties":{"zona_code":"ZER","zona":"ZER Zona de Extensión Residencial","comuna":"ElCarmen"},"geometry":{"type":"Polygon","coordinates":[[[-72.00438082601603,-36.9030410938442],[-72.00426347831193,-36.903001148099975],[-72.0041992328141,-36.9029527058824],[-72.00411411006132,-36.90282611409645],[-72.00403010871972,-36.90272810407182],[-72.00388550948313,-36.902674542823675],[-72.00446169951415,-36.90124375196946],[-72.00510882738494,-36.901274551256606],[-72.00483796081666,-36.901937060230466],[-72.00457123321827,-36.90251601819521],[-72.00454391337283,-36.902576314224056],[-72.00454070446693,-36.902683683586325],[-72.00456598560822,-36.90276052943882],[-72.00474259495209,-36.90291103265771],[-72.00474662928042,-36.90311820357021],[-72.00438082601603,-36.9030410938442]]]}},{"type":"Feature","properties":{"zona_code":"ZER","zona":"ZER Zona de Extensión Residencial","comuna":"ElCarmen"},"geometry":{"type":"Polygon","coordinates":[[[-72.03623867053771,-36.89818153952896],[-72.03639294254532,-36.89814183084378],[-72.04039892875993,-36.89716907335725],[-72.0407681933482,-36.8971238519345],[-72.04182244029778,-36.897021872978186],[-72.03968148324361,-36.89879927771431],[-72.03823760985874,-36.90000448516065],[-72.03819525213652,-36.900059213058626],[-72.03826874050861,-36.900414957632165],[-72.03845565464344,-36.90213273538818],[-72.0381956877802,-36.90212746864647],[-72.03670236921258,-36.902088195565845],[-72.03529273119676,-36.90210040735143],[-72.03369585071584,-36.902069704507724],[-72.033013646431,-36.90204185647414],[-72.03307606817707,-36.90115081402707],[-72.03539889818725,-36.900960310522095],[-72.03586409567733,-36.90090072985008],[-72.03583496490288,-36.89960448628276],[-72.035705820939,-36.898219008879465],[-72.03594306306286,-36.89821294145481],[-72.03623867053771,-36.89818153952896]]]}},{"type":"Feature","properties":{"zona_code":"ZER","zona":"ZER Zona de Extensión Residencial","comuna":"ElCarmen"},"geometry":{"type":"Polygon","coordinates":[[[-71.99836651173509,-36.89803783296192],[-71.99878241645155,-36.89796365494322],[-72.00086056853405,-36.89758927390324],[-72.00369961049614,-36.89708831754739],[-72.0049122887072,-36.896900271814076],[-72.00479483279744,-36.8984989837578],[-72.00220096723898,-36.898364339665655],[-72.00210503710794,-36.90076335610985],[-72.00205882464805,-36.901969733721636],[-72.00200544184479,-36.90197108434387],[-72.00181887886362,-36.90198295377075],[-72.00175603842072,-36.90197023785899],[-72.00170931035473,-36.90191419887228],[-72.00168037845194,-36.90185771006266],[-72.00154958698897,-36.90147477829726],[-72.0013982676845,-36.90124972152753],[-72.00115272149748,-36.90112003129902],[-72.00093862943345,-36.901111138883095],[-72.00088412617902,-36.901083906303974],[-72.00083796039243,-36.90104215749502],[-72.00074338798761,-36.900901496212214],[-72.00064299824055,-36.900839660321815],[-72.00051731858639,-36.900814227289196],[-72.00049006659518,-36.90080061044901],[-72.00046695155018,-36.90066529679651],[-72.00037434100298,-36.900574654102854],[-72.00023976346954,-36.90054944469693],[-72.00007043757608,-36.90054657141146],[-71.99995085687736,-36.90044945808054],[-71.99981516014553,-36.900395666420415],[-71.99968170377556,-36.90039903911876],[-71.99954018974918,-36.90042407164711],[-71.99946207401318,-36.900476114236056],[-71.99940203495352,-36.900534852089436],[-71.99938535972262,-36.900563883382056],[-71.99931446311612,-36.90057282801057],[-71.99923354874278,-36.90055341372427],[-71.99916679004859,-36.900440659760164],[-71.99911586850729,-36.90027743662899],[-71.99901128251865,-36.9001084170565],[-71.99892533094258,-36.899960384080245],[-71.99892281265049,-36.89989607393983],[-71.99888498514497,-36.899839809251475],[-71.99882852494117,-36.899762556999406],[-71.99877346384709,-36.89972103218],[-71.99866585988383,-36.899702293510174],[-71.9985860657124,-36.89971146151073],[-71.99851489010925,-36.89971325912303],[-71.99834500675972,-36.89969609302039],[-71.99821932880563,-36.89967065673864],[-71.99806751985328,-36.89966018567383],[-71.99782290621017,-36.89968781192004],[-71.99836651173509,-36.89803783296192]]]}},{"type":"Feature","properties":{"zona_code":"ZER","zona":"ZER Zona de Extensión Residencial","comuna":"ElCarmen"},"geometry":{"type":"Polygon","coordinates":[[[-72.00759201098889,-36.89806575095114],[-72.00839806253181,-36.896670268708874],[-72.0086532568506,-36.89665269196653],[-72.00978452773872,-36.89665977759868],[-72.01029331959185,-36.896689791841304],[-72.01116883748254,-36.89676057110121],[-72.01158004807817,-36.896800207830715],[-72.01227904032497,-36.89691121945535],[-72.01477170310268,-36.897341468015554],[-72.01720875614566,-36.89771585715073],[-72.01827393444445,-36.897853287682594],[-72.01853794368401,-36.897835925496096],[-72.01848297199666,-36.89907709797845],[-72.02071669625475,-36.899073922372764],[-72.02073234915792,-36.90165987502784],[-72.01765909730642,-36.90158201844977],[-72.01170683394335,-36.901429200873515],[-72.00631228159527,-36.90130368372168],[-72.00579615159808,-36.90129119159728],[-72.00759201098889,-36.89806575095114]]]}},{"type":"Feature","properties":{"zona_code":"ZER","zona":"ZER Zona de Extensión Residencial","comuna":"ElCarmen"},"geometry":{"type":"Polygon","coordinates":[[[-72.04126667078398,-36.89412742645694],[-72.04127034916236,-36.89412732078523],[-72.0416265948332,-36.895995104687636],[-72.03924649477375,-36.896120224044864],[-72.03792875345272,-36.89642574904233],[-72.03592434244906,-36.89690717213789],[-72.03343992382149,-36.896837169681575],[-72.0294686189122,-36.89670016660349],[-72.02946002687942,-36.896699850683405],[-72.02945892012465,-36.89609483314667],[-72.03018955367936,-36.89610479493716],[-72.03017865741539,-36.895604396377415],[-72.031717716775,-36.89556510067912],[-72.0318053345409,-36.89440415451062],[-72.0319430088157,-36.894443911681606],[-72.03224743163136,-36.894448056493914],[-72.03255227815009,-36.894445726663925],[-72.03495187370841,-36.89432479908587],[-72.03773979007583,-36.894265412808025],[-72.04126667078398,-36.89412742645694]]]}},{"type":"Feature","properties":{"zona_code":"ZER","zona":"ZER Zona de Extensión Residencial","comuna":"ElCarmen"},"geometry":{"type":"Polygon","coordinates":[[[-72.02718465553548,-36.89421403630245],[-72.02745377590871,-36.894076042974405],[-72.02753296961907,-36.89401441957426],[-72.02766746917248,-36.89385005666695],[-72.02790434407392,-36.8936473206203],[-72.02823041342869,-36.89344826943767],[-72.02848034959676,-36.89338825019336],[-72.0286917925308,-36.893360683162875],[-72.02864919452388,-36.89543600362514],[-72.02798936176643,-36.895414689188264],[-72.0260902928789,-36.895357001886254],[-72.02613790271528,-36.89367805760875],[-72.02613393995739,-36.89364012492553],[-72.02662205901838,-36.893685980071204],[-72.02666971510814,-36.89395298530587],[-72.02665182653521,-36.89425146409295],[-72.02666806609459,-36.89428681255572],[-72.02671996030563,-36.894285489111645],[-72.02684599032895,-36.894282276385084],[-72.02697201926503,-36.894279062595835],[-72.02718465553548,-36.89421403630245]]]}},{"type":"Feature","properties":{"zona_code":"ZER","zona":"ZER Zona de Extensión Residencial","comuna":"ElCarmen"},"geometry":{"type":"Polygon","coordinates":[[[-72.01339179279996,-36.8941089772222],[-72.01398559222606,-36.89403668188325],[-72.01392351482394,-36.89348094577204],[-72.01699876739134,-36.89356291174316],[-72.0179789887384,-36.89357971962513],[-72.0231866993131,-36.89368563200085],[-72.02383331519833,-36.893710886712086],[-72.02498522174577,-36.893753065466356],[-72.02491856865149,-36.895321393414115],[-72.02440514019139,-36.895305786983535],[-72.02439977734207,-36.89530567148743],[-72.02449717159598,-36.89443417066773],[-72.02424713791402,-36.894416698187705],[-72.02383452633705,-36.89434137900082],[-72.02322920786429,-36.894347259719424],[-72.02314703129188,-36.89527863704185],[-72.02166889259796,-36.895246720695845],[-72.01649799478436,-36.89513611295477],[-72.01645964260142,-36.895745054392165],[-72.01651527302869,-36.895800860911436],[-72.01648964977103,-36.89628073381333],[-72.01586741451095,-36.89621929502153],[-72.01373345565682,-36.895851488472445],[-72.01339179279996,-36.8941089772222]]]}},{"type":"Feature","properties":{"zona_code":"ZER","zona":"ZER Zona de Extensión Residencial","comuna":"ElCarmen"},"geometry":{"type":"Polygon","coordinates":[[[-72.00683024932411,-36.89332617786296],[-72.00721551854916,-36.89331045791279],[-72.00813689970094,-36.89334076012343],[-72.0119843514477,-36.89342798033389],[-72.0127318655438,-36.89344847023821],[-72.0130793522203,-36.89575259778608],[-72.01187006191053,-36.895569761527064],[-72.01058194880723,-36.89542362108931],[-72.01008262477569,-36.8954076733867],[-72.00934281698922,-36.89539066672503],[-72.0083639261353,-36.895408324090035],[-72.00727134409738,-36.89547892223881],[-72.00667584152126,-36.89550831161729],[-72.00612296745788,-36.89553635447297],[-72.00683024932411,-36.89332617786296]]]}},{"type":"Feature","properties":{"zona_code":"ZPD","zona":"ZPD Zona de Protección Drenaje","comuna":"ElCarmen"},"geometry":{"type":"Polygon","coordinates":[[[-72.0252755861853,-36.90431197432276],[-72.02529698170683,-36.90428997087271],[-72.02560033904135,-36.90430369650168],[-72.02574346404825,-36.904339287656846],[-72.02578711997938,-36.904506730238246],[-72.02563741798672,-36.904474783349784],[-72.02543051974652,-36.90449793815463],[-72.02534507476267,-36.90458952297678],[-72.02530317619087,-36.904656154944625],[-72.02519784140577,-36.90480785028048],[-72.02511863404406,-36.904869474144036],[-72.02501118113113,-36.904967580014656],[-72.02480463022015,-36.905187419051195],[-72.0246406826968,-36.90535848937032],[-72.02438517157023,-36.90546632714316],[-72.02431021146525,-36.905306525710586],[-72.02445340591275,-36.90525560135704],[-72.02450149570511,-36.90523291913652],[-72.02451802109992,-36.90520031198238],[-72.02459287433736,-36.90506608282859],[-72.02468248636642,-36.904967240011906],[-72.02478254888175,-36.9049074692154],[-72.02499015775606,-36.90475197656686],[-72.0252755861853,-36.90431197432276]]]}},{"type":"Feature","properties":{"zona_code":"ZPD","zona":"ZPD Zona de Protección Drenaje","comuna":"ElCarmen"},"geometry":{"type":"Polygon","coordinates":[[[-71.99782290621017,-36.89968781192004],[-71.99806751985328,-36.89966018567383],[-71.99821932880563,-36.89967065673864],[-71.99834500675972,-36.89969609302039],[-71.99851489010925,-36.89971325912303],[-71.9985860657124,-36.89971146151073],[-71.99866585988383,-36.899702293510174],[-71.99877346384709,-36.89972103218],[-71.99882852494117,-36.899762556999406],[-71.99888498514497,-36.899839809251475],[-71.99892281265049,-36.89989607393983],[-71.99892533094258,-36.899960384080245],[-71.99901128251865,-36.9001084170565],[-71.99911586850729,-36.90027743662899],[-71.99916679004859,-36.900440659760164],[-71.99923354874278,-36.90055341372427],[-71.99931446311612,-36.90057282801057],[-71.99938535972262,-36.900563883382056],[-71.99940203495352,-36.900534852089436],[-71.99946207401318,-36.900476114236056],[-71.99954018974918,-36.90042407164711],[-71.99968170377556,-36.90039903911876],[-71.99981516014553,-36.900395666420415],[-71.99995085687736,-36.90044945808054],[-72.00007043757608,-36.90054657141146],[-72.00023976346954,-36.90054944469693],[-72.00037434100298,-36.900574654102854],[-72.00046695155018,-36.90066529679651],[-72.00049006659518,-36.90080061044901],[-72.00051731858639,-36.900814227289196],[-72.00064299824055,-36.900839660321815],[-72.00074338798761,-36.900901496212214],[-72.00083796039243,-36.90104215749502],[-72.00088412617902,-36.901083906303974],[-72.00093862943345,-36.901111138883095],[-72.00115272149748,-36.90112003129902],[-72.0013982676845,-36.90124972152753],[-72.00154958698897,-36.90147477829726],[-72.00168037845194,-36.90185771006266],[-72.00170931035473,-36.90191419887228],[-72.00175603842072,-36.90197023785899],[-72.00181887886362,-36.90198295377075],[-72.00200544184479,-36.90197108434387],[-72.00211220853676,-36.90196838400384],[-72.00220230293064,-36.90199471534058],[-72.00231159190734,-36.90205632413233],[-72.00243005871151,-36.9021248535334],[-72.00249766292158,-36.90225904291362],[-72.00257920986171,-36.90252162499825],[-72.00266271949414,-36.90283422589851],[-72.00271056944355,-36.90291884636045],[-72.00281817796632,-36.90293758247132],[-72.00290715192064,-36.902935331498746],[-72.00297636933198,-36.90288351254959],[-72.00307977497569,-36.90279506597718],[-72.00316566542988,-36.90271421413144],[-72.00322542332277,-36.90264832956215],[-72.00331215523902,-36.902588913753675],[-72.00342669837015,-36.90255740539214],[-72.0034978767138,-36.9025556049465],[-72.00364107643273,-36.902573439215296],[-72.00375870337948,-36.90262053121151],[-72.00388550948313,-36.902674542823675],[-72.00403010871972,-36.90272810407182],[-72.00411411006132,-36.90282611409645],[-72.0041992328141,-36.9029527058824],[-72.00426347831193,-36.903001148099975],[-72.00438082601603,-36.9030410938442],[-72.00474662928042,-36.90311820357021],[-72.00474990221525,-36.90328635696343],[-72.00471283012753,-36.90328729493515],[-72.00465999371497,-36.903264790982824],[-72.00458397914123,-36.90321903106453],[-72.00445582977291,-36.903168630373635],[-72.00434461249782,-36.90317144575756],[-72.00419655585812,-36.9031811529572],[-72.00409829865984,-36.90313595597143],[-72.00407926419243,-36.90302914894017],[-72.00401691043737,-36.90295324073771],[-72.00395549180276,-36.90290115085187],[-72.00381852816574,-36.90281520976502],[-72.00377404014498,-36.90281633512687],[-72.00362271423816,-36.90274267839864],[-72.00348113971354,-36.902728378735574],[-72.00340004732097,-36.90274235161673],[-72.00334954764422,-36.902779392037026],[-72.00322863991987,-36.902913581653905],[-72.0030493515165,-36.9030730908454],[-72.00291799226964,-36.90313005776003],[-72.00278453213582,-36.90313343376883],[-72.00265778387512,-36.90311875864033],[-72.00254446398569,-36.90306798063344],[-72.00248117948342,-36.90296825341253],[-72.0024322557394,-36.902856241709785],[-72.00235314933289,-36.90254233711565],[-72.00227801281275,-36.90232965990596],[-72.00218390344477,-36.90220090967576],[-72.0021067234551,-36.90212537490759],[-72.0020545894617,-36.90212073406253],[-72.00197303149005,-36.90212279594741],[-72.00189193954337,-36.90213676781512],[-72.00177307533511,-36.90213381250199],[-72.00167622133372,-36.90212434109754],[-72.00162315201479,-36.90209588080313],[-72.00156220399566,-36.9020556989698],[-72.00149892043508,-36.90195597127679],[-72.00144118356845,-36.90180841843326],[-72.0013827473531,-36.901643002297384],[-72.00131158232176,-36.901531552913305],[-72.00120194622909,-36.90138531293757],[-72.00115559303055,-36.90133880074615],[-72.00108028202811,-36.901310902019375],[-72.00099084408389,-36.90130124256705],[-72.00084927179776,-36.90128693987287],[-72.00077396097029,-36.90125904095868],[-72.00072066131553,-36.90122462622325],[-72.0006821892745,-36.901189835483926],[-72.00062054088654,-36.901131788990796],[-72.00058761696579,-36.90104917498481],[-72.00056467413933,-36.901031873365234],[-72.00053454883904,-36.901020713350285],[-72.0004819488054,-36.90100416178674],[-72.00042263438453,-36.90100566099508],[-72.00039251023841,-36.900994500973724],[-72.0003253162238,-36.90098427942217],[-72.00025000590084,-36.90095638019601],[-72.00022682973545,-36.90093312348353],[-72.00022496311065,-36.90088548775653],[-72.00023792513736,-36.90083747522801],[-72.00026571452578,-36.90078908946438],[-72.00026384794455,-36.90074145193563],[-72.00023349156419,-36.90072433777557],[-72.0002038344467,-36.900725087776244],[-72.00007816515827,-36.900737801263894],[-71.99997436418226,-36.90074042426791],[-71.99991504997395,-36.90074192323122],[-71.99985293678345,-36.900671967243134],[-71.99979058917049,-36.90059605616697],[-71.99977506148856,-36.90057856694764],[-71.99968609035147,-36.900580815690276],[-71.99964995218274,-36.90060557043249],[-71.9995855551594,-36.90066680243992],[-71.99944795001831,-36.90075372640031],[-71.9992702407929,-36.900764176538836],[-71.9991439641212,-36.900761407016994],[-71.9990533591933,-36.90072197276374],[-71.99898056713822,-36.90056883880232],[-71.9989059095445,-36.900368069092],[-71.99885074458737,-36.90028601513556],[-71.99875571008259,-36.90013344329829],[-71.99871187583372,-36.899961697169616],[-71.99871649157015,-36.899890053938236],[-71.99867895446188,-36.89987908183471],[-71.99860481258881,-36.89988095408554],[-71.9984342856623,-36.89988526151214],[-71.99835272899763,-36.89988732188275],[-71.99829271551235,-36.89987095677444],[-71.99815832692639,-36.89985050857968],[-71.99800239627903,-36.89984848653593],[-71.99775217681396,-36.89990248872976],[-71.99782290621017,-36.89968781192004]]]}},{"type":"Feature","properties":{"zona_code":"ZPD","zona":"ZPD Zona de Protección Drenaje","comuna":"ElCarmen"},"geometry":{"type":"Polygon","coordinates":[[[-72.02886659448133,-36.890006307154],[-72.02903356220334,-36.88991264030931],[-72.0291961782569,-36.88989657048664],[-72.02932984849431,-36.88989911957252],[-72.02942045371104,-36.88993853077252],[-72.02964802601747,-36.89006385270837],[-72.02984783228898,-36.89023756711968],[-72.02990419851076,-36.89034937781806],[-72.02991079336739,-36.89051610107492],[-72.02991903774033,-36.890724506287896],[-72.0298429103809,-36.89086353942309],[-72.02974148227013,-36.89092573281186],[-72.02949320442865,-36.891027435289544],[-72.02921503770175,-36.89112394049635],[-72.029126079228,-36.891126210109285],[-72.02909713288534,-36.891144830060405],[-72.02906171553569,-36.891187456966755],[-72.0290652471915,-36.8912767731878],[-72.02904606987515,-36.89135474915405],[-72.02897514104174,-36.891437620708196],[-72.02897749614117,-36.89149716517134],[-72.02911517120363,-36.891600940081915],[-72.02941358374369,-36.89164100882061],[-72.02996027640927,-36.89157937397772],[-72.03078160035427,-36.89133191205039],[-72.03117531386853,-36.8911549670889],[-72.0314337028855,-36.89093379301242],[-72.03171844270186,-36.89062850078328],[-72.03192176687753,-36.89051601962107],[-72.0321418015891,-36.890450796010285],[-72.03216396172594,-36.890666478665196],[-72.03204327974777,-36.890674708628815],[-72.03188349049448,-36.890762236962935],[-72.03170499840486,-36.89093964726227],[-72.03151332792214,-36.89115911820083],[-72.0313327118563,-36.89128293841223],[-72.03117268689893,-36.89136451065947],[-72.03096147472819,-36.8914652705845],[-72.03071272589355,-36.89155506726129],[-72.03040514173455,-36.891658286338014],[-72.02996341161312,-36.89174704694639],[-72.02965370480882,-36.891796674582245],[-72.02924574165465,-36.89180112433368],[-72.02905111474789,-36.89175840701599],[-72.02890049619715,-36.89170264589363],[-72.02876764125072,-36.89153318270184],[-72.02874210597771,-36.89145038776732],[-72.0287844661947,-36.89139566239272],[-72.02881941233211,-36.8913411272182],[-72.02881635131028,-36.89126371933878],[-72.02881999705734,-36.89116825959482],[-72.02885470847495,-36.89110776934814],[-72.02890471694644,-36.89105880964862],[-72.02896260963706,-36.89102156983335],[-72.02901308828899,-36.89098452021911],[-72.02914534816149,-36.890951342755976],[-72.02948211281777,-36.8908354610199],[-72.02963566858891,-36.89077789901149],[-72.02966343685613,-36.89072950622654],[-72.02968578745313,-36.89054416195085],[-72.02968248972783,-36.890460799863604],[-72.02964165662698,-36.89036647462154],[-72.02950927476151,-36.89020892155237],[-72.02940219556618,-36.89012820725281],[-72.0293039416277,-36.890083031228954],[-72.02922957516333,-36.89007896895474],[-72.02914803288752,-36.890081049317374],[-72.02905283938125,-36.89011328005934],[-72.028944940787,-36.89019947975718],[-72.02882244995995,-36.89029201127336],[-72.028668779972,-36.89053435001427],[-72.02838591096824,-36.890887271369756],[-72.02825718277859,-36.89100976421084],[-72.0279521857206,-36.89117847545355],[-72.02775626717269,-36.89129076108382],[-72.0275163388383,-36.8914160884304],[-72.02688033252001,-36.89165880414536],[-72.02626420926194,-36.89184140342089],[-72.02608123070036,-36.89190567166109],[-72.02590004018883,-36.891940092532536],[-72.02564869543146,-36.891964380541665],[-72.02541217750782,-36.89198828978045],[-72.02527179526605,-36.892003787717],[-72.02517683439252,-36.89204197116441],[-72.02507445833007,-36.892080341783206],[-72.02499879940865,-36.892102204722995],[-72.02500056857944,-36.89188705321462],[-72.0253385201812,-36.891800955505644],[-72.02584238711204,-36.891782153835706],[-72.02650251917109,-36.8915865132828],[-72.02754801636867,-36.89119030714088],[-72.02788913807174,-36.89099683297321],[-72.02814965547022,-36.890829255851045],[-72.02834157002982,-36.8906157449109],[-72.02855172041113,-36.890300441052176],[-72.02870821542216,-36.89012955705681],[-72.02886659448133,-36.890006307154]]]}}]}