{"type":"FeatureCollection","features":[{"type":"Feature","properties":{"zona_code":"ZU-2","zona":"Zona ZU-2","comuna":"Yungay"},"geometry":{"type":"Polygon","coordinates":[[[-72.0110049079144,-37.11976014949019],[-72.01126373435795,-37.11971780715513],[-72.01159254884855,-37.11952587045787],[-72.01175381532303,-37.119388259782724],[-72.01204495119684,-37.11899701265204],[-72.01214267052174,-37.11875850017447],[-72.01217701114112,-37.118611493119836],[-72.01220613056682,-37.118547363603646],[-72.01240617977967,-37.117945964491184],[-72.01274947339513,-37.11759391988832],[-72.0136215822451,-37.11706391781063],[-72.01369319087802,-37.11710592524738],[-72.01405170280843,-37.11732476374752],[-72.01426633762325,-37.11744446822149],[-72.01437079623328,-37.1174884566597],[-72.0141466643848,-37.11773838874682],[-72.01404140160273,-37.11808676570131],[-72.01401452263487,-37.11890997070192],[-72.0141038628325,-37.12191169035563],[-72.01601975200008,-37.12187374489715],[-72.01640227369732,-37.121876783004],[-72.01640141013623,-37.121893008803795],[-72.01639937228028,-37.12191890435599],[-72.01641088085374,-37.122433581391675],[-72.01640989038192,-37.12253043891798],[-72.01640884447319,-37.122632717805146],[-72.01640722439139,-37.12279129223066],[-72.01639647635146,-37.122914821322304],[-72.01629049762425,-37.1241330165548],[-72.01629049418827,-37.1241377156506],[-72.01522234352323,-37.12415645566928],[-72.01527656585097,-37.1251467423386],[-72.0152516098552,-37.125147734525996],[-72.01442041949609,-37.12520572696091],[-72.01385348164298,-37.12521614029985],[-72.01354277815823,-37.12677392234145],[-72.01422242922733,-37.12671362397885],[-72.01422097175272,-37.126846204991445],[-72.01421587853498,-37.126846430726964],[-72.01393985363724,-37.12843078406257],[-72.0138507618363,-37.1295346646387],[-72.01240556815557,-37.12949942755283],[-72.0123440727285,-37.12949792860924],[-72.01238182928418,-37.129181419541965],[-72.01239915190801,-37.128942567118905],[-72.0124828934229,-37.12820135998805],[-72.01139388494292,-37.12815311086605],[-72.01140459315256,-37.12769316473081],[-72.01140478567768,-37.12769296233842],[-72.01197216034882,-37.12768933659835],[-72.01219458614113,-37.12658420488594],[-72.01220961904504,-37.126509509915195],[-72.01234836138323,-37.125820156402995],[-72.01250055780733,-37.12492820058141],[-72.01248397205616,-37.12428490951267],[-72.01241979215375,-37.12334242966965],[-72.01240518446987,-37.12229855612744],[-72.0124005050748,-37.1219553619909],[-72.010926845231,-37.12206173018987],[-72.01091961042772,-37.122061653946616],[-72.01072680621556,-37.122059618649864],[-72.00952929143901,-37.12232262774189],[-72.00922899584225,-37.12281018113839],[-72.00825076018646,-37.12310622368423],[-72.00686516449191,-37.12362940673168],[-72.00632506591226,-37.123794746561096],[-72.00629591256288,-37.12332932703621],[-72.0053795765737,-37.123495835074216],[-72.00480199456268,-37.123586781621505],[-72.0046284416171,-37.12359499810712],[-72.004579872298,-37.12357143549264],[-72.00450579747518,-37.12355987098349],[-72.0045051594246,-37.12357054173959],[-72.0044179905626,-37.12351980647458],[-72.00453752509115,-37.12247729633589],[-72.00528385202495,-37.12237730204252],[-72.00539630231931,-37.1217491054466],[-72.00568480598677,-37.12049647583221],[-72.00630892584464,-37.12050832174454],[-72.00632387388174,-37.12056567621966],[-72.006666502403,-37.120947976703604],[-72.00692369520868,-37.121127409103856],[-72.00726596822872,-37.12119978057293],[-72.00758643478765,-37.12117257059221],[-72.00799962686548,-37.12108101877087],[-72.00831613007188,-37.12095377420162],[-72.00882421602354,-37.12070245629375],[-72.00885617233234,-37.12067096556074],[-72.00895098114438,-37.12052042694963],[-72.00901642423263,-37.120218364917015],[-72.00903625868581,-37.11996752785673],[-72.00895091405282,-37.11961684532013],[-72.00884191495828,-37.119345440585455],[-72.00906828351782,-37.11922245238058],[-72.00926897779365,-37.11915339803377],[-72.00934120724249,-37.119173019997646],[-72.00943213126706,-37.11921362448285],[-72.00952942626179,-37.11933989494556],[-72.00969951856426,-37.11950007826834],[-72.01007237799615,-37.11959312053341],[-72.01072924978476,-37.11979099660792],[-72.0110049079144,-37.11976014949019]]]}},{"type":"Feature","properties":{"zona_code":"ZR-3","zona":"Zona ZR-3","comuna":"Yungay"},"geometry":{"type":"Polygon","coordinates":[[[-72.02771842659816,-37.115145214453584],[-72.02815152490831,-37.11506194621904],[-72.02892457017519,-37.115065670369404],[-72.02954372625608,-37.11506414205256],[-72.02993838077741,-37.115106498751125],[-72.03031114326379,-37.11519709503945],[-72.03085867711364,-37.11534043804373],[-72.03131009569653,-37.11546239729247],[-72.0317411962681,-37.115710084490004],[-72.03173568773762,-37.11639124558603],[-72.03134744353153,-37.11653495917098],[-72.03110027021417,-37.116588966550154],[-72.03100601085393,-37.11661611218707],[-72.03078360875715,-37.11662687091259],[-72.03020718795946,-37.11654327288462],[-72.028919401809,-37.11647536169166],[-72.02842528513564,-37.11668635471382],[-72.02786277533934,-37.116914350711546],[-72.02739145474465,-37.11692979109369],[-72.02733706781575,-37.11693321196393],[-72.02732824536442,-37.11693251388497],[-72.02692483274974,-37.117005554936455],[-72.0267819054115,-37.11696748545366],[-72.02665001144392,-37.116926153256614],[-72.02654279521353,-37.11694379423672],[-72.02636134486617,-37.116966309985486],[-72.026259547887,-37.11693314978257],[-72.02608474503563,-37.11684225016294],[-72.02605109077126,-37.116744765764714],[-72.02611239127579,-37.116695517373095],[-72.0262841948063,-37.11665971740668],[-72.02631570872576,-37.11655401198524],[-72.02633196360856,-37.116537593036085],[-72.026292707339,-37.11645150566056],[-72.02624177011954,-37.1163872441545],[-72.02571945923414,-37.11626052012198],[-72.02552678132946,-37.116187957770386],[-72.02550127563029,-37.116108145518126],[-72.02553219221322,-37.115944060646996],[-72.02555657065209,-37.11581467936882],[-72.0256080091199,-37.11553541127318],[-72.025593001318,-37.11551555371315],[-72.02564836982192,-37.115482897992685],[-72.02622330299464,-37.115267945028634],[-72.02673460502903,-37.11521523331743],[-72.02736377218824,-37.11520006115361],[-72.02771842659816,-37.115145214453584]]]}},{"type":"Feature","properties":{"zona_code":"ZE-1","zona":"Zona ZE-1","comuna":"Yungay"},"geometry":{"type":"Polygon","coordinates":[[[-72.02112907830144,-37.116485877392165],[-72.02125523772908,-37.116554470070604],[-72.0213397183251,-37.11660040279858],[-72.02167998787611,-37.116678742788906],[-72.02206143116194,-37.11672563526051],[-72.0223813793287,-37.11672343281165],[-72.02279750968982,-37.11670685327713],[-72.02310895532287,-37.11667804397612],[-72.02356337268247,-37.11659492220509],[-72.02398769171985,-37.116503626511374],[-72.02472345983674,-37.11624344816739],[-72.02533385567112,-37.11596560748506],[-72.02546247388706,-37.11598148228573],[-72.02553219221322,-37.115944060646996],[-72.02550127563029,-37.116108145518126],[-72.02552678132946,-37.116187957770386],[-72.02571945923414,-37.11626052012198],[-72.02624177011954,-37.1163872441545],[-72.026292707339,-37.11645150566056],[-72.02633196360856,-37.116537593036085],[-72.02631570872576,-37.11655401198524],[-72.0262841948063,-37.11665971740668],[-72.02611239127579,-37.116695517373095],[-72.02605109077126,-37.116744765764714],[-72.02608474503563,-37.11684225016294],[-72.026259547887,-37.11693314978257],[-72.02636134486617,-37.116966309985486],[-72.02654279521353,-37.11694379423672],[-72.02665001144392,-37.116926153256614],[-72.0267819054115,-37.11696748545366],[-72.02692483274974,-37.117005554936455],[-72.02732824536442,-37.11693251388497],[-72.02733706781575,-37.11693321196393],[-72.02739145474465,-37.11692979109369],[-72.02786277533934,-37.116914350711546],[-72.02842528513564,-37.11668635471382],[-72.028919401809,-37.11647536169166],[-72.03020718795946,-37.11654327288462],[-72.03078360875715,-37.11662687091259],[-72.03100601085393,-37.11661611218707],[-72.03110027021417,-37.116588966550154],[-72.03134744353153,-37.11653495917098],[-72.03173568773762,-37.11639124558603],[-72.03173338027638,-37.11667654077981],[-72.03173174900941,-37.11687806199049],[-72.0316925489674,-37.1173274743468],[-72.03171290471143,-37.11903099659972],[-72.03182541298389,-37.12028335150974],[-72.03194697175368,-37.12120990114993],[-72.03194695386685,-37.12121274905809],[-72.03194687468586,-37.12122502717541],[-72.0319983455447,-37.121472492000926],[-72.03000167775235,-37.12068953381255],[-72.0295036508794,-37.120444788773156],[-72.028697953012,-37.119950425067714],[-72.02876375528957,-37.11951006526259],[-72.02873362613589,-37.11905308615409],[-72.02860768653211,-37.11828385473427],[-72.02850606334388,-37.11779631200583],[-72.02742403409196,-37.11790182005089],[-72.02696823798956,-37.11795692773792],[-72.02680848678082,-37.11797624199792],[-72.02577372642247,-37.11810133959723],[-72.02514820578861,-37.118154548415475],[-72.02501571691627,-37.11816581691662],[-72.02497261668442,-37.11816948320003],[-72.02375709497669,-37.118148068567926],[-72.02362653709922,-37.11711192677212],[-72.02337557827062,-37.1170897228112],[-72.02116362574596,-37.117165233843544],[-72.02114780388631,-37.11669466624011],[-72.02114313879721,-37.11668003143945],[-72.02112907830144,-37.116485877392165]]]}},{"type":"Feature","properties":{"zona_code":"ZE-1","zona":"Zona ZE-1","comuna":"Yungay"},"geometry":{"type":"Polygon","coordinates":[[[-72.01639937228028,-37.12191890435599],[-72.01640141013623,-37.121893008803795],[-72.01640227369732,-37.121876783004],[-72.01798071233364,-37.12188930413075],[-72.01828097043985,-37.12187807605599],[-72.01837057865232,-37.121885330070974],[-72.01959069001377,-37.12187091992405],[-72.0204696061572,-37.12188003357754],[-72.02063453132588,-37.121884835349526],[-72.02062668828654,-37.122585964251144],[-72.02193127605247,-37.1225991783691],[-72.02341608413634,-37.122600577527365],[-72.02350463544188,-37.12259377652677],[-72.02363929474221,-37.12258343576927],[-72.0238296981272,-37.122516737344135],[-72.02363422591078,-37.122735382897055],[-72.02345356797046,-37.12284259656366],[-72.02329306330539,-37.12292417755565],[-72.02301591136391,-37.123160723081526],[-72.02291424489182,-37.12325540548763],[-72.02274520303277,-37.123301082512754],[-72.02248137944005,-37.123327028022835],[-72.02202918061634,-37.123371497801436],[-72.02202675885354,-37.123372017217044],[-72.02125154059232,-37.123344111858586],[-72.01966784202583,-37.12305072081046],[-72.01640884447319,-37.122632717805146],[-72.01640989038192,-37.12253043891798],[-72.01641088085374,-37.122433581391675],[-72.01639937228028,-37.12191890435599]]]}},{"type":"Feature","properties":{"zona_code":"ZE-1","zona":"Zona ZE-1","comuna":"Yungay"},"geometry":{"type":"Polygon","coordinates":[[[-72.02422500537632,-37.12209928779803],[-72.0242595373109,-37.12194963788314],[-72.02426417289827,-37.12188657880464],[-72.02430742458338,-37.12184046980259],[-72.02437617384868,-37.12183764908822],[-72.02471348768057,-37.121858973761405],[-72.02506871659185,-37.12186575145264],[-72.02512843678838,-37.12186689090421],[-72.0252406672499,-37.12186903279996],[-72.02597764733424,-37.12187166452816],[-72.02677980838224,-37.12190361925316],[-72.02750176007349,-37.121940002136576],[-72.02794365715008,-37.12197162118858],[-72.02862839282935,-37.121975379189934],[-72.02862884383654,-37.121975759050514],[-72.02885784785397,-37.122118909310124],[-72.02918699793831,-37.12225353974641],[-72.02948353485297,-37.122383711893335],[-72.02958473120496,-37.12242813517823],[-72.03011006099157,-37.12262926781166],[-72.03035277208411,-37.12272186159755],[-72.03069942120996,-37.12285410710757],[-72.03070442682562,-37.12285942468664],[-72.03055960640337,-37.12285165911101],[-72.03055313041641,-37.122851311137126],[-72.03017122200168,-37.12283083129226],[-72.0298044849176,-37.122766847430626],[-72.02879880150049,-37.12278303196711],[-72.02747499224802,-37.12273581580691],[-72.02698974266612,-37.12266239005735],[-72.02633597323339,-37.12246929376551],[-72.025756373743,-37.122269531999684],[-72.0252058829921,-37.12220253277812],[-72.02473170814079,-37.12225755718821],[-72.02417266705231,-37.12242441496028],[-72.02384462696885,-37.122510084835014],[-72.02392503316574,-37.1224617025422],[-72.02409726856335,-37.1223009075636],[-72.02412282791555,-37.12226056626279],[-72.02422500537632,-37.12209928779803]]]}},{"type":"Feature","properties":{"zona_code":"ZE-1","zona":"Zona ZE-1","comuna":"Yungay"},"geometry":{"type":"Polygon","coordinates":[[[-72.00825076018646,-37.12310622368423],[-72.00922899584225,-37.12281018113839],[-72.00952929143901,-37.12232262774189],[-72.01072680621556,-37.122059618649864],[-72.01091961042772,-37.122061653946616],[-72.01099861172133,-37.123685522266676],[-72.01067788594601,-37.12371646888558],[-72.01057528820833,-37.12372636859697],[-72.00919095971264,-37.12393482395847],[-72.00911884518621,-37.12380552970118],[-72.00908326430394,-37.123565040042976],[-72.00896104423074,-37.1235800665552],[-72.00834651365776,-37.12375660460184],[-72.007600845479,-37.12400501319449],[-72.00710439461145,-37.12425007013666],[-72.00688661939498,-37.12438970534586],[-72.00698855369936,-37.125272223712244],[-72.00703238602506,-37.125775009016394],[-72.0068666339559,-37.125798718171005],[-72.0061074401127,-37.1259073101438],[-72.00597093024635,-37.127645287669154],[-72.00595846652082,-37.12772321668436],[-72.00431132618596,-37.127804162465665],[-72.0044092258431,-37.126807724583536],[-72.00438477884757,-37.12680518336177],[-72.00449760354161,-37.123697006544134],[-72.00450070877835,-37.12364503828868],[-72.0045051594246,-37.12357054173959],[-72.00450579747518,-37.12355987098349],[-72.004579872298,-37.12357143549264],[-72.0046284416171,-37.12359499810712],[-72.00480199456268,-37.123586781621505],[-72.0053795765737,-37.123495835074216],[-72.00629591256288,-37.12332932703621],[-72.00632506591226,-37.123794746561096],[-72.00686516449191,-37.12362940673168],[-72.00825076018646,-37.12310622368423]]]}},{"type":"Feature","properties":{"zona_code":"ZE-1","zona":"Zona ZE-1","comuna":"Yungay"},"geometry":{"type":"Polygon","coordinates":[[[-72.0052730850077,-37.11924578764002],[-72.00612154917089,-37.119390720802656],[-72.00612359038496,-37.11941684266875],[-72.00618378783099,-37.12003518761566],[-72.00618579829613,-37.12003588180643],[-72.00630892584464,-37.12050832174454],[-72.00568480598677,-37.12049647583221],[-72.00539630231931,-37.1217491054466],[-72.00528385202495,-37.12237730204252],[-72.00453752509115,-37.12247729633589],[-72.0044179905626,-37.12351980647458],[-72.0045051594246,-37.12357054173959],[-72.00450070877835,-37.12364503828868],[-72.00434393101838,-37.1236501904872],[-72.00227766492483,-37.12371807840749],[-72.00227444100528,-37.12363947523313],[-72.00225571201439,-37.12089110766181],[-72.00227509728315,-37.12063834150035],[-72.0022754784735,-37.120456414499095],[-72.00483428421092,-37.120797065135164],[-72.0052730850077,-37.11924578764002]]]}},{"type":"Feature","properties":{"zona_code":"ZE-3","zona":"Zona ZE-3","comuna":"Yungay"},"geometry":{"type":"Polygon","coordinates":[[[-72.02377155016309,-37.123367690759885],[-72.02494173705756,-37.12328404974375],[-72.02708180956313,-37.123193613115745],[-72.02828098948827,-37.123195145807166],[-72.03048489616883,-37.12324963892227],[-72.03084816686389,-37.123175972978366],[-72.03136058965664,-37.123138677223594],[-72.02907195867684,-37.12513739712126],[-72.02877506350815,-37.125162742440175],[-72.02875806655031,-37.12517789956077],[-72.0238904444386,-37.124954498407554],[-72.02116452849869,-37.12491439089748],[-72.02052168385016,-37.124921250339376],[-72.02040887906409,-37.124922309028044],[-72.02047389860864,-37.1235546744649],[-72.020480071758,-37.12342482670094],[-72.0208208682861,-37.12347116986525],[-72.02177928472729,-37.12361361128227],[-72.02228083740492,-37.12361102424042],[-72.02257161441976,-37.12356940192842],[-72.02377155016309,-37.123367690759885]]]}},{"type":"Feature","properties":{"zona_code":"ZE-3","zona":"Zona ZE-3","comuna":"Yungay"},"geometry":{"type":"Polygon","coordinates":[[[-72.0124005050748,-37.1219553619909],[-72.01240518446987,-37.12229855612744],[-72.01241979215375,-37.12334242966965],[-72.01248397205616,-37.12428490951267],[-72.01250055780733,-37.12492820058141],[-72.01234836138323,-37.125820156402995],[-72.01220961904504,-37.126509509915195],[-72.01205176065024,-37.12649235835963],[-72.01038410412717,-37.12631115898026],[-72.0093250722092,-37.12621290408194],[-72.00810158807876,-37.12623802391282],[-72.00734829795067,-37.126307815321134],[-72.0073054658176,-37.12709268308391],[-72.00728267151885,-37.12765779529011],[-72.00631725230886,-37.12770558202477],[-72.0060053601104,-37.12772091216906],[-72.00595846652082,-37.12772321668436],[-72.00597093024635,-37.127645287669154],[-72.0061074401127,-37.1259073101438],[-72.0068666339559,-37.125798718171005],[-72.00703238602506,-37.125775009016394],[-72.00793121491624,-37.12564643724118],[-72.00921615084219,-37.125584679892015],[-72.00926495779363,-37.125586333090176],[-72.00934836492189,-37.12477957209578],[-72.00990336907985,-37.12472613685222],[-72.01069477484974,-37.12472582663298],[-72.01069426696803,-37.124721575996894],[-72.01073503289378,-37.12469366998502],[-72.01069980274666,-37.12389886525693],[-72.01068522656342,-37.12381281109137],[-72.01067788594601,-37.12371646888558],[-72.01099861172133,-37.123685522266676],[-72.01091961042772,-37.122061653946616],[-72.010926845231,-37.12206173018987],[-72.0124005050748,-37.1219553619909]]]}},{"type":"Feature","properties":{"zona_code":"ZR-1","zona":"Zona ZR-1","comuna":"Yungay"},"geometry":{"type":"Polygon","coordinates":[[[-72.01639647635146,-37.122914821322304],[-72.01640722439139,-37.12279129223066],[-72.01640884447319,-37.122632717805146],[-72.01966784202583,-37.12305072081046],[-72.02125154059232,-37.123344111858586],[-72.02202675885354,-37.123372017217044],[-72.02202918061634,-37.123371497801436],[-72.02248137944005,-37.123327028022835],[-72.02274520303277,-37.123301082512754],[-72.02291424489182,-37.12325540548763],[-72.02325185382152,-37.12316417753561],[-72.0242929223371,-37.12303185137598],[-72.02459670151457,-37.12301078827494],[-72.02619054327812,-37.12296054130844],[-72.02697271785136,-37.12286426333833],[-72.02824961145407,-37.12285621192782],[-72.02948224506441,-37.12285687668187],[-72.03014210636131,-37.12282926957537],[-72.03017122200168,-37.12283083129226],[-72.03055313041641,-37.122851311137126],[-72.03055960640337,-37.12285165911101],[-72.03070442682562,-37.12285942468664],[-72.0310833499843,-37.12250641681764],[-72.03144767582918,-37.12268305312202],[-72.03166049210388,-37.12264422930956],[-72.03219298132059,-37.122408233429155],[-72.03219358932978,-37.122411161897894],[-72.03136058965664,-37.123138677223594],[-72.03084816686389,-37.123175972978366],[-72.03048489616883,-37.12324963892227],[-72.02828098948827,-37.123195145807166],[-72.02708180956313,-37.123193613115745],[-72.02494173705756,-37.12328404974375],[-72.02377155016309,-37.123367690759885],[-72.02257161441976,-37.12356940192842],[-72.02228083740492,-37.12361102424042],[-72.02177928472729,-37.12361361128227],[-72.0208208682861,-37.12347116986525],[-72.020480071758,-37.12342482670094],[-72.01919687967109,-37.12325032413584],[-72.01794681981521,-37.12307357187034],[-72.01748821340351,-37.123014925111434],[-72.01639647635146,-37.122914821322304]]]}},{"type":"Feature","properties":{"zona_code":"ZR-1","zona":"Zona ZR-1","comuna":"Yungay"},"geometry":{"type":"Polygon","coordinates":[[[-72.01630768616293,-37.117356420135856],[-72.0163071551377,-37.11734793831276],[-72.01617231642197,-37.117365844526724],[-72.0159940148577,-37.11740060272928],[-72.0150449572422,-37.11763087865069],[-72.01481958644534,-37.11765330425787],[-72.01453595490794,-37.11755800604738],[-72.01437079623328,-37.1174884566597],[-72.01426633762325,-37.11744446822149],[-72.01405170280843,-37.11732476374752],[-72.01369319087802,-37.11710592524738],[-72.0136215822451,-37.11706391781063],[-72.01274947339513,-37.11759391988832],[-72.01240617977967,-37.117945964491184],[-72.01220613056682,-37.118547363603646],[-72.01217701114112,-37.118611493119836],[-72.01214267052174,-37.11875850017447],[-72.01204495119684,-37.11899701265204],[-72.01175381532303,-37.119388259782724],[-72.01159254884855,-37.11952587045787],[-72.01126373435795,-37.11971780715513],[-72.0110049079144,-37.11976014949019],[-72.01072924978476,-37.11979099660792],[-72.01007237799615,-37.11959312053341],[-72.00969951856426,-37.11950007826834],[-72.00952942626179,-37.11933989494556],[-72.00943213126706,-37.11921362448285],[-72.00934120724249,-37.119173019997646],[-72.00926897779365,-37.11915339803377],[-72.00906828351782,-37.11922245238058],[-72.00884191495828,-37.119345440585455],[-72.00895091405282,-37.11961684532013],[-72.00903625868581,-37.11996752785673],[-72.00901642423263,-37.120218364917015],[-72.00895098114438,-37.12052042694963],[-72.00885617233234,-37.12067096556074],[-72.00882421602354,-37.12070245629375],[-72.00831613007188,-37.12095377420162],[-72.00799962686548,-37.12108101877087],[-72.00758643478765,-37.12117257059221],[-72.00726596822872,-37.12119978057293],[-72.00692369520868,-37.121127409103856],[-72.006666502403,-37.120947976703604],[-72.00632387388174,-37.12056567621966],[-72.00630892584464,-37.12050832174454],[-72.00618579829613,-37.12003588180643],[-72.00618378783099,-37.12003518761566],[-72.00612359038496,-37.11941684266875],[-72.00612154917089,-37.119390720802656],[-72.00644351600323,-37.11944571740244],[-72.00645523857652,-37.11996754351587],[-72.00655081398763,-37.12035134615061],[-72.00676274821119,-37.12062848443639],[-72.00690295428215,-37.12078585478386],[-72.00705399813675,-37.120878576336146],[-72.00721156158751,-37.12091033892953],[-72.00760204138352,-37.12084678091298],[-72.00805356723484,-37.12074591046201],[-72.00831240127475,-37.12062847548896],[-72.00857803617475,-37.12045722388142],[-72.00862813530142,-37.12040049506248],[-72.00868552914139,-37.1202208500575],[-72.00861057344285,-37.11983175675783],[-72.00847056296418,-37.11945385374714],[-72.00841061345193,-37.119293256139336],[-72.00838191389775,-37.119170009416855],[-72.00840911442734,-37.118954747847766],[-72.00843545992318,-37.11886825093414],[-72.00852554026972,-37.11873721979293],[-72.0087057630326,-37.11869226621859],[-72.00889246250986,-37.11869929030704],[-72.00917541821866,-37.1187964078369],[-72.00942757261072,-37.11886748594295],[-72.00965299511452,-37.11892136180289],[-72.00978063448011,-37.11904328443059],[-72.0098227662997,-37.119167380856695],[-72.0099586673549,-37.11930995485788],[-72.01025531831213,-37.11937692001929],[-72.01060053604373,-37.11944861087903],[-72.01083735062302,-37.119508154232534],[-72.01100382180118,-37.11948306156487],[-72.01117259685991,-37.1194221490337],[-72.01145620596296,-37.11925400968035],[-72.01162813517654,-37.11903804815889],[-72.01181722626148,-37.118612796195016],[-72.01216040534392,-37.11782053235076],[-72.01231560068987,-37.11760499462542],[-72.01246979304776,-37.117458025915255],[-72.01233383661263,-37.1173697448894],[-72.01217329192473,-37.11727612631069],[-72.0135586206203,-37.11646140626909],[-72.01362008787149,-37.11649466799278],[-72.0138593719494,-37.11662415687471],[-72.01424619437906,-37.1166850544306],[-72.01462070033816,-37.11676426495513],[-72.01549830110558,-37.11662535922101],[-72.01592938973296,-37.11646060808552],[-72.01609501772204,-37.11647069514221],[-72.01633146995562,-37.11655736994189],[-72.01630768616293,-37.117356420135856]]]}},{"type":"Feature","properties":{"zona_code":"ZR-1","zona":"Zona ZR-1","comuna":"Yungay"},"geometry":{"type":"Polygon","coordinates":[[[-72.01654589313841,-37.11669935165382],[-72.01669752970287,-37.11681058612288],[-72.01699659478871,-37.117036807899225],[-72.01748395087294,-37.11727214838678],[-72.01765352684808,-37.117344119586434],[-72.01784519425662,-37.11737261401453],[-72.01803978068996,-37.117324742989176],[-72.0182538071101,-37.11716670522824],[-72.01842562768736,-37.11699543909667],[-72.01849727546796,-37.11685056561007],[-72.01852095997499,-37.1166973797622],[-72.01843492828253,-37.116480232970694],[-72.0182750589779,-37.11620298011281],[-72.0182390716513,-37.11604654505112],[-72.01825624059033,-37.11587921931635],[-72.01849489408208,-37.11559181221386],[-72.01899090328838,-37.11518817610699],[-72.01956328420157,-37.11475874989987],[-72.01983867387096,-37.11464682811641],[-72.02028882529812,-37.11458766877739],[-72.0206163411434,-37.11458885476584],[-72.02073738447122,-37.11463821792676],[-72.02088922610591,-37.11486322137313],[-72.02099752558861,-37.11506000947632],[-72.02109697510924,-37.11522138189533],[-72.02117103245861,-37.11560040245807],[-72.02116768496663,-37.115813474211116],[-72.02122220334385,-37.116136324029604],[-72.0212258549572,-37.11615800961473],[-72.02133137818193,-37.116287461129],[-72.0215632975054,-37.11639240736504],[-72.0219056074446,-37.1164659266957],[-72.02254453549162,-37.11647465874343],[-72.02303829192361,-37.11642629620235],[-72.0240088651229,-37.11624059439203],[-72.02483212810141,-37.11594420885859],[-72.02514038892407,-37.11578250481382],[-72.025593001318,-37.11551555371315],[-72.0256080091199,-37.11553541127318],[-72.02555657065209,-37.11581467936882],[-72.02553219221322,-37.115944060646996],[-72.02546247388706,-37.11598148228573],[-72.02533385567112,-37.11596560748506],[-72.02472345983674,-37.11624344816739],[-72.02398769171985,-37.116503626511374],[-72.02356337268247,-37.11659492220509],[-72.02310895532287,-37.11667804397612],[-72.02279750968982,-37.11670685327713],[-72.0223813793287,-37.11672343281165],[-72.02206143116194,-37.11672563526051],[-72.02167998787611,-37.116678742788906],[-72.0213397183251,-37.11660040279858],[-72.02125523772908,-37.116554470070604],[-72.02112907830144,-37.116485877392165],[-72.02097769325293,-37.116403569046184],[-72.02088177146213,-37.1163140670983],[-72.02080294090317,-37.11616587881657],[-72.02078776833444,-37.1160089136481],[-72.02077691480842,-37.115848262604814],[-72.02071413788879,-37.11534257256093],[-72.0206306909758,-37.115055541412154],[-72.02058228557112,-37.114988983084906],[-72.02045247729085,-37.114898835757],[-72.02027750861444,-37.11487087292537],[-72.02011402650012,-37.114892206453646],[-72.01991100552583,-37.11493743591357],[-72.01976414591643,-37.11501747152621],[-72.01949244393334,-37.11519223969205],[-72.019114533673,-37.11549619217778],[-72.01879337537909,-37.11574874972173],[-72.01866534035788,-37.115898039751265],[-72.01862410986381,-37.116077899678366],[-72.01858600665268,-37.1162427783599],[-72.01874753577678,-37.1164681328051],[-72.01881146199445,-37.1166721348144],[-72.01881543473912,-37.116865743188725],[-72.01875384214908,-37.11700141930392],[-72.01854434258053,-37.11725089209662],[-72.01822944186303,-37.1174925607082],[-72.01785669201574,-37.11755212320953],[-72.01774060799141,-37.117552697817594],[-72.01760313603495,-37.117539511212634],[-72.01734320165707,-37.117441230876956],[-72.01706928824744,-37.1172908564404],[-72.01659197287344,-37.11734115871835],[-72.01659195111176,-37.11734277292433],[-72.01654589313841,-37.11669935165382]]]}},{"type":"Feature","properties":{"zona_code":"ZR-2","zona":"Zona ZR-2","comuna":"Yungay"},"geometry":{"type":"Polygon","coordinates":[[[-72.02329306330539,-37.12292417755565],[-72.02345356797046,-37.12284259656366],[-72.02363422591078,-37.122735382897055],[-72.0238296981272,-37.122516737344135],[-72.02383896722705,-37.12251349022526],[-72.02384462696885,-37.122510084835014],[-72.02417266705231,-37.12242441496028],[-72.02473170814079,-37.12225755718821],[-72.0252058829921,-37.12220253277812],[-72.025756373743,-37.122269531999684],[-72.02633597323339,-37.12246929376551],[-72.02698974266612,-37.12266239005735],[-72.02747499224802,-37.12273581580691],[-72.02879880150049,-37.12278303196711],[-72.0298044849176,-37.122766847430626],[-72.03017122200168,-37.12283083129226],[-72.03014210636131,-37.12282926957537],[-72.02948224506441,-37.12285687668187],[-72.02824961145407,-37.12285621192782],[-72.02697271785136,-37.12286426333833],[-72.02619054327812,-37.12296054130844],[-72.02459670151457,-37.12301078827494],[-72.0242929223371,-37.12303185137598],[-72.02325185382152,-37.12316417753561],[-72.02291424489182,-37.12325540548763],[-72.02301591136391,-37.123160723081526],[-72.02329306330539,-37.12292417755565]]]}},{"type":"Feature","properties":{"zona_code":"ZU-3","zona":"Zona ZU-3","comuna":"Yungay"},"geometry":{"type":"Polygon","coordinates":[[[-72.02696823798956,-37.11795692773792],[-72.02742403409196,-37.11790182005089],[-72.02850606334388,-37.11779631200583],[-72.02860768653211,-37.11828385473427],[-72.02873362613589,-37.11905308615409],[-72.02876375528957,-37.11951006526259],[-72.028697953012,-37.119950425067714],[-72.0295036508794,-37.120444788773156],[-72.03000167775235,-37.12068953381255],[-72.0319983455447,-37.121472492000926],[-72.03218274723245,-37.122359034123775],[-72.03219298132059,-37.122408233429155],[-72.03166049210388,-37.12264422930956],[-72.03144767582918,-37.12268305312202],[-72.0310833499843,-37.12250641681764],[-72.03070442682562,-37.12285942468664],[-72.03069942120996,-37.12285410710757],[-72.03035277208411,-37.12272186159755],[-72.03011006099157,-37.12262926781166],[-72.02958473120496,-37.12242813517823],[-72.02948353485297,-37.122383711893335],[-72.02918699793831,-37.12225353974641],[-72.02885784785397,-37.122118909310124],[-72.02862884383654,-37.121975759050514],[-72.02862839282935,-37.121975379189934],[-72.02794365715008,-37.12197162118858],[-72.02750176007349,-37.121940002136576],[-72.02677980838224,-37.12190361925316],[-72.02597764733424,-37.12187166452816],[-72.0252406672499,-37.12186903279996],[-72.02512843678838,-37.12186689090421],[-72.02514215007452,-37.12158126299636],[-72.02514990223477,-37.12018350632657],[-72.0251087839592,-37.11899309516887],[-72.02504074879322,-37.11829390238378],[-72.02501571691627,-37.11816581691662],[-72.02514820578861,-37.118154548415475],[-72.02577372642247,-37.11810133959723],[-72.02680848678082,-37.11797624199792],[-72.02679136481204,-37.11816096965458],[-72.02697787915817,-37.11813474624937],[-72.02696823798956,-37.11795692773792]],[[-72.02545780921847,-37.120460661760504],[-72.02546160420407,-37.120555930404244],[-72.02616889380297,-37.12052355738876],[-72.02617022926947,-37.12043095773418],[-72.02545780921847,-37.120460661760504]],[[-72.02703359552,-37.11841226375465],[-72.02701217517543,-37.11824830758339],[-72.02680224847091,-37.11828466549118],[-72.02677838133876,-37.118464573294524],[-72.02703359552,-37.11841226375465]],[[-72.02687071227803,-37.119049192129765],[-72.02681145156191,-37.118739795963926],[-72.02674333169267,-37.118748688389935],[-72.02672054908966,-37.11907351005458],[-72.02687071227803,-37.119049192129765]]]}},{"type":"Feature","properties":{"zona_code":"ZE-2","zona":"Zona ZE-2","comuna":"Yungay"},"geometry":{"type":"Polygon","coordinates":[[[-72.0073054658176,-37.12709268308391],[-72.00734829795067,-37.126307815321134],[-72.00810158807876,-37.12623802391282],[-72.0093250722092,-37.12621290408194],[-72.01038410412717,-37.12631115898026],[-72.01205176065024,-37.12649235835963],[-72.01220961904504,-37.126509509915195],[-72.01219458614113,-37.12658420488594],[-72.01197216034882,-37.12768933659835],[-72.01140478567768,-37.12769296233842],[-72.01140459315256,-37.12769316473081],[-72.00839372134443,-37.12760279122487],[-72.00740152896974,-37.127651911923124],[-72.00728267151885,-37.12765779529011],[-72.0073054658176,-37.12709268308391]]]}},{"type":"Feature","properties":{"zona_code":"ZE-2","zona":"Zona ZE-2","comuna":"Yungay"},"geometry":{"type":"Polygon","coordinates":[[[-72.01629049762425,-37.1241330165548],[-72.01639647635146,-37.122914821322304],[-72.01748821340351,-37.123014925111434],[-72.01794681981521,-37.12307357187034],[-72.01919687967109,-37.12325032413584],[-72.020480071758,-37.12342482670094],[-72.02047389860864,-37.1235546744649],[-72.02040887906409,-37.124922309028044],[-72.01858377402831,-37.124939438783755],[-72.0185291822476,-37.12493290319153],[-72.01788995219485,-37.12495853330193],[-72.01784311000654,-37.12640211717046],[-72.01422254724726,-37.12670292291925],[-72.01422242922733,-37.12671362397885],[-72.01354277815823,-37.12677392234145],[-72.01385348164298,-37.12521614029985],[-72.01442041949609,-37.12520572696091],[-72.0152516098552,-37.125147734525996],[-72.01527656585097,-37.1251467423386],[-72.01522234352323,-37.12415645566928],[-72.01629049418827,-37.1241377156506],[-72.01629049762425,-37.1241330165548]]]}},{"type":"Feature","properties":{"zona_code":"ZU-5","zona":"ZU-5 Zona de equipamiento deportivo","comuna":"Yungay"},"geometry":{"type":"Polygon","coordinates":[[[-72.00834651365776,-37.12375660460184],[-72.00896104423074,-37.1235800665552],[-72.00908326430394,-37.123565040042976],[-72.00911884518621,-37.12380552970118],[-72.00919095971264,-37.12393482395847],[-72.01057528820833,-37.12372636859697],[-72.01067788594601,-37.12371646888558],[-72.01068522656342,-37.12381281109137],[-72.01069980274666,-37.12389886525693],[-72.01073503289378,-37.12469366998502],[-72.01069426696803,-37.124721575996894],[-72.01069477484974,-37.12472582663298],[-72.00990336907985,-37.12472613685222],[-72.00934836492189,-37.12477957209578],[-72.00926495779363,-37.125586333090176],[-72.00921615084219,-37.125584679892015],[-72.00793121491624,-37.12564643724118],[-72.00703238602506,-37.125775009016394],[-72.00698855369936,-37.125272223712244],[-72.00688661939498,-37.12438970534586],[-72.00710439461145,-37.12425007013666],[-72.007600845479,-37.12400501319449],[-72.00834651365776,-37.12375660460184]]]}},{"type":"Feature","properties":{"zona_code":"ZU-4","zona":"Zona ZU-4","comuna":"Yungay"},"geometry":{"type":"Polygon","coordinates":[[[-72.00719228507698,-37.11120107680068],[-72.00742867759503,-37.11130712916261],[-72.00764680781994,-37.11132781643524],[-72.00795151655535,-37.111279550024044],[-72.00829162660646,-37.111223229962434],[-72.00841058170154,-37.11122020940588],[-72.00863997151859,-37.11125654636993],[-72.00896965975848,-37.111341031226345],[-72.00919865088652,-37.11126011449992],[-72.01055705189023,-37.11274905582824],[-72.0112122969171,-37.11333927936117],[-72.0117307332231,-37.11383868675046],[-72.01237474585716,-37.11450178654315],[-72.01264146675099,-37.114846661612404],[-72.01306009033142,-37.11583138455451],[-72.01323460059824,-37.11622807516699],[-72.01347729865739,-37.11641739944424],[-72.0135586206203,-37.11646140626909],[-72.01217329192473,-37.11727612631069],[-72.01211530861943,-37.11724231464617],[-72.01200467267566,-37.117177799294815],[-72.01174650230067,-37.116954891889065],[-72.01160936261292,-37.11668718412317],[-72.01150393039322,-37.116491965026874],[-72.01147460090193,-37.11640361395225],[-72.0114608088472,-37.11637965834857],[-72.01122934361015,-37.11573723572214],[-72.01104146143484,-37.11531584939067],[-72.01070328780017,-37.1149519262803],[-72.01026115245402,-37.114524194441294],[-72.01025158820626,-37.11451145043486],[-72.00906160299407,-37.11337700400628],[-72.00745140292096,-37.111546833360386],[-72.00736543683648,-37.111450419458514],[-72.00719228507698,-37.11120107680068]]]}},{"type":"Feature","properties":{"zona_code":"ZU-1","zona":"Zona ZU-1","comuna":"Yungay"},"geometry":{"type":"Polygon","coordinates":[[[-72.01875384214908,-37.11700141930392],[-72.01881543473912,-37.116865743188725],[-72.01881146199445,-37.1166721348144],[-72.01874753577678,-37.1164681328051],[-72.01858600665268,-37.1162427783599],[-72.01862410986381,-37.116077899678366],[-72.01866534035788,-37.115898039751265],[-72.01879337537909,-37.11574874972173],[-72.019114533673,-37.11549619217778],[-72.01949244393334,-37.11519223969205],[-72.01976414591643,-37.11501747152621],[-72.01991100552583,-37.11493743591357],[-72.02011402650012,-37.114892206453646],[-72.02027750861444,-37.11487087292537],[-72.02045247729085,-37.114898835757],[-72.02058228557112,-37.114988983084906],[-72.0206306909758,-37.115055541412154],[-72.02071413788879,-37.11534257256093],[-72.02077691480842,-37.115848262604814],[-72.02078776833444,-37.1160089136481],[-72.02080294090317,-37.11616587881657],[-72.02088177146213,-37.1163140670983],[-72.02097769325293,-37.116403569046184],[-72.02112907830144,-37.116485877392165],[-72.02114313879721,-37.11668003143945],[-72.02114780388631,-37.11669466624011],[-72.02116362574596,-37.117165233843544],[-72.02337557827062,-37.1170897228112],[-72.02362653709922,-37.11711192677212],[-72.02375709497669,-37.118148068567926],[-72.02497261668442,-37.11816948320003],[-72.02501571691627,-37.11816581691662],[-72.02504074879322,-37.11829390238378],[-72.0251087839592,-37.11899309516887],[-72.02514990223477,-37.12018350632657],[-72.02514215007452,-37.12158126299636],[-72.02512843678838,-37.12186689090421],[-72.02506871659185,-37.12186575145264],[-72.02471348768057,-37.121858973761405],[-72.02437617384868,-37.12183764908822],[-72.02430742458338,-37.12184046980259],[-72.02426417289827,-37.12188657880464],[-72.0242595373109,-37.12194963788314],[-72.02422500537632,-37.12209928779803],[-72.02412282791555,-37.12226056626279],[-72.02409726856335,-37.1223009075636],[-72.02392503316574,-37.1224617025422],[-72.02384462696885,-37.122510084835014],[-72.02383896722705,-37.12251349022526],[-72.0238296981272,-37.122516737344135],[-72.02363929474221,-37.12258343576927],[-72.02350463544188,-37.12259377652677],[-72.02341608413634,-37.122600577527365],[-72.02193127605247,-37.1225991783691],[-72.02062668828654,-37.122585964251144],[-72.02063453132588,-37.121884835349526],[-72.0204696061572,-37.12188003357754],[-72.01959069001377,-37.12187091992405],[-72.01837057865232,-37.121885330070974],[-72.01828097043985,-37.12187807605599],[-72.01798071233364,-37.12188930413075],[-72.01640227369732,-37.121876783004],[-72.01601975200008,-37.12187374489715],[-72.0141038628325,-37.12191169035563],[-72.01401452263487,-37.11890997070192],[-72.01404140160273,-37.11808676570131],[-72.0141466643848,-37.11773838874682],[-72.01437079623328,-37.1174884566597],[-72.01453595490794,-37.11755800604738],[-72.01481958644534,-37.11765330425787],[-72.0150449572422,-37.11763087865069],[-72.0159940148577,-37.11740060272928],[-72.01617231642197,-37.117365844526724],[-72.0163071551377,-37.11734793831276],[-72.01630768616293,-37.117356420135856],[-72.01632956755331,-37.11770545988079],[-72.01658699600523,-37.117707433855735],[-72.01659195111176,-37.11734277292433],[-72.01659197287344,-37.11734115871835],[-72.01706928824744,-37.1172908564404],[-72.01734320165707,-37.117441230876956],[-72.01760313603495,-37.117539511212634],[-72.01774060799141,-37.117552697817594],[-72.01785669201574,-37.11755212320953],[-72.01822944186303,-37.1174925607082],[-72.01854434258053,-37.11725089209662],[-72.01875384214908,-37.11700141930392]],[[-72.01824088714982,-37.12003023358404],[-72.01949376629432,-37.11999830251778],[-72.01955938474109,-37.11996384779679],[-72.01962405505287,-37.11990557677964],[-72.01959054154418,-37.11887530027971],[-72.01955542475085,-37.11883447313787],[-72.01946837944735,-37.118797950458934],[-72.0194659220716,-37.11879708665519],[-72.01858645978527,-37.11879956751965],[-72.01828532723043,-37.118807241417116],[-72.01820555007643,-37.11885993663925],[-72.01817410164878,-37.118911400135715],[-72.0181302330176,-37.11996153058405],[-72.01816859333427,-37.11999035436403],[-72.01824088714982,-37.12003023358404]]]}},{"type":"Feature","properties":{"zona_code":"ZU-6","zona":"ZU-6 Zona de equipamiento de Cementerio","comuna":"Yungay"},"geometry":{"type":"Polygon","coordinates":[[[-72.01126669428092,-37.12947164881183],[-72.01126215884292,-37.1293537387462],[-72.0113721505728,-37.128400791481816],[-72.01139019071559,-37.12831182631261],[-72.01139121543751,-37.12826780428151],[-72.01139388494292,-37.12815311086605],[-72.0124828934229,-37.12820135998805],[-72.01239915190801,-37.128942567118905],[-72.01238182928418,-37.129181419541965],[-72.0123440727285,-37.12949792860924],[-72.01126669428092,-37.12947164881183]]]}},{"type":"Feature","properties":{"zona_code":"Área Verde","zona":"Área Verde","comuna":"Yungay"},"geometry":{"type":"Polygon","coordinates":[[[-72.02674333169267,-37.118748688389935],[-72.02681145156191,-37.118739795963926],[-72.02687071227803,-37.119049192129765],[-72.02672054908966,-37.11907351005458],[-72.02674333169267,-37.118748688389935]]]}},{"type":"Feature","properties":{"zona_code":"Área Verde","zona":"Área Verde","comuna":"Yungay"},"geometry":{"type":"Polygon","coordinates":[[[-72.02680224847091,-37.11828466549118],[-72.02701217517543,-37.11824830758339],[-72.02703359552,-37.11841226375465],[-72.02677838133876,-37.118464573294524],[-72.02680224847091,-37.11828466549118]]]}},{"type":"Feature","properties":{"zona_code":"Área Verde","zona":"Área Verde","comuna":"Yungay"},"geometry":{"type":"Polygon","coordinates":[[[-72.02680848678082,-37.11797624199792],[-72.02696823798956,-37.11795692773792],[-72.02697787915817,-37.11813474624937],[-72.02679136481204,-37.11816096965458],[-72.02680848678082,-37.11797624199792]]]}},{"type":"Feature","properties":{"zona_code":"Área Verde","zona":"Área Verde","comuna":"Yungay"},"geometry":{"type":"Polygon","coordinates":[[[-72.02545780921847,-37.120460661760504],[-72.02617022926947,-37.12043095773418],[-72.02616889380297,-37.12052355738876],[-72.02546160420407,-37.120555930404244],[-72.02545780921847,-37.120460661760504]]]}},{"type":"Feature","properties":{"zona_code":"Área Verde","zona":"Área Verde","comuna":"Yungay"},"geometry":{"type":"Polygon","coordinates":[[[-72.01824088714982,-37.12003023358404],[-72.01816859333427,-37.11999035436403],[-72.0181302330176,-37.11996153058405],[-72.01817410164878,-37.118911400135715],[-72.01820555007643,-37.11885993663925],[-72.01828532723043,-37.118807241417116],[-72.01858645978527,-37.11879956751965],[-72.0194659220716,-37.11879708665519],[-72.01946837944735,-37.118797950458934],[-72.01955542475085,-37.11883447313787],[-72.01959054154418,-37.11887530027971],[-72.01962405505287,-37.11990557677964],[-72.01955938474109,-37.11996384779679],[-72.01949376629432,-37.11999830251778],[-72.01824088714982,-37.12003023358404]]]}},{"type":"Feature","properties":{"zona_code":"Área Verde","zona":"Área Verde","comuna":"Yungay"},"geometry":{"type":"Polygon","coordinates":[[[-72.01659195111176,-37.11734277292433],[-72.01658699600523,-37.117707433855735],[-72.01632956755331,-37.11770545988079],[-72.01630768616293,-37.117356420135856],[-72.01633146995562,-37.11655736994189],[-72.01636598369184,-37.11657002103057],[-72.0163741188815,-37.11657334461213],[-72.01654589313841,-37.11669935165382],[-72.01659195111176,-37.11734277292433]]]}}]}