{"type":"FeatureCollection","name":"PRC_LaCisterna","crs":{"type":"name","properties":{"name":"urn:ogc:def:crs:OGC:1.3:CRS84"}},"features":[{"type":"Feature","properties":{"comuna":"LaCisterna","zona":"ZU-7","zona_code":"ZU-7","nombre":"ZU-7","decreto":""},"geometry":{"type":"Polygon","coordinates":[[[-70.64631369169952,-33.52331599056059],[-70.64462845381478,-33.51738856387912],[-70.65577195512155,-33.51519285546581],[-70.65743127317458,-33.52108120282255],[-70.65243127757027,-33.52208361816051],[-70.65283878614639,-33.52349533941374],[-70.65111383133343,-33.523850773922206],[-70.6506941804563,-33.522427861834664],[-70.64631369169952,-33.52331599056059]],[[-70.65090015793456,-33.51924632825265],[-70.65061784675964,-33.518265929633706],[-70.64956493767636,-33.51846812019065],[-70.64985487835439,-33.51945614738485],[-70.65090015793456,-33.51924632825265]]]}},{"type":"Feature","properties":{"comuna":"LaCisterna","zona":"ZU-7","zona_code":"ZU-7","nombre":"ZU-7","decreto":""},"geometry":{"type":"Polygon","coordinates":[[[-70.64927951747823,-33.533325049349955],[-70.64796729996162,-33.528625045104285],[-70.65148772868983,-33.528092814953474],[-70.65274053336309,-33.53256765811022],[-70.64927951747823,-33.533325049349955]]]}},{"type":"Feature","properties":{"comuna":"LaCisterna","zona":"ZU-7","zona_code":"ZU-7","nombre":"ZU-7","decreto":""},"geometry":{"type":"Polygon","coordinates":[[[-70.64927951747823,-33.533325049349955],[-70.65275764796428,-33.53262296871049],[-70.65421066543843,-33.53775925743946],[-70.65075177459197,-33.538414527631794],[-70.64927951747823,-33.533325049349955]]]}},{"type":"Feature","properties":{"comuna":"LaCisterna","zona":"ZU-7","zona_code":"ZU-7","nombre":"ZU-7","decreto":""},"geometry":{"type":"Polygon","coordinates":[[[-70.66093452909463,-33.514457040549296],[-70.66086879843368,-33.51387335627018],[-70.67103980795787,-33.510780397046915],[-70.67255418800869,-33.51395953730653],[-70.67087490909933,-33.51450442619277],[-70.67069178849158,-33.51406572648016],[-70.6696770307844,-33.51435565648201],[-70.6698677797753,-33.514824874133545],[-70.66175733326813,-33.517251128644766],[-70.66093452909463,-33.514457040549296]]]}},{"type":"Feature","properties":{"comuna":"LaCisterna","zona":"ZU-7","zona_code":"ZU-7","nombre":"ZU-7","decreto":""},"geometry":{"type":"Polygon","coordinates":[[[-70.67715435919756,-33.52964146161748],[-70.6762901051969,-33.527571261696714],[-70.67680774686949,-33.527383685290474],[-70.67617286628466,-33.52639986958745],[-70.67662666118463,-33.52611745013286],[-70.676742382186,-33.5258840035642],[-70.6767270564113,-33.525643567695816],[-70.67798738765829,-33.52524539658878],[-70.67982835874393,-33.5287816518726],[-70.67715435919756,-33.52964146161748]]]}},{"type":"Feature","properties":{"comuna":"LaCisterna","zona":"ZU-7A","zona_code":"ZU-7A","nombre":"ZU-7A","decreto":""},"geometry":{"type":"Polygon","coordinates":[[[-70.67025969141217,-33.542476171110394],[-70.67954650317012,-33.53981366936382],[-70.68031521486292,-33.54099402739123],[-70.67142175777815,-33.544257820455044],[-70.67025969141217,-33.542476171110394]]]}},{"type":"Feature","properties":{"comuna":"LaCisterna","zona":"ZU-7","zona_code":"ZU-7","nombre":"ZU-7","decreto":""},"geometry":{"type":"Polygon","coordinates":[[[-70.66729839174765,-33.52296588885339],[-70.66791482726757,-33.52287479204579],[-70.66805692113111,-33.523450300782294],[-70.6683376651188,-33.5240546056078],[-70.6676191821022,-33.52430372995636],[-70.66729839174765,-33.52296588885339]]]}},{"type":"Feature","properties":{"comuna":"LaCisterna","zona":"ZU-9","zona_code":"ZU-9","nombre":"ZU-9","decreto":""},"geometry":{"type":"Polygon","coordinates":[[[-70.67148834902798,-33.52341247152989],[-70.67387415941542,-33.52261768743448],[-70.6736827390731,-33.52215305662504],[-70.6760800507493,-33.52129736006108],[-70.67798738765829,-33.52524539658878],[-70.6767270564113,-33.525643567695816],[-70.6759463047931,-33.523906102495026],[-70.67457544382513,-33.524319850016866],[-70.67502170445232,-33.52538216788338],[-70.67254810385731,-33.526157655413506],[-70.67148834902798,-33.52341247152989]]]}},{"type":"Feature","properties":{"comuna":"LaCisterna","zona":"ZU-6","zona_code":"ZU-6","nombre":"ZU-6","decreto":""},"geometry":{"type":"Polygon","coordinates":[[[-70.67145399537534,-33.52733143604744],[-70.66995941447385,-33.52346918167084],[-70.6736827390731,-33.52215305662504],[-70.67387415941542,-33.52261768743448],[-70.67148463337382,-33.52340268202613],[-70.67254810385731,-33.526157655413506],[-70.67502170445232,-33.52538216788338],[-70.67457544382513,-33.524319850016866],[-70.6759463047931,-33.523906102495026],[-70.6767270564113,-33.525643567695816],[-70.67277621921177,-33.5268320048028],[-70.67280874776489,-33.526911058122955],[-70.67145399537534,-33.52733143604744]]]}},{"type":"Feature","properties":{"comuna":"LaCisterna","zona":"ZU-4","zona_code":"ZU-4","nombre":"ZU-4","decreto":""},"geometry":{"type":"Polygon","coordinates":[[[-70.65198114276048,-33.526900861765824],[-70.65153354270859,-33.52536658814651],[-70.65895989397124,-33.523884002845776],[-70.65930824147894,-33.52544530388047],[-70.65198114276048,-33.526900861765824]]]}},{"type":"Feature","properties":{"comuna":"LaCisterna","zona":"ZU-4","zona_code":"ZU-4","nombre":"ZU-4","decreto":""},"geometry":{"type":"Polygon","coordinates":[[[-70.65594766673394,-33.52304777950941],[-70.65848832863226,-33.52251515355545],[-70.65885062464483,-33.52376965495855],[-70.6490160694066,-33.525750254482915],[-70.6486015649331,-33.52438298085573],[-70.65559251156631,-33.52291993650704],[-70.65594766673394,-33.52304777950941]]]}},{"type":"Feature","properties":{"comuna":"LaCisterna","zona":"ZU-4","zona_code":"ZU-4","nombre":"ZU-4","decreto":""},"geometry":{"type":"Polygon","coordinates":[[[-70.66245933057256,-33.5238049282469],[-70.66184892874986,-33.52165720665274],[-70.66637338675633,-33.52075307463769],[-70.66603766368432,-33.51936449376996],[-70.67015774419448,-33.51854428990993],[-70.66992884483037,-33.51796825843959],[-70.6703273094678,-33.5178852449393],[-70.67088935625328,-33.51941540593517],[-70.666621362292,-33.520269859793984],[-70.6670749184925,-33.52217856683897],[-70.66673963114421,-33.52223702656727],[-70.66689986150679,-33.52291605519173],[-70.66489322981188,-33.52331280528424],[-70.66463381078657,-33.522660478843385],[-70.66417732890287,-33.52274985890277],[-70.66434529789471,-33.52342275128364],[-70.66245933057256,-33.5238049282469]]]}},{"type":"Feature","properties":{"comuna":"LaCisterna","zona":"ZU-4","zona_code":"ZU-4","nombre":"ZU-4","decreto":""},"geometry":{"type":"Polygon","coordinates":[[[-70.65122079999789,-33.54160562055685],[-70.6615515251966,-33.539498963558195],[-70.66191756922706,-33.54075996210475],[-70.66140386063142,-33.540864392596134],[-70.66202380734525,-33.54326191301844],[-70.66305224641897,-33.54309079394038],[-70.66339034468926,-33.544362810816615],[-70.65609738163612,-33.54557302060887],[-70.65573281724761,-33.54430414179088],[-70.65605420398244,-33.544253734989134],[-70.65542482252212,-33.542089244506656],[-70.65155276392373,-33.54286952233396],[-70.65122079999789,-33.54160562055685]]]}},{"type":"Feature","properties":{"comuna":"LaCisterna","zona":"ZU-2","zona_code":"ZU-2","nombre":"ZU-2","decreto":""},"geometry":{"type":"Polygon","coordinates":[[[-70.66688475934271,-33.5409447376941],[-70.66735031990392,-33.54216859734963],[-70.66771092617392,-33.54249173783167],[-70.66797767021598,-33.54312613603781],[-70.6683016459417,-33.54303809426056],[-70.66966787067986,-33.54490358433213],[-70.66819881321382,-33.545452746359274],[-70.66827902968954,-33.54555319994951],[-70.66673765483401,-33.546426675648],[-70.66551607546795,-33.54659197919516],[-70.66456261236098,-33.54284428354514],[-70.664183832086,-33.54290555256109],[-70.66354918126318,-33.54041634786837],[-70.6636284001567,-33.54039986689099],[-70.66287564105083,-33.53782608168992],[-70.66258253101186,-33.537919495027815],[-70.6611111170674,-33.532289343059134],[-70.66069571172658,-33.53030427239853],[-70.66059768897168,-33.53032048592661],[-70.6602467365703,-33.52900449569163],[-70.65980088846725,-33.52678070310935],[-70.65970432896907,-33.5267959845254],[-70.65915286176879,-33.52491048439969],[-70.65919013237304,-33.52467337724488],[-70.65895989397124,-33.523884002845776],[-70.66050260816371,-33.52357220552631],[-70.66046491727485,-33.52343427905554],[-70.65885062464483,-33.52376965495855],[-70.65848832863226,-33.52251515355545],[-70.65797441562287,-33.522614500138225],[-70.65749219459373,-33.52106995433241],[-70.65743127317458,-33.52108120282255],[-70.65577195512155,-33.51519285546581],[-70.65790230336748,-33.514768718958265],[-70.66086879843368,-33.51387335627018],[-70.66093452909463,-33.514457040549296],[-70.66175733326813,-33.517251128644766],[-70.66138347390506,-33.517392277985024],[-70.66108591458367,-33.51764787012057],[-70.66094095095164,-33.51791872083551],[-70.66091043481525,-33.51827349684169],[-70.66264245172607,-33.524453440208106],[-70.66290372237583,-33.52604631079986],[-70.66352753196317,-33.52736411742791],[-70.663451217464,-33.52743150249963],[-70.66352726921106,-33.5277850812938],[-70.66399726933012,-33.52882847381541],[-70.66409214923857,-33.52880610352188],[-70.66515718390822,-33.531382303644726],[-70.66519206261205,-33.531484783501945],[-70.66510302641757,-33.531521771999515],[-70.66565001600065,-33.532465513067635],[-70.6657936271452,-33.53241870057196],[-70.66623870832524,-33.53346603899117],[-70.66348870043413,-33.534274053604975],[-70.66439732478543,-33.53736210713229],[-70.66540171692822,-33.53705754366403],[-70.66577440858178,-33.538531950857],[-70.66586614748398,-33.53850565065317],[-70.66608502527382,-33.53921046815931],[-70.66622143863816,-33.53971584702108],[-70.66505174701767,-33.54006047716939],[-70.66507510990242,-33.54014263796428],[-70.66625587991173,-33.539788035963646],[-70.66664333928703,-33.54080783968515],[-70.66673320009963,-33.54097158075491],[-70.66688475934271,-33.5409447376941]]]}},{"type":"Feature","properties":{"comuna":"LaCisterna","zona":"ZU-8","zona_code":"ZU-8","nombre":"ZU-8","decreto":""},"geometry":{"type":"Polygon","coordinates":[[[-70.67102606806635,-33.522722518887036],[-70.66709324089655,-33.52227183355487],[-70.666621362292,-33.520269859793984],[-70.67088935625328,-33.51941540593517],[-70.67037214000231,-33.518007296593495],[-70.67420968078041,-33.51739524765457],[-70.6760800507493,-33.52129736006108],[-70.67117683090648,-33.52304990057154],[-70.67102606806635,-33.522722518887036]]]}},{"type":"Feature","properties":{"comuna":"LaCisterna","zona":"ZU-5","zona_code":"ZU-5","nombre":"ZU-5","decreto":""},"geometry":{"type":"Polygon","coordinates":[[[-70.65243127757027,-33.52208361816051],[-70.65749219459373,-33.52106995433241],[-70.65797441562287,-33.522614500138225],[-70.65594766673394,-33.52304777950941],[-70.65559251156631,-33.52291993650704],[-70.65283878614639,-33.52349533941374],[-70.65243127757027,-33.52208361816051]],[[-70.65491639952879,-33.522592600251485],[-70.65480869068308,-33.522189469642036],[-70.6545243346465,-33.52224854325597],[-70.65463878231094,-33.522645281308144],[-70.65491639952879,-33.522592600251485]]]}},{"type":"Feature","properties":{"comuna":"LaCisterna","zona":"ZU-5","zona_code":"ZU-5","nombre":"ZU-5","decreto":""},"geometry":{"type":"Polygon","coordinates":[[[-70.66150555025703,-33.51732742578336],[-70.67255418800869,-33.51395953730653],[-70.67351498450871,-33.51597131001933],[-70.67276921864834,-33.51623391351186],[-70.67284399596473,-33.51638769129897],[-70.6736093161779,-33.51616588256343],[-70.67420968078041,-33.51739524765457],[-70.67037214000231,-33.518007296593495],[-70.6703273094678,-33.5178852449393],[-70.66992884483037,-33.51796825843959],[-70.67015774419448,-33.51854428990993],[-70.66603766368432,-33.51936449376996],[-70.66637338675633,-33.52075307463769],[-70.66184892874986,-33.52165720665274],[-70.66130719649638,-33.519692594471906],[-70.66170787771499,-33.519612461832736],[-70.66153152400862,-33.51903478634705],[-70.66114875980396,-33.5191115451421],[-70.66091043481525,-33.51827349684169],[-70.66094095095164,-33.51791872083551],[-70.66122324975207,-33.517491463414444],[-70.66150555025703,-33.51732742578336]],[[-70.67164707565391,-33.515966541408545],[-70.67154634406232,-33.51599981888849],[-70.67188975397653,-33.51678626520572],[-70.6719824445833,-33.516756880902165],[-70.67164707565391,-33.515966541408545]],[[-70.6711343417937,-33.51676659408131],[-70.67082902177769,-33.51686528045369],[-70.67091324691451,-33.51704218068556],[-70.67121496836278,-33.51694036377433],[-70.6711343417937,-33.51676659408131]]]}},{"type":"Feature","properties":{"comuna":"LaCisterna","zona":"ZU-5","zona_code":"ZU-5","nombre":"ZU-5","decreto":""},"geometry":{"type":"Polygon","coordinates":[[[-70.64631369169952,-33.52331599056059],[-70.6506941804563,-33.522427861834664],[-70.65112414595595,-33.52388808784327],[-70.6486015649331,-33.52438298085573],[-70.6490160694066,-33.525750254482915],[-70.64712878180048,-33.5261020758654],[-70.64631369169952,-33.52331599056059]],[[-70.65051107502427,-33.52342733718168],[-70.65043606758672,-33.52315460459494],[-70.64998815036174,-33.52324974696978],[-70.65007617722708,-33.52352270947011],[-70.65051107502427,-33.52342733718168]]]}},{"type":"Feature","properties":{"comuna":"LaCisterna","zona":"ZU-5","zona_code":"ZU-5","nombre":"ZU-5","decreto":""},"geometry":{"type":"Polygon","coordinates":[[[-70.64771915826945,-33.5282628267052],[-70.6471539091458,-33.526256768109235],[-70.65153354270859,-33.52536658814651],[-70.65198114276048,-33.526900861765824],[-70.65930824147894,-33.52544530388047],[-70.65970432896907,-33.5267959845254],[-70.65980088846725,-33.52678070310935],[-70.6602467365703,-33.52900449569163],[-70.66059768897168,-33.53032048592661],[-70.66069571172658,-33.53030427239853],[-70.6611111170674,-33.532289343059134],[-70.66225343668732,-33.53653487304388],[-70.65697362940672,-33.53737415837349],[-70.65698051455837,-33.53744026731546],[-70.65654876616219,-33.537510468661985],[-70.65644743481035,-33.53752357327942],[-70.65641479523889,-33.537407110827964],[-70.65421066543843,-33.53775925743946],[-70.65275764796428,-33.53262296871049],[-70.654935915948,-33.53212365266817],[-70.65274053336309,-33.53256765811022],[-70.65148772868983,-33.528092814953474],[-70.64796729996162,-33.528625045104285],[-70.64771915826945,-33.5282628267052]],[[-70.64829846526277,-33.52690643562009],[-70.64823141236707,-33.52665500135444],[-70.64790352320276,-33.52671775888247],[-70.64796720777417,-33.526972689412716],[-70.64829846526277,-33.52690643562009]],[[-70.65797205714772,-33.52878222681148],[-70.65783550851928,-33.52825391103291],[-70.65643946602302,-33.52848189203169],[-70.6566149562591,-33.52901214951599],[-70.65797205714772,-33.52878222681148]],[[-70.65878182444698,-33.529912423715146],[-70.65777927061818,-33.53006926247471],[-70.6579709841066,-33.53076400480742],[-70.6589725749064,-33.53058764042167],[-70.65878182444698,-33.529912423715146]],[[-70.65902600713973,-33.53331521246398],[-70.6588505152236,-33.53252555295483],[-70.65843850707392,-33.53258277686215],[-70.65863688885244,-33.533372436986284],[-70.65902600713973,-33.53331521246398]]]}},{"type":"Feature","properties":{"comuna":"LaCisterna","zona":"ZU-5","zona_code":"ZU-5","nombre":"ZU-5","decreto":""},"geometry":{"type":"Polygon","coordinates":[[[-70.66673963114421,-33.52223702656727],[-70.6670749184925,-33.52217856683897],[-70.66709324089655,-33.52227183355487],[-70.66895858735302,-33.522537804582115],[-70.67102606806635,-33.522722518887036],[-70.67117683090648,-33.52304990057154],[-70.66995941447385,-33.52346918167084],[-70.67145399537534,-33.52733143604744],[-70.6717295596723,-33.52764254784293],[-70.67214055894648,-33.527726535327744],[-70.67198705547358,-33.52820030997526],[-70.6721846496253,-33.52820518888512],[-70.6722082830644,-33.52772459266592],[-70.6724626908057,-33.527670563264365],[-70.67275611289004,-33.52742267081956],[-70.67284640014732,-33.52718748994205],[-70.67277621921177,-33.5268320048028],[-70.67529595769365,-33.52605334065609],[-70.67567111483024,-33.52636713346111],[-70.67617286628466,-33.52639986958745],[-70.67680774686949,-33.527383685290474],[-70.6762901051969,-33.527571261696714],[-70.67715435919756,-33.52964146161748],[-70.67982835874393,-33.5287816518726],[-70.68103164054972,-33.53101030731665],[-70.66711682193068,-33.53547657642647],[-70.6657936271452,-33.53241870057196],[-70.66565001600065,-33.532465513067635],[-70.66510302641757,-33.531521771999515],[-70.66519206261205,-33.531484783501945],[-70.66515718390822,-33.531382303644726],[-70.66409214923857,-33.52880610352188],[-70.66399726933012,-33.52882847381541],[-70.66352726921106,-33.5277850812938],[-70.663451217464,-33.52743150249963],[-70.66352753196317,-33.52736411742791],[-70.66290372237583,-33.52604631079986],[-70.66279505526805,-33.52515917576884],[-70.66245933057256,-33.5238049282469],[-70.66689986150679,-33.52291605519173],[-70.66673963114421,-33.52223702656727]],[[-70.6676191821022,-33.52430372995636],[-70.6683376651188,-33.5240546056078],[-70.66805692113111,-33.523450300782294],[-70.66791482726757,-33.52287479204579],[-70.66729839174765,-33.52296588885339],[-70.6676191821022,-33.52430372995636]],[[-70.66436928900266,-33.526771844177915],[-70.66411433089019,-33.52623950723067],[-70.66396242168796,-33.52629215928191],[-70.66413791010336,-33.526677451953745],[-70.66436928900266,-33.526771844177915]],[[-70.66594533283165,-33.52748351942523],[-70.66589190553461,-33.52731523157486],[-70.66551588289515,-33.527437513747216],[-70.66554854512813,-33.527623197465886],[-70.66594533283165,-33.52748351942523]],[[-70.67133439009356,-33.52842248342195],[-70.67147015057108,-33.528004953271314],[-70.67101618201978,-33.528283436368945],[-70.67133439009356,-33.52842248342195]],[[-70.67362717526021,-33.5284967605374],[-70.67394124940256,-33.52838531767716],[-70.67346990448574,-33.52813328796679],[-70.67362717526021,-33.5284967605374]],[[-70.6748730351017,-33.52797822687102],[-70.67545665252733,-33.52779803679147],[-70.67467644569334,-33.527511446126255],[-70.6748730351017,-33.52797822687102]],[[-70.67243917756714,-33.53313201835242],[-70.67280084604295,-33.53281123218763],[-70.6728359226307,-33.532376690325556],[-70.67242125239318,-33.53208650412366],[-70.67182280354632,-33.53213957036894],[-70.67155601105186,-33.532449540735584],[-70.67158259127699,-33.532843696557535],[-70.67192981147274,-33.53310845001248],[-70.67243917756714,-33.53313201835242]]]}},{"type":"Feature","properties":{"comuna":"LaCisterna","zona":"ZU-3","zona_code":"ZU-3","nombre":"ZU-3","decreto":""},"geometry":{"type":"Polygon","coordinates":[[[-70.65644743481035,-33.53752357327942],[-70.65698051455837,-33.53744026731546],[-70.65697362940672,-33.53737415837349],[-70.66225343668732,-33.53653487304388],[-70.66258253101186,-33.537919495027815],[-70.66287564105083,-33.53782608168992],[-70.66326879904379,-33.53914804065754],[-70.65122079999789,-33.54160562055685],[-70.65090296116342,-33.540549689955846],[-70.65110924582116,-33.53964865354471],[-70.65075177459197,-33.538414527631794],[-70.65641479523889,-33.537407110827964],[-70.65644743481035,-33.53752357327942]]]}},{"type":"Feature","properties":{"comuna":"LaCisterna","zona":"ZU-3","zona_code":"ZU-3","nombre":"ZU-3","decreto":""},"geometry":{"type":"Polygon","coordinates":[[[-70.66711682193068,-33.53547657642647],[-70.68103164054972,-33.53101030731665],[-70.68242470024927,-33.53357664601262],[-70.6722360422156,-33.53670034546289],[-70.6721123471279,-33.536383000300425],[-70.6723441604077,-33.5363006750543],[-70.67228902677452,-33.536176929545775],[-70.67190685248369,-33.53627548788739],[-70.67211875860995,-33.53673699640564],[-70.6705399796254,-33.537225492678566],[-70.66919095874161,-33.53748464362706],[-70.66577440858178,-33.538531950857],[-70.66540171692822,-33.53705754366403],[-70.66750276005982,-33.53638984269544],[-70.66711682193068,-33.53547657642647]],[[-70.67566310361721,-33.53474984347324],[-70.67578056376759,-33.535078093777244],[-70.6760844122944,-33.535003137330854],[-70.67597954029101,-33.534669687539626],[-70.67566310361721,-33.53474984347324]],[[-70.66958775310444,-33.536936481462135],[-70.66962611954291,-33.53707746517435],[-70.6700639761299,-33.53698419847915],[-70.67002473584459,-33.536852236677525],[-70.66958775310444,-33.536936481462135]]]}},{"type":"Feature","properties":{"comuna":"LaCisterna","zona":"ZU-1","zona_code":"ZU-1","nombre":"ZU-1","decreto":""},"geometry":{"type":"Polygon","coordinates":[[[-70.66370099303488,-33.535033495461654],[-70.66348870043413,-33.534274053604975],[-70.66623870832524,-33.53346603899117],[-70.66750276005982,-33.53638984269544],[-70.66439732478543,-33.53736210713229],[-70.66377954984958,-33.53531451538801],[-70.66497742566692,-33.53493048956815],[-70.66493242052759,-33.53456896643674],[-70.66412308795407,-33.534708694476855],[-70.66418426186969,-33.53492738827627],[-70.66370099303488,-33.535033495461654]]]}},{"type":"Feature","properties":{"comuna":"LaCisterna","zona":"AV","zona_code":"AV","nombre":"AV","decreto":""},"geometry":{"type":"Polygon","coordinates":[[[-70.67467644569334,-33.527511446126255],[-70.67504689408398,-33.527648191651956],[-70.67545665252733,-33.52779803679147],[-70.6748730351017,-33.52797822687102],[-70.67467644569334,-33.527511446126255]]]}},{"type":"Feature","properties":{"comuna":"LaCisterna","zona":"AV","zona_code":"AV","nombre":"AV","decreto":""},"geometry":{"type":"Polygon","coordinates":[[[-70.6759743409412,-33.52641783709195],[-70.67559213858172,-33.52633088350913],[-70.67533843970254,-33.52611661041323],[-70.6767270564113,-33.525643567695816],[-70.676742382186,-33.5258840035642],[-70.67656196541158,-33.52619142050048],[-70.67639622245014,-33.52632472813898],[-70.6759743409412,-33.52641783709195]]]}},{"type":"Feature","properties":{"comuna":"LaCisterna","zona":"AV","zona_code":"AV","nombre":"AV","decreto":""},"geometry":{"type":"Polygon","coordinates":[[[-70.67346990448574,-33.52813328796679],[-70.67353441111615,-33.52811880781099],[-70.67394124940256,-33.52838531767716],[-70.67362717526021,-33.5284967605374],[-70.67346990448574,-33.52813328796679]]]}},{"type":"Feature","properties":{"comuna":"LaCisterna","zona":"AV","zona_code":"AV","nombre":"AV","decreto":""},"geometry":{"type":"Polygon","coordinates":[[[-70.67101618201978,-33.528283436368945],[-70.67147015057108,-33.528004953271314],[-70.67133439009356,-33.52842248342195],[-70.67101618201978,-33.528283436368945]]]}},{"type":"Feature","properties":{"comuna":"LaCisterna","zona":"AV","zona_code":"AV","nombre":"AV","decreto":""},"geometry":{"type":"Polygon","coordinates":[[[-70.67214055894648,-33.527726535327744],[-70.6717295596723,-33.52764254784293],[-70.67145399537534,-33.52733143604744],[-70.67280874776489,-33.526911058122955],[-70.67283839888594,-33.52725150662069],[-70.67272131392187,-33.527476155641764],[-70.6724626908057,-33.527670563264365],[-70.6722082830644,-33.52772459266592],[-70.6721846496253,-33.52820518888512],[-70.67198705547358,-33.52820030997526],[-70.67214055894648,-33.527726535327744]]]}},{"type":"Feature","properties":{"comuna":"LaCisterna","zona":"AV","zona_code":"AV","nombre":"AV","decreto":""},"geometry":{"type":"Polygon","coordinates":[[[-70.66551588289515,-33.527437513747216],[-70.66589190553461,-33.52731523157486],[-70.66594533283165,-33.52748351942523],[-70.66554854512813,-33.527623197465886],[-70.66551588289515,-33.527437513747216]]]}},{"type":"Feature","properties":{"comuna":"LaCisterna","zona":"AV","zona_code":"AV","nombre":"AV","decreto":""},"geometry":{"type":"Polygon","coordinates":[[[-70.66436928900266,-33.526771844177915],[-70.66413791010336,-33.526677451953745],[-70.66396242168796,-33.52629215928191],[-70.66411433089019,-33.52623950723067],[-70.66436928900266,-33.526771844177915]]]}},{"type":"Feature","properties":{"comuna":"LaCisterna","zona":"AV","zona_code":"AV","nombre":"AV","decreto":""},"geometry":{"type":"Polygon","coordinates":[[[-70.64790352320276,-33.52671775888247],[-70.64823141236707,-33.52665500135444],[-70.64829846526277,-33.52690643562009],[-70.64796720777417,-33.526972689412716],[-70.64790352320276,-33.52671775888247]]]}},{"type":"Feature","properties":{"comuna":"LaCisterna","zona":"AV","zona_code":"AV","nombre":"AV","decreto":""},"geometry":{"type":"Polygon","coordinates":[[[-70.66958775310444,-33.536936481462135],[-70.67002473584459,-33.536852236677525],[-70.6700639761299,-33.53698419847915],[-70.66962611954291,-33.53707746517435],[-70.66958775310444,-33.536936481462135]]]}},{"type":"Feature","properties":{"comuna":"LaCisterna","zona":"AV","zona_code":"AV","nombre":"AV","decreto":""},"geometry":{"type":"Polygon","coordinates":[[[-70.67211875860995,-33.53673699640564],[-70.67190685248369,-33.53627548788739],[-70.67228902677452,-33.536176929545775],[-70.6723441604077,-33.5363006750543],[-70.6721123471279,-33.536383000300425],[-70.6722360422156,-33.53670034546289],[-70.67211875860995,-33.53673699640564]]]}},{"type":"Feature","properties":{"comuna":"LaCisterna","zona":"AV","zona_code":"AV","nombre":"AV","decreto":""},"geometry":{"type":"Polygon","coordinates":[[[-70.67614551815598,-33.536033124946165],[-70.67646227040748,-33.5359567167731],[-70.67655616171048,-33.53618301938484],[-70.67623404809218,-33.53627370658468],[-70.67614551815598,-33.536033124946165]]]}},{"type":"Feature","properties":{"comuna":"LaCisterna","zona":"AV","zona_code":"AV","nombre":"AV","decreto":""},"geometry":{"type":"Polygon","coordinates":[[[-70.67566310361721,-33.53474984347324],[-70.67597954029101,-33.534669687539626],[-70.6760844122944,-33.535003137330854],[-70.67578056376759,-33.535078093777244],[-70.67566310361721,-33.53474984347324]]]}},{"type":"Feature","properties":{"comuna":"LaCisterna","zona":"AV","zona_code":"AV","nombre":"AV","decreto":""},"geometry":{"type":"Polygon","coordinates":[[[-70.68256028087242,-33.537120679303555],[-70.68276231913998,-33.5370573742759],[-70.68315544709655,-33.537759197429146],[-70.68294261861506,-33.53782407735665],[-70.68256028087242,-33.537120679303555]]]}},{"type":"Feature","properties":{"comuna":"LaCisterna","zona":"AV","zona_code":"AV","nombre":"AV","decreto":""},"geometry":{"type":"Polygon","coordinates":[[[-70.68196373424828,-33.53640933246923],[-70.68232741514589,-33.53624482624159],[-70.6825339827607,-33.53654054616181],[-70.68208239492418,-33.53666707288736],[-70.68196373424828,-33.53640933246923]]]}},{"type":"Feature","properties":{"comuna":"LaCisterna","zona":"AV","zona_code":"AV","nombre":"AV","decreto":""},"geometry":{"type":"Polygon","coordinates":[[[-70.6839746275706,-33.538288650995035],[-70.68290728065115,-33.53629059749178],[-70.68249798310194,-33.53550546579146],[-70.68332898801464,-33.53525098403049],[-70.6847776286715,-33.5379773078737],[-70.68460852804364,-33.53804325308878],[-70.68419320544515,-33.537944798346665],[-70.6839746275706,-33.538288650995035]]]}},{"type":"Feature","properties":{"comuna":"LaCisterna","zona":"AV","zona_code":"AV","nombre":"AV","decreto":""},"geometry":{"type":"Polygon","coordinates":[[[-70.64956493767636,-33.51846812019065],[-70.65061784675964,-33.518265929633706],[-70.65090015793456,-33.51924632825265],[-70.64985487835439,-33.51945614738485],[-70.64956493767636,-33.51846812019065]]]}},{"type":"Feature","properties":{"comuna":"LaCisterna","zona":"AV","zona_code":"AV","nombre":"AV","decreto":""},"geometry":{"type":"Polygon","coordinates":[[[-70.6566149562591,-33.52901214951599],[-70.65643946602302,-33.52848189203169],[-70.65783550851928,-33.52825391103291],[-70.65797205714772,-33.52878222681148],[-70.6566149562591,-33.52901214951599]]]}},{"type":"Feature","properties":{"comuna":"LaCisterna","zona":"AV","zona_code":"AV","nombre":"AV","decreto":""},"geometry":{"type":"Polygon","coordinates":[[[-70.65777927061818,-33.53006926247471],[-70.65878182444698,-33.529912423715146],[-70.6589725749064,-33.53058764042167],[-70.6579709841066,-33.53076400480742],[-70.65777927061818,-33.53006926247471]]]}},{"type":"Feature","properties":{"comuna":"LaCisterna","zona":"AV","zona_code":"AV","nombre":"AV","decreto":""},"geometry":{"type":"Polygon","coordinates":[[[-70.65843850707392,-33.53258277686215],[-70.6588505152236,-33.53252555295483],[-70.65902600713973,-33.53331521246398],[-70.65863688885244,-33.533372436986284],[-70.65843850707392,-33.53258277686215]]]}},{"type":"Feature","properties":{"comuna":"LaCisterna","zona":"AV","zona_code":"AV","nombre":"AV","decreto":""},"geometry":{"type":"Polygon","coordinates":[[[-70.64937059314693,-33.53326763689357],[-70.65494940433081,-33.532172819569425],[-70.64927951747823,-33.533325049349955],[-70.64937059314693,-33.53326763689357]]]}},{"type":"Feature","properties":{"comuna":"LaCisterna","zona":"AV","zona_code":"AV","nombre":"AV","decreto":""},"geometry":{"type":"Polygon","coordinates":[[[-70.65806477936651,-33.54781903878233],[-70.65772905966698,-33.54660594080176],[-70.65875907671146,-33.546411374957145],[-70.6591024308806,-33.54765118203303],[-70.65806477936651,-33.54781903878233]]]}},{"type":"Feature","properties":{"comuna":"LaCisterna","zona":"AV","zona_code":"AV","nombre":"AV","decreto":""},"geometry":{"type":"Polygon","coordinates":[[[-70.65315882280937,-33.54757873668471],[-70.65373868592658,-33.54747954853952],[-70.6538466115403,-33.54786340262032],[-70.6532665506223,-33.54796188873342],[-70.65315882280937,-33.54757873668471]]]}},{"type":"Feature","properties":{"comuna":"LaCisterna","zona":"AV","zona_code":"AV","nombre":"AV","decreto":""},"geometry":{"type":"Polygon","coordinates":[[[-70.67219538140904,-33.533149770015996],[-70.67174943819846,-33.53301109226829],[-70.67158259127699,-33.532843696557535],[-70.67153328996682,-33.53257125812363],[-70.67172115103882,-33.53221099008752],[-70.67222818608175,-33.53205417302926],[-70.67272141589277,-33.532254085261485],[-70.6728359226307,-33.532376690325556],[-70.67285315068855,-33.532602688182635],[-70.6726549405604,-33.53300335173067],[-70.67219538140904,-33.533149770015996]]]}},{"type":"Feature","properties":{"comuna":"LaCisterna","zona":"AV","zona_code":"AV","nombre":"AV","decreto":""},"geometry":{"type":"Polygon","coordinates":[[[-70.6696770307844,-33.51435565648201],[-70.67069178849158,-33.51406572648016],[-70.67087490909933,-33.51450442619277],[-70.6698677797753,-33.514824874133545],[-70.6696770307844,-33.51435565648201]]]}},{"type":"Feature","properties":{"comuna":"LaCisterna","zona":"AV","zona_code":"AV","nombre":"AV","decreto":""},"geometry":{"type":"Polygon","coordinates":[[[-70.67276921864834,-33.51623391351186],[-70.67351498450871,-33.51597131001933],[-70.6736093161779,-33.51616588256343],[-70.67284399596473,-33.51638769129897],[-70.67276921864834,-33.51623391351186]]]}},{"type":"Feature","properties":{"comuna":"LaCisterna","zona":"AV","zona_code":"AV","nombre":"AV","decreto":""},"geometry":{"type":"Polygon","coordinates":[[[-70.67188975397653,-33.51678626520572],[-70.67154634406232,-33.51599981888849],[-70.67164707565391,-33.515966541408545],[-70.6719824445833,-33.516756880902165],[-70.67188975397653,-33.51678626520572]]]}},{"type":"Feature","properties":{"comuna":"LaCisterna","zona":"AV","zona_code":"AV","nombre":"AV","decreto":""},"geometry":{"type":"Polygon","coordinates":[[[-70.67082902177769,-33.51686528045369],[-70.6711343417937,-33.51676659408131],[-70.67121496836278,-33.51694036377433],[-70.67091324691451,-33.51704218068556],[-70.67082902177769,-33.51686528045369]]]}},{"type":"Feature","properties":{"comuna":"LaCisterna","zona":"AV","zona_code":"AV","nombre":"AV","decreto":""},"geometry":{"type":"Polygon","coordinates":[[[-70.66130719649638,-33.519692594471906],[-70.66114875980396,-33.5191115451421],[-70.66153152400862,-33.51903478634705],[-70.66170787771499,-33.519612461832736],[-70.66130719649638,-33.519692594471906]]]}},{"type":"Feature","properties":{"comuna":"LaCisterna","zona":"AV","zona_code":"AV","nombre":"AV","decreto":""},"geometry":{"type":"Polygon","coordinates":[[[-70.66417732890287,-33.52274985890277],[-70.66463381078657,-33.522660478843385],[-70.66489322981188,-33.52331280528424],[-70.66434529789471,-33.52342275128364],[-70.66417732890287,-33.52274985890277]]]}},{"type":"Feature","properties":{"comuna":"LaCisterna","zona":"AV","zona_code":"AV","nombre":"AV","decreto":""},"geometry":{"type":"Polygon","coordinates":[[[-70.6545243346465,-33.52224854325597],[-70.65480869068308,-33.522189469642036],[-70.65491639952879,-33.522592600251485],[-70.65463878231094,-33.522645281308144],[-70.6545243346465,-33.52224854325597]]]}},{"type":"Feature","properties":{"comuna":"LaCisterna","zona":"AV","zona_code":"AV","nombre":"AV","decreto":""},"geometry":{"type":"Polygon","coordinates":[[[-70.64712878180048,-33.5261020758654],[-70.66046491727485,-33.52343427905554],[-70.66050260816371,-33.52357220552631],[-70.6471539091458,-33.526256768109235],[-70.64712878180048,-33.5261020758654]]]}},{"type":"Feature","properties":{"comuna":"LaCisterna","zona":"AV","zona_code":"AV","nombre":"AV","decreto":""},"geometry":{"type":"Polygon","coordinates":[[[-70.64998815036174,-33.52324974696978],[-70.65043606758672,-33.52315460459494],[-70.65051107502427,-33.52342733718168],[-70.65007617722708,-33.52352270947011],[-70.64998815036174,-33.52324974696978]]]}},{"type":"Feature","properties":{"comuna":"LaCisterna","zona":"ZU-5","zona_code":"ZU-5","nombre":"ZU-5","decreto":""},"geometry":{"type":"Polygon","coordinates":[[[-70.66140386063142,-33.540864392596134],[-70.66191756922706,-33.54075996210475],[-70.6615515251966,-33.539498963558195],[-70.66323518112017,-33.53915471660612],[-70.6636284001567,-33.54039986689099],[-70.66354918126318,-33.54041634786837],[-70.664183832086,-33.54290555256109],[-70.66456261236098,-33.54284428354514],[-70.66551607546795,-33.54659197919516],[-70.6591024308806,-33.54765118203303],[-70.65875907671146,-33.546411374957145],[-70.65772905966698,-33.54660594080176],[-70.65806477936651,-33.54781903878233],[-70.65678297687253,-33.54803267168373],[-70.65682284479706,-33.54821879114864],[-70.65349454313504,-33.54877276289891],[-70.6532665506223,-33.54796188873342],[-70.6538466115403,-33.54786340262032],[-70.65373868592658,-33.54747954853952],[-70.65315882280937,-33.54757873668471],[-70.65239581991176,-33.5448626098069],[-70.65211946616706,-33.54490444677934],[-70.65155276392373,-33.54286952233396],[-70.65542482252212,-33.542089244506656],[-70.65605420398244,-33.544253734989134],[-70.65573281724761,-33.54430414179088],[-70.65609738163612,-33.54557302060887],[-70.66339034468926,-33.544362810816615],[-70.66305224641897,-33.54309079394038],[-70.66202380734525,-33.54326191301844],[-70.66140386063142,-33.540864392596134]]]}},{"type":"Feature","properties":{"comuna":"LaCisterna","zona":"AV","zona_code":"AV","nombre":"AV","decreto":""},"geometry":{"type":"Polygon","coordinates":[[[-70.66370099303488,-33.535033495461654],[-70.66418426186969,-33.53492738827627],[-70.66412308795407,-33.534708694476855],[-70.66493242052759,-33.53456896643674],[-70.66497742566692,-33.53493048956815],[-70.66377954984958,-33.53531451538801],[-70.66370099303488,-33.535033495461654]]]}},{"type":"Feature","properties":{"comuna":"LaCisterna","zona":"AV","zona_code":"AV","nombre":"AV","decreto":""},"geometry":{"type":"Polygon","coordinates":[[[-70.66505174701767,-33.54006047716939],[-70.68300147977028,-33.534670559489506],[-70.68308235436788,-33.53480069198471],[-70.67773226620186,-33.5364070555891],[-70.67789372017621,-33.53682752061754],[-70.67687997597217,-33.53714351726451],[-70.67671579538246,-33.53671848495543],[-70.66507510990242,-33.54014263796428],[-70.66505174701767,-33.54006047716939]]]}},{"type":"Feature","properties":{"comuna":"LaCisterna","zona":"ZU-7","zona_code":"ZU-7","nombre":"ZU-7","decreto":""},"geometry":{"type":"Polygon","coordinates":[[[-70.6840677245085,-33.53803366312989],[-70.68430834641565,-33.53791901841528],[-70.68460852804364,-33.53804325308878],[-70.6847776286715,-33.5379773078737],[-70.685395992655,-33.53914257509966],[-70.68031521486292,-33.54099402739123],[-70.67954650317012,-33.53981366936382],[-70.68408692779828,-33.538497236242286],[-70.6839746275706,-33.538288650995035],[-70.6840677245085,-33.53803366312989]]]}},{"type":"Feature","properties":{"comuna":"LaCisterna","zona":"ZU-4","zona_code":"ZU-4","nombre":"ZU-4","decreto":""},"geometry":{"type":"Polygon","coordinates":[[[-70.67765111833825,-33.536903143233566],[-70.67789372017621,-33.53682752061754],[-70.67773226620186,-33.5364070555891],[-70.6792882503008,-33.535931778971666],[-70.67973485718107,-33.53709261900224],[-70.67809766434969,-33.53758887449086],[-70.67765111833825,-33.536903143233566]]]}},{"type":"Feature","properties":{"comuna":"LaCisterna","zona":"ZU-5","zona_code":"ZU-5","nombre":"ZU-5","decreto":""},"geometry":{"type":"Polygon","coordinates":[[[-70.6792882503008,-33.535931778971666],[-70.68308235436788,-33.53480069198471],[-70.68332898801464,-33.53525098403049],[-70.68249798310194,-33.53550546579146],[-70.68408692779828,-33.538497236242286],[-70.67954650317012,-33.53981366936382],[-70.67809766434969,-33.53758887449086],[-70.67973485718107,-33.53709261900224],[-70.6792882503008,-33.535931778971666]],[[-70.6825339827607,-33.53654054616181],[-70.6823468469956,-33.536250210209026],[-70.68193975190583,-33.53637389260396],[-70.68208239492418,-33.53666707288736],[-70.6825339827607,-33.53654054616181]],[[-70.68276231913998,-33.5370573742759],[-70.68256028087242,-33.537120679303555],[-70.68270472113615,-33.537457407864764],[-70.68277758407025,-33.53743503385746],[-70.68294261861506,-33.53782407735665],[-70.68315544709655,-33.537759197429146],[-70.68276231913998,-33.5370573742759]]]}},{"type":"Feature","properties":{"comuna":"LaCisterna","zona":"ZU-5","zona_code":"ZU-5","nombre":"ZU-5","decreto":""},"geometry":{"type":"Polygon","coordinates":[[[-70.66775483388464,-33.54259267287967],[-70.66735031990392,-33.54216859734963],[-70.66688475934271,-33.5409447376941],[-70.6688855894561,-33.540369320641084],[-70.67025969141217,-33.542476171110394],[-70.66797767021598,-33.54312613603781],[-70.66775483388464,-33.54259267287967]]]}},{"type":"Feature","properties":{"comuna":"LaCisterna","zona":"ZU-7","zona_code":"ZU-7","nombre":"ZU-7","decreto":""},"geometry":{"type":"Polygon","coordinates":[[[-70.66966787067986,-33.54490358433213],[-70.6683016459417,-33.54303809426056],[-70.67025969141217,-33.542476171110394],[-70.67142175777815,-33.544257820455044],[-70.66966787067986,-33.54490358433213]]]}},{"type":"Feature","properties":{"comuna":"LaCisterna","zona":"ZU-4","zona_code":"ZU-4","nombre":"ZU-4","decreto":""},"geometry":{"type":"Polygon","coordinates":[[[-70.67721452321736,-33.53623268005291],[-70.67734315539494,-33.5364302180433],[-70.6772926799876,-33.53644518472416],[-70.67721452321736,-33.53623268005291]]]}},{"type":"Feature","properties":{"comuna":"LaCisterna","zona":"ZU-4","zona_code":"ZU-4","nombre":"ZU-4","decreto":""},"geometry":{"type":"Polygon","coordinates":[[[-70.66625587991173,-33.539788035963646],[-70.67671579538246,-33.53671848495543],[-70.67687997597217,-33.53714351726451],[-70.67765111833825,-33.536903143233566],[-70.67809766434969,-33.53758887449086],[-70.66688475934271,-33.5409447376941],[-70.66673320009963,-33.54097158075491],[-70.66664333928703,-33.54080783968515],[-70.66625587991173,-33.539788035963646]]]}},{"type":"Feature","properties":{"comuna":"LaCisterna","zona":"ZU-4","zona_code":"ZU-4","nombre":"ZU-4","decreto":""},"geometry":{"type":"Polygon","coordinates":[[[-70.6705399796254,-33.537225492678566],[-70.68242470024927,-33.53357664601262],[-70.68300147977028,-33.534670559489506],[-70.67734315539494,-33.5364302180433],[-70.67721452321736,-33.53623268005291],[-70.6772926799876,-33.53644518472416],[-70.66622143863816,-33.53971584702108],[-70.66586614748398,-33.53850565065317],[-70.66919095874161,-33.53748464362706],[-70.6705399796254,-33.537225492678566]],[[-70.67614551815598,-33.536033124946165],[-70.67623404809218,-33.53627370658468],[-70.67655616171048,-33.53618301938484],[-70.67646227040748,-33.5359567167731],[-70.67614551815598,-33.536033124946165]]]}},{"type":"Feature","properties":{"comuna":"LaCisterna","zona":"ZU-5A","zona_code":"ZU-5A","nombre":"ZU-5A","decreto":""},"geometry":{"type":"Polygon","coordinates":[[[-70.67025969141217,-33.542476171110394],[-70.6688855894561,-33.540369320641084],[-70.67809766434969,-33.53758887449086],[-70.67954650317012,-33.53981366936382],[-70.67025969141217,-33.542476171110394]]]}}]}