{"type":"FeatureCollection","features":[{"type":"Feature","properties":{"zona_code":"ZPI-2","zona":"ZPI-2 Zona Productiva Industrial Molesta","comuna":"Bulnes"},"geometry":{"type":"Polygon","coordinates":[[[-72.28037763073878,-36.73671657655938],[-72.2803680050607,-36.736693637389514],[-72.2798810667432,-36.73548405096439],[-72.27906433890031,-36.73383297054801],[-72.27816904811374,-36.732005245695355],[-72.27690855037315,-36.72931977982551],[-72.27594432440829,-36.72712202007665],[-72.27492296293667,-36.72483284624465],[-72.27432469967042,-36.72364775382926],[-72.27456109949098,-36.72377475085176],[-72.27476180100714,-36.723897963649705],[-72.27490075385477,-36.723822614783316],[-72.27497118808827,-36.723668094282985],[-72.27500182710291,-36.72355281552165],[-72.27497618339746,-36.72336756381468],[-72.27488258245435,-36.72325570726299],[-72.27450687308234,-36.723056256706755],[-72.27431760194338,-36.722923194079264],[-72.27441472649744,-36.7218709104791],[-72.27452584773404,-36.7219044857482],[-72.27626050204876,-36.72298873432925],[-72.28213476859372,-36.72650056316693],[-72.28423787571913,-36.72775848745546],[-72.28526984894155,-36.72848333887249],[-72.28568882983924,-36.72886274608626],[-72.28643295094464,-36.729643222065825],[-72.28690740541249,-36.730211815881056],[-72.28726231421776,-36.7307551035984],[-72.28773999008736,-36.731676444564684],[-72.2879908516681,-36.731678809236584],[-72.28793927141392,-36.73301492366864],[-72.28690151615285,-36.73340599519438],[-72.28585526647755,-36.733875966717726],[-72.28391217755687,-36.73484751633535],[-72.2815200996825,-36.73605791604317],[-72.28037763073878,-36.73671657655938]]]}},{"type":"Feature","properties":{"zona_code":"ZPI-2","zona":"ZPI-2 Zona Productiva Industrial Molesta","comuna":"Bulnes"},"geometry":{"type":"Polygon","coordinates":[[[-72.27807291516346,-36.73788586586422],[-72.2760483562661,-36.73372230928932],[-72.27272068703971,-36.72650918329276],[-72.27129592277973,-36.723086727325835],[-72.27139029633348,-36.72168229823158],[-72.27327750489582,-36.721793374646104],[-72.27319366365332,-36.722859729982886],[-72.2729090806283,-36.72285325943166],[-72.27271445366561,-36.72287292173857],[-72.27250298864651,-36.72291450299826],[-72.27238269259811,-36.72301079253236],[-72.27230305234085,-36.723227550177334],[-72.27227544288588,-36.72341426752272],[-72.2722686167453,-36.723671934676005],[-72.27230100404665,-36.723806935150385],[-72.27238451457761,-36.723890463119425],[-72.27256382167727,-36.723928440879924],[-72.27283589346679,-36.723849430405856],[-72.27302839853785,-36.723779761735024],[-72.27322127114351,-36.72375013481259],[-72.27331642565497,-36.72379400449223],[-72.2741307483029,-36.72549883960738],[-72.2746723185911,-36.72669115463012],[-72.2756949785534,-36.72897552613097],[-72.2769799559182,-36.731854632309144],[-72.2780356901712,-36.73404270428662],[-72.27947160547745,-36.737111520144325],[-72.27948861044977,-36.73714550377083],[-72.27807291516346,-36.73788586586422]]]}},{"type":"Feature","properties":{"zona_code":"ZPU","zona":"ZPU Zona Parcelas Urbanas","comuna":"Bulnes"},"geometry":{"type":"Polygon","coordinates":[[[-72.34817044875768,-36.824831579160275],[-72.34822178605971,-36.82483848081366],[-72.3492346089356,-36.824943428457715],[-72.35013831476613,-36.82499422889938],[-72.35103744947985,-36.82494025474731],[-72.35284755871254,-36.82483195490316],[-72.35565966197174,-36.82458089062489],[-72.35595520730311,-36.827271207919246],[-72.35626748790372,-36.829970587389944],[-72.35645969002024,-36.832534505244816],[-72.3564576524111,-36.83250987437119],[-72.35622149845977,-36.83287414544308],[-72.35589919896962,-36.83313357058353],[-72.3556007930038,-36.833261202177326],[-72.35510620498249,-36.83331093464496],[-72.35458017353862,-36.833319835585854],[-72.35401737615352,-36.833335730577836],[-72.35374792573835,-36.833277781006196],[-72.35356291655441,-36.833116126724164],[-72.353437410397,-36.83295875173381],[-72.35315289099817,-36.832895265275305],[-72.35283472743988,-36.83291020849341],[-72.35250513392694,-36.83300295230911],[-72.35235586622267,-36.83315020503236],[-72.35221075731077,-36.83339269934543],[-72.35199561996649,-36.833559691453004],[-72.35160613567822,-36.833809080995415],[-72.35128472207764,-36.83391947151511],[-72.3508268923582,-36.83396219030602],[-72.35050417800409,-36.83404281474606],[-72.35038270562201,-36.83414756071869],[-72.35021991959724,-36.83432499116023],[-72.350168993306,-36.834517147237094],[-72.35004544268631,-36.83491399039786],[-72.34984523772185,-36.83525339458973],[-72.3497541654245,-36.835375162917224],[-72.3495056275803,-36.83562653114799],[-72.34927826619939,-36.8358534631727],[-72.34908871009972,-36.83609720652959],[-72.34894813277523,-36.836274010399144],[-72.34868568926022,-36.836376769568524],[-72.3483182684938,-36.836452689838175],[-72.34804725234343,-36.83635901129287],[-72.3474103734618,-36.836376964444526],[-72.3465812081549,-36.836406292527506],[-72.34601682619636,-36.836386436362936],[-72.34533720795073,-36.83627446372419],[-72.34489482970692,-36.83616176478019],[-72.34428236084143,-36.8363995322411],[-72.34353451150055,-36.83659342924129],[-72.34325465395348,-36.83663706782797],[-72.34298805109383,-36.83664457324893],[-72.34275614294125,-36.83659746132364],[-72.34240093261462,-36.83661341941706],[-72.34205053407959,-36.83656964127941],[-72.34169428509296,-36.83656178613278],[-72.34153447258868,-36.83663780178221],[-72.34147963380119,-36.836740664249994],[-72.34140335707801,-36.83686201076359],[-72.3411833712048,-36.83708871869427],[-72.3408721836017,-36.83726435285987],[-72.34031842087175,-36.83748852928947],[-72.33999405612145,-36.83760284634943],[-72.33962142800874,-36.83762762974819],[-72.33929880531772,-36.837574718105486],[-72.3388395877443,-36.83765438178036],[-72.33826270394862,-36.83775642280009],[-72.33772480757123,-36.837800150673324],[-72.33729189498445,-36.83780278081168],[-72.33711842476096,-36.83776951126651],[-72.33668377359896,-36.837595773058766],[-72.33621762426459,-36.83720915321529],[-72.33597331457423,-36.83691086548222],[-72.33564477251812,-36.83685810955201],[-72.33535032661945,-36.83677102054438],[-72.33478156869744,-36.836786992822674],[-72.33435044866577,-36.83669420195612],[-72.3339995799438,-36.83653717289535],[-72.3335756077166,-36.8360627400846],[-72.3330464474301,-36.8356246336884],[-72.33264633030947,-36.83542607048966],[-72.331550222787,-36.83490850450063],[-72.33127803284694,-36.83480801988891],[-72.33129283338333,-36.834575453071814],[-72.33130336753366,-36.834203253610475],[-72.33146266623686,-36.83172419606292],[-72.33157340277789,-36.8295611877175],[-72.33162946640937,-36.82862016444551],[-72.33478125682943,-36.83014856213226],[-72.33531922828624,-36.830266959308375],[-72.33958944015568,-36.83080494347979],[-72.34659931284752,-36.831599361399],[-72.34648685545741,-36.83098677820621],[-72.34920466682037,-36.8313446046722],[-72.3485951783454,-36.82757125164],[-72.34817044875768,-36.824831579160275]]]}},{"type":"Feature","properties":{"zona_code":"ZPU","zona":"ZPU Zona Parcelas Urbanas","comuna":"Bulnes"},"geometry":{"type":"Polygon","coordinates":[[[-72.32605868265615,-36.83492469291966],[-72.32475151611236,-36.834850698787804],[-72.31932341265217,-36.83471625708713],[-72.320053421753,-36.83080467753412],[-72.3209222690701,-36.83073389811681],[-72.32232699058068,-36.830505082772426],[-72.3251053560582,-36.83016548971487],[-72.3249878055419,-36.8310549943495],[-72.32674874061699,-36.83083403327563],[-72.32672257872933,-36.831256734666425],[-72.32666331970378,-36.8323526518667],[-72.32653971483649,-36.83278523378073],[-72.32615254690427,-36.834526861881336],[-72.32605868265615,-36.83492469291966]]]}},{"type":"Feature","properties":{"zona_code":"ZCU","zona":"ZCU Zona Crecimiento Urbano","comuna":"Bulnes"},"geometry":{"type":"Polygon","coordinates":[[[-72.21162540640778,-36.79111799690961],[-72.20644356769921,-36.79310849998351],[-72.20395853094753,-36.79408149013917],[-72.20182525121719,-36.79487766701664],[-72.20060735473434,-36.79535153713855],[-72.19897882012592,-36.795753008495595],[-72.1969881318893,-36.79623214891153],[-72.19595054803779,-36.79658787587496],[-72.19449890926333,-36.79714545524886],[-72.19295888638644,-36.79753850455377],[-72.19275826436676,-36.7975260148822],[-72.1926664609098,-36.79745695822445],[-72.19191705972041,-36.794938024989],[-72.19138417052065,-36.79317022324163],[-72.19238251113134,-36.79294075590782],[-72.1935570033349,-36.792491978341985],[-72.19577013062408,-36.79175896677736],[-72.19664999911215,-36.79153265131153],[-72.19793302774076,-36.79120011497514],[-72.19885014154623,-36.79097874060348],[-72.20004443808737,-36.789939301478505],[-72.20284950737353,-36.78742449841589],[-72.20538396445757,-36.78653960582707],[-72.20691256670358,-36.785968496692945],[-72.20868511167106,-36.78541514053288],[-72.20898609739503,-36.7874061300513],[-72.20700844886849,-36.78796018001301],[-72.20348367165158,-36.788931094657784],[-72.20332656474116,-36.78900208512478],[-72.20229819646725,-36.79007403777194],[-72.20159213817273,-36.79072437241071],[-72.20210420710583,-36.791773881080914],[-72.20224398306055,-36.791855941692575],[-72.20225092875866,-36.79202264112017],[-72.2019418589513,-36.79228845173124],[-72.20141923559686,-36.79274581758127],[-72.20229203546735,-36.79363063883476],[-72.20522174633047,-36.791591919814934],[-72.20603448643345,-36.79095092359177],[-72.20621849305634,-36.79163138648431],[-72.20786760134129,-36.7903054259149],[-72.20823891399743,-36.79103446954322],[-72.20885592541553,-36.7907257581576],[-72.20892238273133,-36.79018754317357],[-72.20905114828986,-36.79007678157624],[-72.21085447381157,-36.78978369612145],[-72.21105768252522,-36.79021330164162],[-72.21162540640778,-36.79111799690961]]]}},{"type":"Feature","properties":{"zona_code":"ZCU","zona":"ZCU Zona Crecimiento Urbano","comuna":"Bulnes"},"geometry":{"type":"Polygon","coordinates":[[[-72.30746015762986,-36.74739980554858],[-72.3076556194013,-36.74768764032508],[-72.30920603787573,-36.75012388431173],[-72.30948322285506,-36.75050714842807],[-72.30982815078862,-36.75081223733578],[-72.31075879248412,-36.75123451813537],[-72.31153988714811,-36.75165470842295],[-72.31143451997866,-36.75167739195435],[-72.31046111801803,-36.75191430165131],[-72.308240418103,-36.752357575262984],[-72.30623181764271,-36.75272726210129],[-72.29917885549058,-36.754067576148735],[-72.29918274672097,-36.754076499838234],[-72.29674176433466,-36.75053445847365],[-72.29674945567108,-36.750535385824335],[-72.2969879176209,-36.75050016381176],[-72.29726892737223,-36.75042084782366],[-72.29797726955556,-36.75035828343355],[-72.29855551148937,-36.750370847633384],[-72.2989831477261,-36.75039473975069],[-72.29924854454521,-36.75036591786675],[-72.29958312235875,-36.750292261306605],[-72.2999027014438,-36.75028338982287],[-72.30005177450319,-36.75023633852397],[-72.30035176140598,-36.750185096498114],[-72.30065021488929,-36.75009813609981],[-72.30132425693499,-36.749857701739835],[-72.30201206598764,-36.74952390383602],[-72.30253396371826,-36.74925908002648],[-72.30272220764047,-36.74908935102491],[-72.30311461168117,-36.74870653787091],[-72.30328111484327,-36.74844443348275],[-72.30348893649345,-36.74810966067009],[-72.30392967080911,-36.74740365617447],[-72.30442212613234,-36.74666045206157],[-72.30514096024027,-36.745794450430346],[-72.30525522594343,-36.74569591216559],[-72.30606138380708,-36.745371793594416],[-72.30634002094779,-36.745750257273286],[-72.30691602160682,-36.7465985042214],[-72.305721022632,-36.74706439068336],[-72.30626677302088,-36.747907465527675],[-72.30746015762986,-36.74739980554858]]]}},{"type":"Feature","properties":{"zona_code":"ZCU","zona":"ZCU Zona Crecimiento Urbano","comuna":"Bulnes"},"geometry":{"type":"Polygon","coordinates":[[[-72.2845313242001,-36.74528222943445],[-72.28452817255037,-36.745268650404356],[-72.28429036828621,-36.745110721029185],[-72.28413401895564,-36.74477888944973],[-72.28396330926239,-36.744318714510015],[-72.28388163174165,-36.744070645206065],[-72.28382327330087,-36.74353584642501],[-72.28344940646227,-36.74268791385376],[-72.28314766028488,-36.742190003371974],[-72.28871150032255,-36.73953380566365],[-72.28874685293495,-36.739516579687084],[-72.28908226416004,-36.74021946250238],[-72.2906613423249,-36.74251213165785],[-72.28948337894882,-36.743021543762225],[-72.28925633811417,-36.743254310497825],[-72.28867321904121,-36.743473089164425],[-72.2845313242001,-36.74528222943445]]]}},{"type":"Feature","properties":{"zona_code":"ZCU","zona":"ZCU Zona Crecimiento Urbano","comuna":"Bulnes"},"geometry":{"type":"Polygon","coordinates":[[[-72.30657489637939,-36.730112743318614],[-72.30999180219018,-36.72857293359639],[-72.31228971144128,-36.73219704311433],[-72.3123458682451,-36.73228731729986],[-72.31163569387805,-36.73259056844688],[-72.31151605072738,-36.73270118338321],[-72.31337033484797,-36.736146899177136],[-72.3144363956912,-36.73564774920355],[-72.31457501729153,-36.73587056381549],[-72.31510914456855,-36.73671869202072],[-72.31579575099217,-36.73780573479535],[-72.31589004409547,-36.737931841873],[-72.3160512492294,-36.738205215347],[-72.31560056693878,-36.73838286849903],[-72.31520094230987,-36.738560895737294],[-72.31477659608086,-36.73885285259932],[-72.31449047624773,-36.73908731382902],[-72.31416561138549,-36.739453976594824],[-72.3138884197293,-36.73972394778004],[-72.31340745287633,-36.74007707994568],[-72.31293435906522,-36.74026906806363],[-72.31235715326108,-36.74048541106473],[-72.31203031428524,-36.74073768982287],[-72.31160648685375,-36.741214384014945],[-72.31108774819675,-36.741550677821984],[-72.31075352848865,-36.74163150886819],[-72.31047164440366,-36.741689423681926],[-72.31001896304545,-36.74170202932441],[-72.30975360116007,-36.74173087402967],[-72.30937714919536,-36.74186294130634],[-72.30837451488514,-36.74269228243652],[-72.30815746918196,-36.742811565353165],[-72.30787052566247,-36.74285531058212],[-72.3076123638183,-36.742534688678646],[-72.3074942507995,-36.74237109316406],[-72.30726723119596,-36.74225820759865],[-72.30686422391919,-36.74218597697684],[-72.30635409886331,-36.74220612731298],[-72.30571645309897,-36.74236094319027],[-72.30502041067817,-36.742708102894845],[-72.30440630763226,-36.74302228005092],[-72.30382975727217,-36.74217734887623],[-72.30369906480226,-36.741990008194335],[-72.3037012675364,-36.74198904429203],[-72.30369088038447,-36.741973822790165],[-72.30635487721395,-36.74080548245317],[-72.30565771197114,-36.73974609249583],[-72.30730400859984,-36.73893740920834],[-72.3062290753623,-36.73735808315064],[-72.30615051155522,-36.737252986728585],[-72.30563375972466,-36.736945511064825],[-72.30441302043,-36.735252757612024],[-72.30273221100082,-36.73301078193251],[-72.29177718016643,-36.7380399817729],[-72.29161869909642,-36.738117208806706],[-72.29147381901019,-36.73783720478851],[-72.2910502895778,-36.73728391005649],[-72.29350193424935,-36.73613534676163],[-72.29608263710901,-36.73497669743353],[-72.30000342436061,-36.73315856814644],[-72.30657489637939,-36.730112743318614]],[[-72.31052314389443,-36.734835895288064],[-72.3091248557308,-36.732564246611474],[-72.30785333050248,-36.733130082347785],[-72.3078706784069,-36.73318919980685],[-72.30921013518275,-36.73541080105739],[-72.31052314389443,-36.734835895288064]]]}},{"type":"Feature","properties":{"zona_code":"ZCU","zona":"ZCU Zona Crecimiento Urbano","comuna":"Bulnes"},"geometry":{"type":"Polygon","coordinates":[[[-72.20988938676288,-36.785036723495196],[-72.21091446365865,-36.784701759388184],[-72.21117811230796,-36.786969058688626],[-72.21669678186502,-36.7850154374285],[-72.21778816729619,-36.78453489915788],[-72.2179277719335,-36.78503773729578],[-72.21800317315338,-36.78525997400467],[-72.21963376688129,-36.78838464084903],[-72.21535513187479,-36.789840845445916],[-72.213121467822,-36.790574601787995],[-72.21313348856911,-36.79037588797293],[-72.21221189472485,-36.78889286886867],[-72.21182332721015,-36.78828350872895],[-72.21201229457985,-36.788194957693335],[-72.21161079772115,-36.78727601443542],[-72.21017942461914,-36.787779590528224],[-72.21014704921419,-36.78682682847661],[-72.20988938676288,-36.785036723495196]]]}},{"type":"Feature","properties":{"zona_code":"ZCU","zona":"ZCU Zona Crecimiento Urbano","comuna":"Bulnes"},"geometry":{"type":"Polygon","coordinates":[[[-72.32566728285319,-36.81447370464481],[-72.32566048660325,-36.814460296961386],[-72.32360962606398,-36.8150302594459],[-72.32408554181616,-36.815750024982336],[-72.32335753184759,-36.816056476344194],[-72.32487604908141,-36.818427787959685],[-72.32526831026006,-36.81902949579896],[-72.3248425112284,-36.81981025721141],[-72.32482519682874,-36.81992398256203],[-72.32394185148085,-36.820067906275064],[-72.32383899383741,-36.82019685638844],[-72.32264890745961,-36.81971798692467],[-72.32223428592022,-36.819489991795514],[-72.3220860603434,-36.8192509684098],[-72.3207429897581,-36.817369696126114],[-72.31947417211059,-36.81535252835871],[-72.32496674216112,-36.81401167386234],[-72.3255935577105,-36.81385991697678],[-72.32566728285319,-36.81447370464481]]]}},{"type":"Feature","properties":{"zona_code":"ZCU","zona":"ZCU Zona Crecimiento Urbano","comuna":"Bulnes"},"geometry":{"type":"Polygon","coordinates":[[[-72.35626748790372,-36.829970587389944],[-72.35763247298307,-36.829853333387646],[-72.35897326030081,-36.829677943743306],[-72.35971395082127,-36.82966176030767],[-72.36058726181079,-36.82969426765055],[-72.36100268187876,-36.82983508708271],[-72.36126504044738,-36.83013757919559],[-72.36162865019874,-36.83058501115993],[-72.3617477982204,-36.83086771663301],[-72.36210199579162,-36.83269941110343],[-72.36243947991497,-36.83481755470399],[-72.36249747417136,-36.83512582959516],[-72.36218953434636,-36.83571266222398],[-72.3616069090982,-36.83612251294125],[-72.36073509714836,-36.836701462098695],[-72.3604763203448,-36.836887583415155],[-72.36026213055007,-36.83724528050365],[-72.35989042834018,-36.83823918772554],[-72.35971221826046,-36.83857202611912],[-72.35925571588457,-36.83898425640409],[-72.35885011510052,-36.83920432789796],[-72.35834991224874,-36.83929595404482],[-72.35791349274373,-36.83932021457302],[-72.35752068993577,-36.83935164475372],[-72.35702367106914,-36.83629632328521],[-72.35652059967597,-36.83327096808297],[-72.35645969002024,-36.832534505244816],[-72.35626748790372,-36.829970587389944]],[[-72.36080112026767,-36.832408041015974],[-72.36070639725052,-36.831911944718975],[-72.35910724481928,-36.8319910883351],[-72.35914368273922,-36.832484733105986],[-72.36080112026767,-36.832408041015974]]]}},{"type":"Feature","properties":{"zona_code":"ZCU","zona":"ZCU Zona Crecimiento Urbano","comuna":"Bulnes"},"geometry":{"type":"Polygon","coordinates":[[[-72.34648685545741,-36.83098677820621],[-72.34636594049012,-36.83032811987416],[-72.34326595475876,-36.82996723564991],[-72.34246037882397,-36.82699561731018],[-72.33980236227725,-36.826611074393654],[-72.33377674120123,-36.825798155598854],[-72.33414275159825,-36.82713309815874],[-72.33396793163452,-36.82704796294599],[-72.333348940562,-36.8269640165143],[-72.33316320799246,-36.82751278163054],[-72.33179175317319,-36.82679791860259],[-72.33144431834522,-36.82726539200806],[-72.33074020544565,-36.82689416414047],[-72.33067490553817,-36.827029498957984],[-72.33022295667976,-36.826814102907605],[-72.32922931390692,-36.826262647575575],[-72.32927550236842,-36.82609685720405],[-72.32933658605296,-36.82504379998296],[-72.32935418314833,-36.82339834541594],[-72.3292875493932,-36.82309267747058],[-72.32908308871438,-36.82289100011022],[-72.3288553813807,-36.82276864632554],[-72.32866233134943,-36.82273230418674],[-72.32877669891056,-36.82150113190677],[-72.32900908301299,-36.820500490244584],[-72.32908163087912,-36.819711735774504],[-72.32925730875745,-36.81801893747036],[-72.3294393880783,-36.81626874380345],[-72.32964583372153,-36.81487546639174],[-72.3297322296359,-36.814323625631005],[-72.33066570178671,-36.81443530279622],[-72.3305859345333,-36.8154674281895],[-72.3303290727224,-36.81745144483157],[-72.32996154995317,-36.82025818382989],[-72.32977029589443,-36.821386410857315],[-72.32963359921507,-36.821926643326194],[-72.32956137800784,-36.82210746839318],[-72.32951488213133,-36.82226611556834],[-72.32949256368066,-36.82236686830276],[-72.32948770619743,-36.8224599811357],[-72.32954380542242,-36.82252277621914],[-72.33041235089325,-36.82295329322867],[-72.33213941563676,-36.82380123879786],[-72.33359230122593,-36.824480436760375],[-72.33438420445349,-36.82487612355727],[-72.3348362372572,-36.82504223117196],[-72.33521878403606,-36.8251447298285],[-72.3353679102532,-36.82516438215811],[-72.33571489119359,-36.8251307981625],[-72.3359206665151,-36.825089258324795],[-72.33610309582822,-36.82485169440837],[-72.33622654714539,-36.82462174694831],[-72.33634595555372,-36.82446939336259],[-72.3366719136329,-36.82429335763563],[-72.33695421939612,-36.82413642664788],[-72.33716636190934,-36.82407086629098],[-72.33733174648432,-36.823952978959305],[-72.33751194066613,-36.823834676140464],[-72.33816906917033,-36.82411420820435],[-72.33890817072803,-36.82440335257182],[-72.3395653095687,-36.82468287638292],[-72.34006874403069,-36.82482725542992],[-72.34062243750732,-36.824876051917755],[-72.3410660869671,-36.82484926858924],[-72.34141870530226,-36.82477498070147],[-72.34179486804982,-36.82462851012153],[-72.34200220862026,-36.82448678816126],[-72.34217089642331,-36.82427463443938],[-72.34219959650255,-36.82411648324346],[-72.34722489727679,-36.824704467991495],[-72.34817044875768,-36.824831579160275],[-72.3485951783454,-36.82757125164],[-72.34920466682037,-36.8313446046722],[-72.34648685545741,-36.83098677820621]]]}},{"type":"Feature","properties":{"zona_code":"ZPI-1","zona":"ZPI-1 Zona Productiva Industrial Inofensiva","comuna":"Bulnes"},"geometry":{"type":"Polygon","coordinates":[[[-72.26907956763579,-36.75658820867019],[-72.2719355209927,-36.75557151291147],[-72.27256249691722,-36.75554471683664],[-72.2733351665464,-36.75559973046296],[-72.27403478692356,-36.75560907013985],[-72.27437644891945,-36.75556151388288],[-72.27542596197672,-36.756794972509304],[-72.2753539220791,-36.756882298726026],[-72.27526593053562,-36.7573210066448],[-72.27526891019525,-36.75759985841068],[-72.27540317964687,-36.758039593449915],[-72.27562009090103,-36.75854141866445],[-72.27597866124567,-36.75895038910109],[-72.27578660083552,-36.75899441584201],[-72.27548350910781,-36.759008729923245],[-72.27460475744093,-36.75898133825603],[-72.27376244503698,-36.75896162826049],[-72.2733901590988,-36.758986186582945],[-72.27304888640155,-36.75904326606038],[-72.27224361474559,-36.759337221292604],[-72.27064410485289,-36.759976069950916],[-72.2696801936118,-36.75797812689073],[-72.26909514458285,-36.75662100106766],[-72.26907956763579,-36.75658820867019]]]}},{"type":"Feature","properties":{"zona_code":"ZPI-1","zona":"ZPI-1 Zona Productiva Industrial Inofensiva","comuna":"Bulnes"},"geometry":{"type":"Polygon","coordinates":[[[-72.27807291516346,-36.73788586586422],[-72.27948861044977,-36.73714550377083],[-72.28031178742431,-36.73879055749125],[-72.28217011891421,-36.74263075944637],[-72.28217047286925,-36.74263154977013],[-72.28068860284593,-36.743349394928934],[-72.28004777253024,-36.74194670213253],[-72.27807291516346,-36.73788586586422]]]}},{"type":"Feature","properties":{"zona_code":"ZPI-1","zona":"ZPI-1 Zona Productiva Industrial Inofensiva","comuna":"Bulnes"},"geometry":{"type":"Polygon","coordinates":[[[-72.29863276958022,-36.759388751936406],[-72.29862117241562,-36.75931622178222],[-72.29845023902959,-36.759130242078285],[-72.29730270816523,-36.75827998693098],[-72.2972113777281,-36.758050077601816],[-72.2970251458243,-36.757679757031035],[-72.2969417273557,-36.75728870393225],[-72.29690601666597,-36.756800965850985],[-72.29687464506601,-36.75624158601342],[-72.29690347585874,-36.75605006294711],[-72.29729686018044,-36.75572326503842],[-72.29756880774693,-36.75550115775932],[-72.29776243537411,-36.75535274304999],[-72.29959232207443,-36.75501587301278],[-72.29917885549058,-36.754067576148735],[-72.30623181764271,-36.75272726210129],[-72.308240418103,-36.752357575262984],[-72.31046111801803,-36.75191430165131],[-72.31143451997866,-36.75167739195435],[-72.3115871634622,-36.75164453037564],[-72.31324235528534,-36.75238036715004],[-72.31432491495116,-36.7521245471469],[-72.31471691326715,-36.75362931993373],[-72.30725126519042,-36.7551702085766],[-72.30298924707489,-36.75596221347726],[-72.30366971386407,-36.75714724066245],[-72.3048423944568,-36.759099348767016],[-72.30669109673653,-36.76212929396407],[-72.30471852545413,-36.763113933358106],[-72.30420597536991,-36.763253344874464],[-72.302780374656,-36.76081754707018],[-72.30157505816304,-36.75882937185915],[-72.29997896053578,-36.759127001664154],[-72.29863276958022,-36.759388751936406]]]}},{"type":"Feature","properties":{"zona_code":"ZPI-1","zona":"ZPI-1 Zona Productiva Industrial Inofensiva","comuna":"Bulnes"},"geometry":{"type":"Polygon","coordinates":[[[-72.29229861985131,-36.741232065161206],[-72.29141645884074,-36.74000766294443],[-72.29159360031355,-36.73971667182965],[-72.29240617116851,-36.739045708563495],[-72.29374775467703,-36.74064520430923],[-72.29229861985131,-36.741232065161206]]]}},{"type":"Feature","properties":{"zona_code":"ZPI-1","zona":"ZPI-1 Zona Productiva Industrial Inofensiva","comuna":"Bulnes"},"geometry":{"type":"Polygon","coordinates":[[[-72.28037763073878,-36.73671657655938],[-72.2815200996825,-36.73605791604317],[-72.28391217755687,-36.73484751633535],[-72.28585526647755,-36.733875966717726],[-72.28690151615285,-36.73340599519438],[-72.28793927141392,-36.73301492366864],[-72.2879908516681,-36.731678809236584],[-72.29031192968573,-36.731700654966396],[-72.2920036856428,-36.73413848035491],[-72.29350193424935,-36.73613534676163],[-72.2910502895778,-36.73728391005649],[-72.29147381901019,-36.73783720478851],[-72.29161869909642,-36.738117208806706],[-72.28871150032255,-36.73953380566365],[-72.28314766028488,-36.742190003371974],[-72.2831339421323,-36.74216736563862],[-72.2828955848578,-36.74178773234481],[-72.28262476981291,-36.74148051475874],[-72.28260858477672,-36.74130931051421],[-72.28234578126742,-36.74077300141027],[-72.282094643858,-36.74009332824571],[-72.28157575395787,-36.73917787009773],[-72.28105844915748,-36.73809071403711],[-72.28048668586203,-36.73697644990888],[-72.28037763073878,-36.73671657655938]]]}},{"type":"Feature","properties":{"zona_code":"ZPI-1","zona":"ZPI-1 Zona Productiva Industrial Inofensiva","comuna":"Bulnes"},"geometry":{"type":"Polygon","coordinates":[[[-72.32813548660393,-36.821051539868655],[-72.32811875890343,-36.82115883993965],[-72.32760927072187,-36.82281330834266],[-72.32711891883768,-36.82436234314441],[-72.32694420588071,-36.826523328904614],[-72.32681234512502,-36.829023072835916],[-72.3267685353903,-36.82903860419105],[-72.32577051369216,-36.829002186970925],[-72.32550609885739,-36.82905965485603],[-72.32529809549119,-36.82918706276094],[-72.32525004068944,-36.829309992864125],[-72.32510914794103,-36.8301650262577],[-72.32232699058068,-36.830505082772426],[-72.3223442996068,-36.83049387094654],[-72.32234199164438,-36.82846061700454],[-72.32242279596268,-36.827449922354496],[-72.32254994250863,-36.82545452927671],[-72.32262491038314,-36.82441181294741],[-72.32280550021261,-36.82333610449126],[-72.32329879514143,-36.8217846190906],[-72.32368716391989,-36.82068664605293],[-72.32386206942112,-36.820206141972534],[-72.32383899383741,-36.82019685638844],[-72.32394185148085,-36.820067906275064],[-72.32482519682874,-36.81992398256203],[-72.32482578527414,-36.819920121588424],[-72.32813548660393,-36.821051539868655]]]}},{"type":"Feature","properties":{"zona_code":"ZPI-1","zona":"ZPI-1 Zona Productiva Industrial Inofensiva","comuna":"Bulnes"},"geometry":{"type":"Polygon","coordinates":[[[-72.32800299980795,-36.829142400050486],[-72.3279576455039,-36.828725169578505],[-72.32804032396143,-36.82816976574719],[-72.32833876494043,-36.8268454336424],[-72.32843299228998,-36.826488053619784],[-72.3316608990931,-36.82809257373814],[-72.33157340277789,-36.8295611877175],[-72.33146266623686,-36.83172419606292],[-72.33130336753366,-36.834203253610475],[-72.33129283338333,-36.834575453071814],[-72.33127803284694,-36.83480801988891],[-72.33098507234435,-36.834699863940486],[-72.3308581795613,-36.834646207725655],[-72.33076111468245,-36.83459648202163],[-72.33043892214708,-36.834553069215],[-72.33021496458116,-36.834449686285225],[-72.32997075500093,-36.83428965407132],[-72.32983256527243,-36.83411234466703],[-72.32959593644465,-36.833990242867536],[-72.3292851825208,-36.833936970915076],[-72.32898324449025,-36.83395020324398],[-72.328766934868,-36.83402301820543],[-72.32858437897622,-36.83419024612663],[-72.32833148744764,-36.8342402459795],[-72.32806978097511,-36.834223740168454],[-72.32786752512969,-36.834210336326954],[-72.32771693661613,-36.834157339738375],[-72.32752487685731,-36.834105505391456],[-72.32742436787906,-36.834113089124],[-72.32738620248902,-36.83419044669758],[-72.32723110449531,-36.83499104811659],[-72.32673933125812,-36.83496321640511],[-72.32679458648043,-36.834764919992026],[-72.32710872212935,-36.8321599437988],[-72.3271828943878,-36.83157805830033],[-72.32866508479495,-36.83168018041141],[-72.32881048571232,-36.82922058487891],[-72.32800299980795,-36.829142400050486]]]}},{"type":"Feature","properties":{"zona_code":"ZES","zona":"ZES Zona Equipamiento de Salud de Cementerio","comuna":"Bulnes"},"geometry":{"type":"Polygon","coordinates":[[[-72.27246689138032,-36.75554880320356],[-72.2719355209927,-36.75557151291147],[-72.26907956763579,-36.75658820867019],[-72.26829472549876,-36.75493602392669],[-72.26957370209678,-36.75441390584849],[-72.27155408368601,-36.75378127998271],[-72.27160198638856,-36.753777871446516],[-72.27250988334431,-36.75542219382513],[-72.27246689138032,-36.75554880320356]]]}},{"type":"Feature","properties":{"zona_code":"ZES","zona":"ZES Zona Equipamiento de Salud de Cementerio","comuna":"Bulnes"},"geometry":{"type":"Polygon","coordinates":[[[-72.32584037590911,-36.81481512436787],[-72.32704035004213,-36.81464015128098],[-72.32739723246154,-36.815713778799974],[-72.32641426172889,-36.815947074832735],[-72.32584037590911,-36.81481512436787]]]}},{"type":"Feature","properties":{"zona_code":"ZE","zona":"ZE Zona Equipamiento y Servicios","comuna":"Bulnes"},"geometry":{"type":"Polygon","coordinates":[[[-72.28068860284593,-36.743349394928934],[-72.28217047286925,-36.74263154977013],[-72.28283798625885,-36.74412142525419],[-72.28373429729736,-36.7460117790019],[-72.284116510353,-36.74681179838947],[-72.28430595343933,-36.74725953460005],[-72.284570644612,-36.74773499187016],[-72.28466728915336,-36.74791708469434],[-72.28464376352822,-36.7482336217454],[-72.2846092841305,-36.74846701976831],[-72.28461538083656,-36.74860989507287],[-72.28462477909561,-36.74883015986674],[-72.28474971462423,-36.74915451546154],[-72.28501187487377,-36.749570438988016],[-72.28532887186205,-36.750056368480195],[-72.28562932585741,-36.7503281894053],[-72.28622236257296,-36.750687284589596],[-72.28656456531509,-36.75091908877436],[-72.28694970917134,-36.75126604732976],[-72.28721167651663,-36.75146254152781],[-72.28698300953354,-36.75155905990733],[-72.28643007289786,-36.75213936790652],[-72.28592307224676,-36.75254675392807],[-72.28560192127088,-36.75272728263238],[-72.28488645993116,-36.75304029513785],[-72.2835654411359,-36.75353453313606],[-72.28236133954829,-36.75406129022336],[-72.28108376171096,-36.75453284466591],[-72.27946951152171,-36.755009384566264],[-72.27889883999858,-36.75517532379795],[-72.27801987034515,-36.75540698017518],[-72.277361323241,-36.75559679220124],[-72.27632156916559,-36.756018826775275],[-72.27582829178371,-36.756332812844164],[-72.27543844660815,-36.7567798392603],[-72.27542596197672,-36.756794972509304],[-72.27437644891945,-36.75556151388288],[-72.27403478692356,-36.75560907013985],[-72.2733351665464,-36.75559973046296],[-72.27256249691722,-36.75554471683664],[-72.27246689138032,-36.75554880320356],[-72.27250988334431,-36.75542219382513],[-72.27160198638856,-36.753777871446516],[-72.272100536915,-36.75374239721051],[-72.27391587694169,-36.75375797250745],[-72.27589588445537,-36.75254357507003],[-72.28131320895655,-36.74934792603927],[-72.28296194211343,-36.748324939524146],[-72.28068860284593,-36.743349394928934]]]}},{"type":"Feature","properties":{"zona_code":"ZE","zona":"ZE Zona Equipamiento y Servicios","comuna":"Bulnes"},"geometry":{"type":"Polygon","coordinates":[[[-72.30982244098875,-36.75080718852749],[-72.30948322285506,-36.75050714842807],[-72.30920603787573,-36.75012388431173],[-72.3076556194013,-36.74768764032508],[-72.30634002094779,-36.745750257273286],[-72.30606138380708,-36.745371793594416],[-72.30607061895459,-36.745368079902136],[-72.30533795710778,-36.7443108695451],[-72.3055016060699,-36.74425863777812],[-72.30582808482083,-36.74413512533358],[-72.30611660268114,-36.74395545101549],[-72.30633574498191,-36.74381584971281],[-72.30646265911628,-36.74373602975787],[-72.30667282800862,-36.74366343038537],[-72.3069968775475,-36.74375931360975],[-72.3073013479938,-36.74395110226348],[-72.30749357600473,-36.744012506873986],[-72.30773109771,-36.74402497067919],[-72.30805023822755,-36.7440065528939],[-72.30835385929538,-36.74390274243081],[-72.30861054854782,-36.74380977291458],[-72.30894967561836,-36.74370497109472],[-72.30922512053152,-36.74349704528855],[-72.30935121192849,-36.74339817298111],[-72.30946096423774,-36.74319485880675],[-72.30991798787228,-36.742800688511906],[-72.310116315991,-36.742728412568205],[-72.31043749777974,-36.74275761314398],[-72.31064155872488,-36.74281868368573],[-72.3108672423883,-36.742831470032286],[-72.3113259382689,-36.74275194004293],[-72.31173565447588,-36.74263562893701],[-72.31205139840803,-36.7425108884835],[-72.31233603272862,-36.74241355604144],[-72.3125620042022,-36.74232977959101],[-72.31277068176976,-36.74225549264608],[-72.31331303191283,-36.74369736509457],[-72.3137443026097,-36.744770079030324],[-72.30899195875267,-36.745856079203605],[-72.30962009731095,-36.746857766838986],[-72.31117647438604,-36.74929381907922],[-72.31132989406012,-36.749413395614724],[-72.31388120028345,-36.750596294764335],[-72.31419160076618,-36.751612775067386],[-72.31432491495116,-36.7521245471469],[-72.31324235528534,-36.75238036715004],[-72.31306598438103,-36.7523019610146],[-72.31178348288476,-36.75026189543931],[-72.30982244098875,-36.75080718852749]]]}},{"type":"Feature","properties":{"zona_code":"ZE","zona":"ZE Zona Equipamiento y Servicios","comuna":"Bulnes"},"geometry":{"type":"Polygon","coordinates":[[[-72.2845313242001,-36.74528222943445],[-72.28412058765517,-36.74544801213327],[-72.28398156251022,-36.74548761460995],[-72.28242886668684,-36.742073619131936],[-72.28218513270835,-36.74156777679187],[-72.28261811423995,-36.74141010757206],[-72.28262476981291,-36.74148051475874],[-72.2828955848578,-36.74178773234481],[-72.2831339421323,-36.74216736563862],[-72.28344940646227,-36.74268791385376],[-72.28382327330087,-36.74353584642501],[-72.28388163174165,-36.744070645206065],[-72.28396330926239,-36.744318714510015],[-72.28413401895564,-36.74477888944973],[-72.28429036828621,-36.745110721029185],[-72.28452817255037,-36.745268650404356],[-72.2845313242001,-36.74528222943445]]]}},{"type":"Feature","properties":{"zona_code":"ZE","zona":"ZE Zona Equipamiento y Servicios","comuna":"Bulnes"},"geometry":{"type":"Polygon","coordinates":[[[-72.2179277719335,-36.78503773729578],[-72.2216735541661,-36.78353559178],[-72.2221817150671,-36.78337280839994],[-72.2229567187198,-36.78305960182334],[-72.22473117420282,-36.786358713483196],[-72.2198452818263,-36.788312647286986],[-72.21963376688129,-36.78838464084903],[-72.21800317315338,-36.78525997400467],[-72.2179277719335,-36.78503773729578]]]}},{"type":"Feature","properties":{"zona_code":"ZE","zona":"ZE Zona Equipamiento y Servicios","comuna":"Bulnes"},"geometry":{"type":"Polygon","coordinates":[[[-72.32584037590911,-36.81481512436787],[-72.32566728285319,-36.81447370464481],[-72.3255935577105,-36.81385991697678],[-72.32578882227929,-36.81381264057286],[-72.32909523964383,-36.814241456818245],[-72.32890943141176,-36.815332429728755],[-72.32890631354007,-36.815355597800846],[-72.32739723246154,-36.815713778799974],[-72.32704035004213,-36.81464015128098],[-72.32584037590911,-36.81481512436787]]]}},{"type":"Feature","properties":{"zona_code":"ZE","zona":"ZE Zona Equipamiento y Servicios","comuna":"Bulnes"},"geometry":{"type":"Polygon","coordinates":[[[-72.32734436898389,-36.83007793806719],[-72.32679521351011,-36.83005888533638],[-72.32678242585162,-36.82955860269306],[-72.32681234512502,-36.829023072835916],[-72.32694420588071,-36.826523328904614],[-72.32711891883768,-36.82436234314441],[-72.32760927072187,-36.82281330834266],[-72.32765633402346,-36.82266048114056],[-72.3284154627961,-36.822812920475656],[-72.32824545542196,-36.824226629985084],[-72.32809435827546,-36.82546100888666],[-72.32787329191684,-36.82713362027867],[-72.32757772454566,-36.82872964627174],[-72.32796962986832,-36.82883542583931],[-72.32800299980795,-36.829142400050486],[-72.32800530435308,-36.82916360643112],[-72.32806851536586,-36.829378458778926],[-72.32811509090216,-36.82959767365863],[-72.32811259062073,-36.82971098363564],[-72.32802992481777,-36.82985634045973],[-72.32791789637373,-36.830008479804],[-72.32773612480871,-36.83009105200935],[-72.32734436898389,-36.83007793806719]]]}},{"type":"Feature","properties":{"zona_code":"ZE","zona":"ZE Zona Equipamiento y Servicios","comuna":"Bulnes"},"geometry":{"type":"Polygon","coordinates":[[[-72.33353568611517,-36.82901154178167],[-72.33284679711795,-36.828694586914075],[-72.33305093201878,-36.82793213932998],[-72.33390650348252,-36.828194006060684],[-72.33387568487854,-36.82833791081771],[-72.33453054677662,-36.828547433081575],[-72.33462797073705,-36.828902741789825],[-72.3337807353398,-36.828882935416516],[-72.33353568611517,-36.82901154178167]]]}},{"type":"Feature","properties":{"zona_code":"ZHMP","zona":"ZHMP Zona Habitacional Mixta productiva","comuna":"Bulnes"},"geometry":{"type":"Polygon","coordinates":[[[-72.28577854930118,-36.75426255698857],[-72.28581541044855,-36.7542020255166],[-72.28595582750587,-36.754159999034094],[-72.2862234010291,-36.75404293508595],[-72.28666688040533,-36.75402113755071],[-72.28682914038316,-36.75393559248704],[-72.28694262978811,-36.753818019933156],[-72.28711896221076,-36.75378453473982],[-72.28740203094388,-36.75375286612387],[-72.28755021606125,-36.75361526155787],[-72.28788272124187,-36.75321507963953],[-72.2878972211227,-36.75313838914154],[-72.28783703821868,-36.75297793810044],[-72.2877846053269,-36.7528601865259],[-72.28788605081161,-36.75273817747564],[-72.28839403143994,-36.752562009575314],[-72.28860446487816,-36.752457647816435],[-72.29029984830902,-36.75358368082602],[-72.29287859503947,-36.75553870671351],[-72.29520847346907,-36.75728908808974],[-72.29505131715426,-36.75742456872914],[-72.2949610006037,-36.75756415442848],[-72.29487144825995,-36.7577216001453],[-72.29482679747483,-36.75788972005397],[-72.29484158788567,-36.758062153658464],[-72.29496479958091,-36.75834482305139],[-72.29507960011524,-36.75843104200808],[-72.29519363622703,-36.75849940256256],[-72.2954324262879,-36.75854046135299],[-72.2957870423992,-36.75851870945469],[-72.29606027666485,-36.75849921250865],[-72.2963345303863,-36.758503525992346],[-72.29657867899434,-36.75849675457874],[-72.29684629853604,-36.7585191327467],[-72.29713254124272,-36.75863039384627],[-72.29839376383552,-36.75952441043448],[-72.29786464683656,-36.76000102775011],[-72.2960432318563,-36.761610715982805],[-72.29243509755034,-36.75897562974551],[-72.2870272053586,-36.755138884308565],[-72.28577854930118,-36.75426255698857]]]}},{"type":"Feature","properties":{"zona_code":"ZET","zona":"ZET Zona de Equipamiento de Esparcimiento y Turismo","comuna":"Bulnes"},"geometry":{"type":"Polygon","coordinates":[[[-72.31449047624773,-36.73908731382902],[-72.31477659608086,-36.73885285259932],[-72.31520094230987,-36.738560895737294],[-72.31560056693878,-36.73838286849903],[-72.3160512492294,-36.738205215347],[-72.31626071532982,-36.73856042335961],[-72.31669036024462,-36.73918259039596],[-72.31628166604598,-36.73918445656102],[-72.3159207781562,-36.739471070718054],[-72.3155264055211,-36.73966802549585],[-72.31520529455122,-36.73991538414615],[-72.31517881139169,-36.740125917306315],[-72.31512230518103,-36.74018947833892],[-72.31493995213093,-36.74049495185015],[-72.31456837393372,-36.740688287744156],[-72.31412384180288,-36.7408556433154],[-72.3139093719249,-36.74103446529272],[-72.31367578664747,-36.741285340243685],[-72.31323685305637,-36.74141081580296],[-72.31320371180023,-36.74150114122906],[-72.3131877003677,-36.741817472226984],[-72.3130502679555,-36.74206566527032],[-72.31276947762312,-36.7422522941202],[-72.31277068176976,-36.74225549264608],[-72.3125620042022,-36.74232977959101],[-72.31233603272862,-36.74241355604144],[-72.31205139840803,-36.7425108884835],[-72.31173565447588,-36.74263562893701],[-72.3113259382689,-36.74275194004293],[-72.3108672423883,-36.742831470032286],[-72.31064155872488,-36.74281868368573],[-72.31043749777974,-36.74275761314398],[-72.310116315991,-36.742728412568205],[-72.30991798787228,-36.742800688511906],[-72.30946096423774,-36.74319485880675],[-72.30935121192849,-36.74339817298111],[-72.30922512053152,-36.74349704528855],[-72.30894967561836,-36.74370497109472],[-72.30861054854782,-36.74380977291458],[-72.30835385929538,-36.74390274243081],[-72.30805023822755,-36.7440065528939],[-72.30773109771,-36.74402497067919],[-72.30749357600473,-36.744012506873986],[-72.3073013479938,-36.74395110226348],[-72.3069968775475,-36.74375931360975],[-72.30667282800862,-36.74366343038537],[-72.30646265911628,-36.74373602975787],[-72.30633574498191,-36.74381584971281],[-72.30611660268114,-36.74395545101549],[-72.30582808482083,-36.74413512533358],[-72.3055016060699,-36.74425863777812],[-72.30533795710778,-36.7443108695451],[-72.30607061895459,-36.745368079902136],[-72.30525522594343,-36.74569591216559],[-72.30514096024027,-36.745794450430346],[-72.30442212613234,-36.74666045206157],[-72.30392967080911,-36.74740365617447],[-72.30348893649345,-36.74810966067009],[-72.30328111484327,-36.74844443348275],[-72.30311461168117,-36.74870653787091],[-72.30272220764047,-36.74908935102491],[-72.30253396371826,-36.74925908002648],[-72.30201206598764,-36.74952390383602],[-72.30132425693499,-36.749857701739835],[-72.30065021488929,-36.75009813609981],[-72.30035176140598,-36.750185096498114],[-72.30005177450319,-36.75023633852397],[-72.2999027014438,-36.75028338982287],[-72.29958312235875,-36.750292261306605],[-72.29924854454521,-36.75036591786675],[-72.2989831477261,-36.75039473975069],[-72.29855551148937,-36.750370847633384],[-72.29797726955556,-36.75035828343355],[-72.29726892737223,-36.75042084782366],[-72.2969879176209,-36.75050016381176],[-72.29674945567108,-36.750535385824335],[-72.29650824042858,-36.75050631488638],[-72.29634079705842,-36.75053956667612],[-72.29617768015031,-36.75060001008636],[-72.29573837561225,-36.74997500240064],[-72.29559634027335,-36.7499789402059],[-72.29498043655158,-36.75026302846053],[-72.29498524737329,-36.75027731637432],[-72.28972479803488,-36.75262079688601],[-72.28964824722993,-36.752751993120306],[-72.2888294350399,-36.75216497786719],[-72.28857294989757,-36.7524732767958],[-72.28839403143994,-36.752562009575314],[-72.28788605081161,-36.75273817747564],[-72.2877846053269,-36.7528601865259],[-72.28783703821868,-36.75297793810044],[-72.2878972211227,-36.75313838914154],[-72.28788272124187,-36.75321507963953],[-72.28755021606125,-36.75361526155787],[-72.28740203094388,-36.75375286612387],[-72.28711896221076,-36.75378453473982],[-72.28694262978811,-36.753818019933156],[-72.28682914038316,-36.75393559248704],[-72.28666688040533,-36.75402113755071],[-72.2862234010291,-36.75404293508595],[-72.28595582750587,-36.754159999034094],[-72.28581541044855,-36.7542020255166],[-72.28577854930118,-36.75426255698857],[-72.28576730768043,-36.75425466818872],[-72.2854086564693,-36.75438974563599],[-72.28419993067733,-36.75482200071726],[-72.2836652211898,-36.755101403528656],[-72.2834380520546,-36.755193505202065],[-72.28280415664715,-36.75543988295343],[-72.28247288971272,-36.755592075191295],[-72.28192256489267,-36.755818260032164],[-72.28125068732058,-36.75611216840565],[-72.28088988663984,-36.756197226166044],[-72.28070910483476,-36.75623082457889],[-72.2804041418069,-36.75633996695652],[-72.27982476391685,-36.756388737855616],[-72.27947727400844,-36.75649070740669],[-72.2791367990141,-36.75658354248483],[-72.27882057048495,-36.75663696825399],[-72.27845202165558,-36.75676633648018],[-72.27811694627518,-36.756838160198605],[-72.27745207802982,-36.75696675781083],[-72.27734475411856,-36.75714256080827],[-72.27718599729155,-36.75741514418769],[-72.27708072423741,-36.75755214994593],[-72.27709549745609,-36.757638164270354],[-72.27715861609599,-36.75772880578177],[-72.27715844172518,-36.75789867493865],[-72.27750183009098,-36.75839581788027],[-72.27630377130168,-36.75887585968527],[-72.27597866124567,-36.75895038910109],[-72.27562009090103,-36.75854141866445],[-72.27540317964687,-36.758039593449915],[-72.27526891019525,-36.75759985841068],[-72.27526593053562,-36.7573210066448],[-72.2753539220791,-36.756882298726026],[-72.27543844660815,-36.7567798392603],[-72.27582829178371,-36.756332812844164],[-72.27632156916559,-36.756018826775275],[-72.277361323241,-36.75559679220124],[-72.27801987034515,-36.75540698017518],[-72.27889883999858,-36.75517532379795],[-72.27946951152171,-36.755009384566264],[-72.28108376171096,-36.75453284466591],[-72.28236133954829,-36.75406129022336],[-72.2835654411359,-36.75353453313606],[-72.28488645993116,-36.75304029513785],[-72.28560192127088,-36.75272728263238],[-72.28592307224676,-36.75254675392807],[-72.28643007289786,-36.75213936790652],[-72.28698300953354,-36.75155905990733],[-72.28721068973998,-36.75146295879652],[-72.28721806282373,-36.7514625556535],[-72.28758667675736,-36.751299143583644],[-72.28748720856753,-36.75123034318295],[-72.28749274346866,-36.751215963865484],[-72.28691302818149,-36.75075280192505],[-72.28662379877895,-36.750431800924076],[-72.28659048839485,-36.75006796156364],[-72.28646017126232,-36.749513697344405],[-72.28635889494855,-36.74922325898478],[-72.286300519925,-36.74915991399603],[-72.28693752874139,-36.7493254048296],[-72.2879479309273,-36.74939878295375],[-72.28854203258763,-36.74943598876747],[-72.28902516942834,-36.74947626272739],[-72.28956545119368,-36.74946727141585],[-72.28998330086439,-36.74936630541222],[-72.290336097019,-36.74930289968281],[-72.29066926107937,-36.749126793044866],[-72.29152895726781,-36.74862022102962],[-72.29224883944202,-36.7483082401071],[-72.29235903824005,-36.7482873066876],[-72.2933792838629,-36.74786388875177],[-72.2937971182682,-36.74776290960133],[-72.29418434214963,-36.747638936900714],[-72.29447896549655,-36.74760097117014],[-72.29522253185718,-36.747669762999315],[-72.29597604396145,-36.74779787484279],[-72.2962663278151,-36.74783154552748],[-72.29669461505772,-36.747801788026806],[-72.29783315891211,-36.747826827759546],[-72.29866932267107,-36.747809586159846],[-72.29940549223316,-36.74770571323895],[-72.29957486760395,-36.7476831313421],[-72.30070155420177,-36.74718696382697],[-72.30128950627332,-36.74690839097554],[-72.3017106295282,-36.74653908960186],[-72.30247437624922,-36.74572494125144],[-72.30260761765769,-36.745516211602116],[-72.3026645337122,-36.74518563288843],[-72.30280367595115,-36.744700189541035],[-72.3032905118469,-36.74389516101685],[-72.30372267689654,-36.74335806618568],[-72.30440444910184,-36.74302323104058],[-72.30502041067817,-36.742708102894845],[-72.30571645309897,-36.74236094319027],[-72.30635409886331,-36.74220612731298],[-72.30686422391919,-36.74218597697684],[-72.30726723119596,-36.74225820759865],[-72.3074942507995,-36.74237109316406],[-72.3076123638183,-36.742534688678646],[-72.30787052566247,-36.74285531058212],[-72.30815746918196,-36.742811565353165],[-72.30837451488514,-36.74269228243652],[-72.30937714919536,-36.74186294130634],[-72.30975360116007,-36.74173087402967],[-72.31001896304545,-36.74170202932441],[-72.31047164440366,-36.741689423681926],[-72.31075352848865,-36.74163150886819],[-72.31108774819675,-36.741550677821984],[-72.31160648685375,-36.741214384014945],[-72.31203031428524,-36.74073768982287],[-72.31235715326108,-36.74048541106473],[-72.31293435906522,-36.74026906806363],[-72.31340745287633,-36.74007707994568],[-72.3138884197293,-36.73972394778004],[-72.31416561138549,-36.739453976594824],[-72.31449047624773,-36.73908731382902]]]}},{"type":"Feature","properties":{"zona_code":"ZET","zona":"ZET Zona de Equipamiento de Esparcimiento y Turismo","comuna":"Bulnes"},"geometry":{"type":"Polygon","coordinates":[[[-72.29229861985131,-36.741232065161206],[-72.29374775467703,-36.74064520430923],[-72.29420407128448,-36.741189225409244],[-72.29486392768084,-36.741933833450304],[-72.29342610776527,-36.74268790943551],[-72.29296582075227,-36.74215807892974],[-72.29229861985131,-36.741232065161206]]]}},{"type":"Feature","properties":{"zona_code":"ZET","zona":"ZET Zona de Equipamiento de Esparcimiento y Turismo","comuna":"Bulnes"},"geometry":{"type":"Polygon","coordinates":[[[-72.3144363956912,-36.73564774920355],[-72.31337033484797,-36.736146899177136],[-72.31151605072738,-36.73270118338321],[-72.31163569387805,-36.73259056844688],[-72.3123458682451,-36.73228731729986],[-72.3144363956912,-36.73564774920355]]]}},{"type":"Feature","properties":{"zona_code":"ZET","zona":"ZET Zona de Equipamiento de Esparcimiento y Turismo","comuna":"Bulnes"},"geometry":{"type":"Polygon","coordinates":[[[-72.28721068973998,-36.75146295879652],[-72.28721567921569,-36.751460852092556],[-72.28721806282373,-36.7514625556535],[-72.28721068973998,-36.75146295879652]]]}},{"type":"Feature","properties":{"zona_code":"ZED","zona":"ZED Zona Equipamiento Deportivo","comuna":"Bulnes"},"geometry":{"type":"Polygon","coordinates":[[[-72.29482141974455,-36.75212313422102],[-72.29507587091119,-36.75193874945963],[-72.29508077677842,-36.751776498502565],[-72.29516855817583,-36.751058852024066],[-72.29518407648186,-36.750867697853],[-72.29498043655158,-36.75026302846053],[-72.29559634027335,-36.7499789402059],[-72.29573837561225,-36.74997500240064],[-72.29730317597557,-36.75220121428199],[-72.29731546985658,-36.752349876134275],[-72.29708671703779,-36.75241474967398],[-72.29569844133624,-36.75320422415454],[-72.29555640111418,-36.75320816259241],[-72.29530171256295,-36.75307218050159],[-72.29515233151697,-36.75290467164013],[-72.294956729703,-36.752695529488115],[-72.29486030828616,-36.75251939935953],[-72.29482847759239,-36.752398695771504],[-72.29482141974455,-36.75212313422102]]]}},{"type":"Feature","properties":{"zona_code":"ZED","zona":"ZED Zona Equipamiento Deportivo","comuna":"Bulnes"},"geometry":{"type":"Polygon","coordinates":[[[-72.3078706784069,-36.73318919980685],[-72.30785333050248,-36.733130082347785],[-72.3091248557308,-36.732564246611474],[-72.31052314389443,-36.734835895288064],[-72.30921013518275,-36.73541080105739],[-72.3078706784069,-36.73318919980685]]]}},{"type":"Feature","properties":{"zona_code":"ZED","zona":"ZED Zona Equipamiento Deportivo","comuna":"Bulnes"},"geometry":{"type":"Polygon","coordinates":[[[-72.20887004301021,-36.786638457089346],[-72.20868511167106,-36.78541514053288],[-72.20972143141022,-36.78509160476314],[-72.20988938676288,-36.785036723495196],[-72.21008069053839,-36.78636580716953],[-72.20887004301021,-36.786638457089346]]]}},{"type":"Feature","properties":{"zona_code":"ZED","zona":"ZED Zona Equipamiento Deportivo","comuna":"Bulnes"},"geometry":{"type":"Polygon","coordinates":[[[-72.32470237915035,-36.818156595504675],[-72.32559409287921,-36.817822412381915],[-72.32630428836421,-36.8188157294658],[-72.32526599805784,-36.81902594893207],[-72.32487604908141,-36.818427787959685],[-72.32470237915035,-36.818156595504675]]]}},{"type":"Feature","properties":{"zona_code":"ZED","zona":"ZED Zona Equipamiento Deportivo","comuna":"Bulnes"},"geometry":{"type":"Polygon","coordinates":[[[-72.32800530435308,-36.82916360643112],[-72.32800299980795,-36.829142400050486],[-72.32881048571232,-36.82922058487891],[-72.32866508479495,-36.83168018041141],[-72.3271828943878,-36.83157805830033],[-72.32736764294927,-36.83012867323669],[-72.32736547436909,-36.83007867055837],[-72.32734436898389,-36.83007793806719],[-72.32773612480871,-36.83009105200935],[-72.32791789637373,-36.830008479804],[-72.32802992481777,-36.82985634045973],[-72.32811259062073,-36.82971098363564],[-72.32811509090216,-36.82959767365863],[-72.32806851536586,-36.829378458778926],[-72.32800530435308,-36.82916360643112]]]}},{"type":"Feature","properties":{"zona_code":"ZED","zona":"ZED Zona Equipamiento Deportivo","comuna":"Bulnes"},"geometry":{"type":"Polygon","coordinates":[[[-72.33305093201878,-36.82793213932998],[-72.33316320799246,-36.82751278163054],[-72.333348940562,-36.8269640165143],[-72.33396793163452,-36.82704796294599],[-72.33414275159825,-36.82713309815874],[-72.33453054677662,-36.828547433081575],[-72.33387568487854,-36.82833791081771],[-72.33390650348252,-36.828194006060684],[-72.33305093201878,-36.82793213932998]]]}},{"type":"Feature","properties":{"zona_code":"ZED","zona":"ZED Zona Equipamiento Deportivo","comuna":"Bulnes"},"geometry":{"type":"Polygon","coordinates":[[[-72.35910724481928,-36.8319910883351],[-72.36070639725052,-36.831911944718975],[-72.36080112026767,-36.832408041015974],[-72.35914368273922,-36.832484733105986],[-72.35910724481928,-36.8319910883351]]]}},{"type":"Feature","properties":{"zona_code":"ZH1","zona":"ZH1 Zona Habitacional","comuna":"Bulnes"},"geometry":{"type":"Polygon","coordinates":[[[-72.29731546985658,-36.752349876134275],[-72.29752975175008,-36.75251081516692],[-72.29817260130346,-36.7535121570848],[-72.2992791551955,-36.7550735272647],[-72.29776243537411,-36.75535274304999],[-72.29775410955162,-36.75535912533467],[-72.296610025393,-36.75557002079132],[-72.29644404174259,-36.75560182773792],[-72.29612679013859,-36.75517098280357],[-72.29407175760603,-36.752843909397],[-72.29401829623518,-36.75270234821244],[-72.29404973008646,-36.75260611594153],[-72.29478851894976,-36.752146975660835],[-72.29482141974455,-36.75212313422102],[-72.29482847759239,-36.752398695771504],[-72.29486030828616,-36.75251939935953],[-72.294956729703,-36.752695529488115],[-72.29515233151697,-36.75290467164013],[-72.29530171256295,-36.75307218050159],[-72.29555640111418,-36.75320816259241],[-72.29569844133624,-36.75320422415454],[-72.29708671703779,-36.75241474967398],[-72.29731546985658,-36.752349876134275]]]}},{"type":"Feature","properties":{"zona_code":"ZH1","zona":"ZH1 Zona Habitacional","comuna":"Bulnes"},"geometry":{"type":"Polygon","coordinates":[[[-72.30382975727217,-36.74217734887623],[-72.30440630763226,-36.74302228005092],[-72.30440444910184,-36.74302323104058],[-72.30372267689654,-36.74335806618568],[-72.3032905118469,-36.74389516101685],[-72.30280367595115,-36.744700189541035],[-72.3026645337122,-36.74518563288843],[-72.30260761765769,-36.745516211602116],[-72.30247437624922,-36.74572494125144],[-72.3017106295282,-36.74653908960186],[-72.30128950627332,-36.74690839097554],[-72.30070155420177,-36.74718696382697],[-72.29957486760395,-36.7476831313421],[-72.29940549223316,-36.74770571323895],[-72.29866932267107,-36.747809586159846],[-72.29783315891211,-36.747826827759546],[-72.29669461505772,-36.747801788026806],[-72.2962663278151,-36.74783154552748],[-72.29597604396145,-36.74779787484279],[-72.29522253185718,-36.747669762999315],[-72.29447896549655,-36.74760097117014],[-72.29418434214963,-36.747638936900714],[-72.2937971182682,-36.74776290960133],[-72.2933792838629,-36.74786388875177],[-72.29235903824005,-36.7482873066876],[-72.29224883944202,-36.7483082401071],[-72.29152895726781,-36.74862022102962],[-72.29066926107937,-36.749126793044866],[-72.290336097019,-36.74930289968281],[-72.28998330086439,-36.74936630541222],[-72.28956545119368,-36.74946727141585],[-72.28902516942834,-36.74947626272739],[-72.28854203258763,-36.74943598876747],[-72.2879479309273,-36.74939878295375],[-72.28693752874139,-36.7493254048296],[-72.286300519925,-36.74915991399603],[-72.28617250734287,-36.74902099907244],[-72.28585736922528,-36.74809277871272],[-72.28525699318197,-36.746936420397205],[-72.28458261446195,-36.74550316796276],[-72.2845313242001,-36.74528222943445],[-72.28867321904121,-36.743473089164425],[-72.28925633811417,-36.743254310497825],[-72.28948337894882,-36.743021543762225],[-72.2906613423249,-36.74251213165785],[-72.28908226416004,-36.74021946250238],[-72.28874685293495,-36.739516579687084],[-72.29177718016643,-36.7380399817729],[-72.30273221100082,-36.73301078193251],[-72.30441302043,-36.735252757612024],[-72.30563375972466,-36.736945511064825],[-72.30615051155522,-36.737252986728585],[-72.3062290753623,-36.73735808315064],[-72.30730400859984,-36.73893740920834],[-72.30565771197114,-36.73974609249583],[-72.30635487721395,-36.74080548245317],[-72.30369088038447,-36.741973822790165],[-72.3037012675364,-36.74198904429203],[-72.30369906480226,-36.741990008194335],[-72.30149635572351,-36.73883238560968],[-72.30048590292475,-36.73929847153373],[-72.29747540518918,-36.74065986330986],[-72.29486392768084,-36.741933833450304],[-72.29420407128448,-36.741189225409244],[-72.29240617116851,-36.739045708563495],[-72.29159360031355,-36.73971667182965],[-72.29141645884074,-36.74000766294443],[-72.29296582075227,-36.74215807892974],[-72.29342610776527,-36.74268790943551],[-72.29340093144617,-36.74270111296951],[-72.2926951750473,-36.74303336895755],[-72.29486482246425,-36.746181862397144],[-72.29755397832447,-36.74505831381326],[-72.29862366014038,-36.744580434847215],[-72.30004593233147,-36.74375899390173],[-72.30100783731912,-36.74325547776484],[-72.30235334163658,-36.742579183198536],[-72.30369906480226,-36.741990008194335],[-72.30382975727217,-36.74217734887623]],[[-72.29107801692676,-36.74584847696349],[-72.29072628441865,-36.74539744004778],[-72.2902101610698,-36.745643632816105],[-72.29053212106531,-36.746106762746464],[-72.29107801692676,-36.74584847696349]],[[-72.28756239275187,-36.745399334065524],[-72.28725962926984,-36.744969042110164],[-72.28593273284511,-36.74553021897225],[-72.28619972285487,-36.74596008980116],[-72.28756239275187,-36.745399334065524]]]}},{"type":"Feature","properties":{"zona_code":"ZH1","zona":"ZH1 Zona Habitacional","comuna":"Bulnes"},"geometry":{"type":"Polygon","coordinates":[[[-72.3346327193184,-36.82892005657993],[-72.33377674120123,-36.825798155598854],[-72.33980236227725,-36.826611074393654],[-72.34246037882397,-36.82699561731018],[-72.34326595475876,-36.82996723564991],[-72.3346327193184,-36.82892005657993]]]}},{"type":"Feature","properties":{"zona_code":"ZH1","zona":"ZH1 Zona Habitacional","comuna":"Bulnes"},"geometry":{"type":"Polygon","coordinates":[[[-72.32408554181616,-36.815750024982336],[-72.32360962606398,-36.8150302594459],[-72.32566048660325,-36.814460296961386],[-72.32641426172889,-36.815947074832735],[-72.32890631354007,-36.815355597800846],[-72.32850389671674,-36.818346445562405],[-72.32835335606012,-36.81966186742543],[-72.32819068349826,-36.82069750681521],[-72.32813548660393,-36.821051539868655],[-72.32482578527414,-36.819920121588424],[-72.3248425112284,-36.81981025721141],[-72.32526831026006,-36.81902949579896],[-72.32526599805784,-36.81902594893207],[-72.32630428836421,-36.8188157294658],[-72.32559409287921,-36.817822412381915],[-72.32470237915035,-36.818156595504675],[-72.32335753184759,-36.816056476344194],[-72.32408554181616,-36.815750024982336]],[[-72.32465464153016,-36.81640290135156],[-72.32490570294453,-36.81675705061437],[-72.32532854750089,-36.81664157539406],[-72.32534127312402,-36.81654460160011],[-72.32527304859282,-36.816407046386416],[-72.32506711357038,-36.81627334759309],[-72.32465464153016,-36.81640290135156]]]}},{"type":"Feature","properties":{"zona_code":"ZH2","zona":"ZH2 Zona Habitacional","comuna":"Bulnes"},"geometry":{"type":"Polygon","coordinates":[[[-72.28964824722993,-36.752751993120306],[-72.28972479803488,-36.75262079688601],[-72.29498524737329,-36.75027731637432],[-72.29518407648186,-36.750867697853],[-72.29516855817583,-36.751058852024066],[-72.29508077677842,-36.751776498502565],[-72.29507587091119,-36.75193874945963],[-72.29478851894976,-36.752146975660835],[-72.29404973008646,-36.75260611594153],[-72.29401829623518,-36.75270234821244],[-72.29407175760603,-36.752843909397],[-72.29612679013859,-36.75517098280357],[-72.29644404174259,-36.75560182773792],[-72.29573723960179,-36.75573726678378],[-72.29513752248639,-36.75584687265621],[-72.2947205693127,-36.75586558330688],[-72.29436300748377,-36.75581827712304],[-72.29389585443882,-36.755702485906944],[-72.29354105747063,-36.75551205695036],[-72.29254097680489,-36.75478163941064],[-72.29191590041242,-36.75429830254711],[-72.29076800428575,-36.753436071406135],[-72.28992662265033,-36.752951559988276],[-72.28964824722993,-36.752751993120306]]]}},{"type":"Feature","properties":{"zona_code":"AV","zona":"Av Zona de Área verde","comuna":"Bulnes"},"geometry":{"type":"Polygon","coordinates":[[[-72.29918274672097,-36.754076499838234],[-72.29959232207443,-36.75501587301278],[-72.2992791551955,-36.7550735272647],[-72.29817260130346,-36.7535121570848],[-72.29752975175008,-36.75251081516692],[-72.29731546985658,-36.752349876134275],[-72.29730317597557,-36.75220121428199],[-72.29617768015031,-36.75060001008636],[-72.29634079705842,-36.75053956667612],[-72.29650824042858,-36.75050631488638],[-72.29674176433466,-36.75053445847365],[-72.29918274672097,-36.754076499838234]]]}},{"type":"Feature","properties":{"zona_code":"AV","zona":"Av Zona de Área verde","comuna":"Bulnes"},"geometry":{"type":"Polygon","coordinates":[[[-72.30982244098875,-36.75080718852749],[-72.31178348288476,-36.75026189543931],[-72.31306598438103,-36.7523019610146],[-72.3115871634622,-36.75164453037564],[-72.31153988714811,-36.75165470842295],[-72.31075879248412,-36.75123451813537],[-72.30982815078862,-36.75081223733578],[-72.30982244098875,-36.75080718852749]]]}},{"type":"Feature","properties":{"zona_code":"AV","zona":"Av Zona de Área verde","comuna":"Bulnes"},"geometry":{"type":"Polygon","coordinates":[[[-72.28721806282373,-36.7514625556535],[-72.28721567921569,-36.751460852092556],[-72.28721167651663,-36.75146254152781],[-72.28694970917134,-36.75126604732976],[-72.28656456531509,-36.75091908877436],[-72.28622236257296,-36.750687284589596],[-72.28562932585741,-36.7503281894053],[-72.28532887186205,-36.750056368480195],[-72.28501187487377,-36.749570438988016],[-72.28474971462423,-36.74915451546154],[-72.28462477909561,-36.74883015986674],[-72.28461538083656,-36.74860989507287],[-72.2846092841305,-36.74846701976831],[-72.28464376352822,-36.7482336217454],[-72.28466728915336,-36.74791708469434],[-72.284570644612,-36.74773499187016],[-72.28430595343933,-36.74725953460005],[-72.284116510353,-36.74681179838947],[-72.28373429729736,-36.7460117790019],[-72.28283798625885,-36.74412142525419],[-72.28217011891421,-36.74263075944637],[-72.28031178742431,-36.73879055749125],[-72.27947160547745,-36.737111520144325],[-72.2780356901712,-36.73404270428662],[-72.2769799559182,-36.731854632309144],[-72.2756949785534,-36.72897552613097],[-72.2746723185911,-36.72669115463012],[-72.2741307483029,-36.72549883960738],[-72.27331642565497,-36.72379400449223],[-72.27322127114351,-36.72375013481259],[-72.27302839853785,-36.723779761735024],[-72.27283589346679,-36.723849430405856],[-72.27256382167727,-36.723928440879924],[-72.27238451457761,-36.723890463119425],[-72.27230100404665,-36.723806935150385],[-72.2722686167453,-36.723671934676005],[-72.27227544288588,-36.72341426752272],[-72.27230305234085,-36.723227550177334],[-72.27238269259811,-36.72301079253236],[-72.27250298864651,-36.72291450299826],[-72.27271445366561,-36.72287292173857],[-72.2729090806283,-36.72285325943166],[-72.27319366365332,-36.722859729982886],[-72.27327750489582,-36.721793374646104],[-72.27437109677196,-36.721857728368676],[-72.27441472649744,-36.7218709104791],[-72.27431760194338,-36.722923194079264],[-72.27450687308234,-36.723056256706755],[-72.27488258245435,-36.72325570726299],[-72.27497618339746,-36.72336756381468],[-72.27500182710291,-36.72355281552165],[-72.27497118808827,-36.723668094282985],[-72.27490075385477,-36.723822614783316],[-72.27476180100714,-36.723897963649705],[-72.27456109949098,-36.72377475085176],[-72.27432469967042,-36.72364775382926],[-72.27492296293667,-36.72483284624465],[-72.27594432440829,-36.72712202007665],[-72.27690855037315,-36.72931977982551],[-72.27816904811374,-36.732005245695355],[-72.27906433890031,-36.73383297054801],[-72.2798810667432,-36.73548405096439],[-72.2803680050607,-36.736693637389514],[-72.28048668586203,-36.73697644990888],[-72.28105844915748,-36.73809071403711],[-72.28157575395787,-36.73917787009773],[-72.282094643858,-36.74009332824571],[-72.28234578126742,-36.74077300141027],[-72.28260858477672,-36.74130931051421],[-72.28261811423995,-36.74141010757206],[-72.28218513270835,-36.74156777679187],[-72.28242886668684,-36.742073619131936],[-72.28398156251022,-36.74548761460995],[-72.28412058765517,-36.74544801213327],[-72.2845313242001,-36.74528222943445],[-72.28458261446195,-36.74550316796276],[-72.28525699318197,-36.746936420397205],[-72.28585736922528,-36.74809277871272],[-72.28617250734287,-36.74902099907244],[-72.28635889494855,-36.74922325898478],[-72.28646017126232,-36.749513697344405],[-72.28659048839485,-36.75006796156364],[-72.28662379877895,-36.750431800924076],[-72.28691302818149,-36.75075280192505],[-72.28749274346866,-36.751215963865484],[-72.28748720856753,-36.75123034318295],[-72.28758667675736,-36.751299143583644],[-72.28721806282373,-36.7514625556535]]]}},{"type":"Feature","properties":{"zona_code":"AV","zona":"Av Zona de Área verde","comuna":"Bulnes"},"geometry":{"type":"Polygon","coordinates":[[[-72.28593273284511,-36.74553021897225],[-72.28725962926984,-36.744969042110164],[-72.28756239275187,-36.745399334065524],[-72.28619972285487,-36.74596008980116],[-72.28593273284511,-36.74553021897225]]]}},{"type":"Feature","properties":{"zona_code":"AV","zona":"Av Zona de Área verde","comuna":"Bulnes"},"geometry":{"type":"Polygon","coordinates":[[[-72.2902101610698,-36.745643632816105],[-72.29072628441865,-36.74539744004778],[-72.29107801692676,-36.74584847696349],[-72.29053212106531,-36.746106762746464],[-72.2902101610698,-36.745643632816105]]]}},{"type":"Feature","properties":{"zona_code":"AV","zona":"Av Zona de Área verde","comuna":"Bulnes"},"geometry":{"type":"Polygon","coordinates":[[[-72.20841146117773,-36.79003445325946],[-72.20805843626096,-36.7893883589574],[-72.20897590874037,-36.7894746335896],[-72.20883363146751,-36.79002901315254],[-72.20841146117773,-36.79003445325946]]]}},{"type":"Feature","properties":{"zona_code":"AV","zona":"Av Zona de Área verde","comuna":"Bulnes"},"geometry":{"type":"Polygon","coordinates":[[[-72.32674874061699,-36.83083403327563],[-72.32679936427391,-36.83005902919102],[-72.32736547436909,-36.83007867055837],[-72.32736764294927,-36.83012867323669],[-72.32710872212935,-36.8321599437988],[-72.32679458648043,-36.834764919992026],[-72.32673933125812,-36.83496321640511],[-72.32605868265615,-36.83492469291966],[-72.32615254690427,-36.834526861881336],[-72.32653971483649,-36.83278523378073],[-72.32666331970378,-36.8323526518667],[-72.32672257872933,-36.831256734666425],[-72.32674874061699,-36.83083403327563]]]}},{"type":"Feature","properties":{"zona_code":"AV","zona":"Av Zona de Área verde","comuna":"Bulnes"},"geometry":{"type":"Polygon","coordinates":[[[-72.32674874061699,-36.83083403327563],[-72.3249878055419,-36.8310549943495],[-72.3251053560582,-36.83016548971487],[-72.32510914794103,-36.8301650262577],[-72.32525004068944,-36.829309992864125],[-72.32529809549119,-36.82918706276094],[-72.32550609885739,-36.82905965485603],[-72.32577051369216,-36.829002186970925],[-72.3267685353903,-36.82903860419105],[-72.32681234512502,-36.829023072835916],[-72.32678242585162,-36.82955860269306],[-72.32679521351011,-36.83005888533638],[-72.32679936427391,-36.83005902919102],[-72.32674874061699,-36.83083403327563]]]}},{"type":"Feature","properties":{"zona_code":"AV","zona":"Av Zona de Área verde","comuna":"Bulnes"},"geometry":{"type":"Polygon","coordinates":[[[-72.32841421379844,-36.822823303861455],[-72.3284154627961,-36.822812920475656],[-72.32765633402346,-36.82266048114056],[-72.32811875890343,-36.82115883993965],[-72.32819068349826,-36.82069750681521],[-72.32835335606012,-36.81966186742543],[-72.32850389671674,-36.818346445562405],[-72.32890943141176,-36.815332429728755],[-72.32909523964383,-36.814241456818245],[-72.32968899182819,-36.8143184517779],[-72.3297322296359,-36.814323625631005],[-72.32964583372153,-36.81487546639174],[-72.3294393880783,-36.81626874380345],[-72.32925730875745,-36.81801893747036],[-72.32908163087912,-36.819711735774504],[-72.32900908301299,-36.820500490244584],[-72.32877669891056,-36.82150113190677],[-72.32866146230243,-36.82274165884603],[-72.32841421379844,-36.822823303861455]]]}},{"type":"Feature","properties":{"zona_code":"AV","zona":"Av Zona de Área verde","comuna":"Bulnes"},"geometry":{"type":"Polygon","coordinates":[[[-72.28857294989757,-36.7524732767958],[-72.2888294350399,-36.75216497786719],[-72.28992662265033,-36.752951559988276],[-72.29076800428575,-36.753436071406135],[-72.29191590041242,-36.75429830254711],[-72.29254097680489,-36.75478163941064],[-72.29354105747063,-36.75551205695036],[-72.29389585443882,-36.755702485906944],[-72.29436300748377,-36.75581827712304],[-72.2947205693127,-36.75586558330688],[-72.29513752248639,-36.75584687265621],[-72.29573723960179,-36.75573726678378],[-72.296610025393,-36.75557002079132],[-72.29775410955162,-36.75535912533467],[-72.29756880774693,-36.75550115775932],[-72.29729686018044,-36.75572326503842],[-72.29690347585874,-36.75605006294711],[-72.29687464506601,-36.75624158601342],[-72.29690601666597,-36.756800965850985],[-72.2969417273557,-36.75728870393225],[-72.2970251458243,-36.757679757031035],[-72.2972113777281,-36.758050077601816],[-72.29730270816523,-36.75827998693098],[-72.29845023902959,-36.759130242078285],[-72.29862117241562,-36.75931622178222],[-72.29863276958022,-36.759388751936406],[-72.29852002956187,-36.759410671330336],[-72.29839376383552,-36.75952441043448],[-72.29713254124272,-36.75863039384627],[-72.29684629853604,-36.7585191327467],[-72.29657867899434,-36.75849675457874],[-72.2963345303863,-36.758503525992346],[-72.29606027666485,-36.75849921250865],[-72.2957870423992,-36.75851870945469],[-72.2954324262879,-36.75854046135299],[-72.29519363622703,-36.75849940256256],[-72.29507960011524,-36.75843104200808],[-72.29496479958091,-36.75834482305139],[-72.29484158788567,-36.758062153658464],[-72.29482679747483,-36.75788972005397],[-72.29487144825995,-36.7577216001453],[-72.2949610006037,-36.75756415442848],[-72.29505131715426,-36.75742456872914],[-72.29520847346907,-36.75728908808974],[-72.29287859503947,-36.75553870671351],[-72.29029984830902,-36.75358368082602],[-72.28860446487816,-36.752457647816435],[-72.28857294989757,-36.7524732767958]]]}},{"type":"Feature","properties":{"zona_code":"ZIS","zona":"ZIS Zona de Infraestructura Sanitaria","comuna":"Bulnes"},"geometry":{"type":"Polygon","coordinates":[[[-72.30746015762986,-36.74739980554858],[-72.30626677302088,-36.747907465527675],[-72.305721022632,-36.74706439068336],[-72.30691602160682,-36.7465985042214],[-72.30746015762986,-36.74739980554858]]]}},{"type":"Feature","properties":{"zona_code":"ZHMC","zona":"ZHMC Zona Habitacional Mixta Comercial","comuna":"Bulnes"},"geometry":{"type":"Polygon","coordinates":[[[-72.2926951750473,-36.74303336895755],[-72.29340093144617,-36.74270111296951],[-72.29342610776527,-36.74268790943551],[-72.29486392768084,-36.741933833450304],[-72.29747540518918,-36.74065986330986],[-72.30048590292475,-36.73929847153373],[-72.30149635572351,-36.73883238560968],[-72.30369906480226,-36.741990008194335],[-72.30235334163658,-36.742579183198536],[-72.30100783731912,-36.74325547776484],[-72.30004593233147,-36.74375899390173],[-72.29862366014038,-36.744580434847215],[-72.29755397832447,-36.74505831381326],[-72.29486482246425,-36.746181862397144],[-72.2926951750473,-36.74303336895755]]]}},{"type":"Feature","properties":{"zona_code":"ZHMC","zona":"ZHMC Zona Habitacional Mixta Comercial","comuna":"Bulnes"},"geometry":{"type":"Polygon","coordinates":[[[-72.32866146230243,-36.82274165884603],[-72.32866233134943,-36.82273230418674],[-72.32867217944629,-36.82273415854679],[-72.3288553813807,-36.82276864632554],[-72.32908308871438,-36.82289100011022],[-72.3292875493932,-36.82309267747058],[-72.32935418314833,-36.82339834541594],[-72.32933658605296,-36.82504379998296],[-72.32927550236842,-36.82609685720405],[-72.32922931390692,-36.826262647575575],[-72.33022295667976,-36.826814102907605],[-72.33067490553817,-36.827029498957984],[-72.33074020544565,-36.82689416414047],[-72.33144431834522,-36.82726539200806],[-72.33179175317319,-36.82679791860259],[-72.33316320799246,-36.82751278163054],[-72.33284679711795,-36.828694586914075],[-72.33481980118604,-36.82960233908896],[-72.3346327193184,-36.82892005657993],[-72.34326595475876,-36.82996723564991],[-72.34636594049012,-36.83032811987416],[-72.34659931284752,-36.831599361399],[-72.33958944015568,-36.83080494347979],[-72.33531922828624,-36.830266959308375],[-72.33478125682943,-36.83014856213226],[-72.33162946640937,-36.82862016444551],[-72.3316608990931,-36.82809257373814],[-72.32843299228998,-36.826488053619784],[-72.32833876494043,-36.8268454336424],[-72.32804032396143,-36.82816976574719],[-72.3279576455039,-36.828725169578505],[-72.32796962986832,-36.82883542583931],[-72.32757772454566,-36.82872964627174],[-72.32787329191684,-36.82713362027867],[-72.32809435827546,-36.82546100888666],[-72.32824545542196,-36.824226629985084],[-72.32833324126388,-36.823496638036836],[-72.32862862887923,-36.823575628795716],[-72.32866146230243,-36.82274165884603]]]}},{"type":"Feature","properties":{"zona_code":"ZH3","zona":"ZH3 Zona Habitacional","comuna":"Bulnes"},"geometry":{"type":"Polygon","coordinates":[[[-72.20887004301021,-36.786638457089346],[-72.21008069053839,-36.78636580716953],[-72.21014704921419,-36.78682682847661],[-72.21017942461914,-36.787779590528224],[-72.21161079772115,-36.78727601443542],[-72.21201229457985,-36.788194957693335],[-72.21182332721015,-36.78828350872895],[-72.21221189472485,-36.78889286886867],[-72.21313348856911,-36.79037588797293],[-72.213121467822,-36.790574601787995],[-72.21255858251038,-36.790759500089166],[-72.21162540640778,-36.79111799690961],[-72.21105768252522,-36.79021330164162],[-72.21085447381157,-36.78978369612145],[-72.20905114828986,-36.79007678157624],[-72.20892238273133,-36.79018754317357],[-72.20885592541553,-36.7907257581576],[-72.20823891399743,-36.79103446954322],[-72.20786760134129,-36.7903054259149],[-72.20621849305634,-36.79163138648431],[-72.20603448643345,-36.79095092359177],[-72.20522174633047,-36.791591919814934],[-72.20229203546735,-36.79363063883476],[-72.20141923559686,-36.79274581758127],[-72.2019418589513,-36.79228845173124],[-72.20225092875866,-36.79202264112017],[-72.20224398306055,-36.791855941692575],[-72.20210420710583,-36.791773881080914],[-72.20159213817273,-36.79072437241071],[-72.20229819646725,-36.79007403777194],[-72.20332656474116,-36.78900208512478],[-72.20348367165158,-36.788931094657784],[-72.20700844886849,-36.78796018001301],[-72.20898609739503,-36.7874061300513],[-72.20887004301021,-36.786638457089346]],[[-72.20897590874037,-36.7894746335896],[-72.20805843626096,-36.7893883589574],[-72.20841146117773,-36.79003445325946],[-72.20883363146751,-36.79002901315254],[-72.20897590874037,-36.7894746335896]]]}},{"type":"Feature","properties":{"zona_code":"- Santa Clara","zona":"- Santa Clara","comuna":"Bulnes"},"geometry":{"type":"Polygon","coordinates":[[[-72.33353568611517,-36.82901154178167],[-72.3337807353398,-36.828882935416516],[-72.33462797073705,-36.828902741789825],[-72.33481980118604,-36.82960233908896],[-72.33353568611517,-36.82901154178167]]]}},{"type":"Feature","properties":{"zona_code":"- Santa Clara","zona":"- Santa Clara","comuna":"Bulnes"},"geometry":{"type":"Polygon","coordinates":[[[-72.32833324126388,-36.823496638036836],[-72.32841421379844,-36.822823303861455],[-72.32866146230243,-36.82274165884603],[-72.32862862887923,-36.823575628795716],[-72.32833324126388,-36.823496638036836]]]}},{"type":"Feature","properties":{"zona_code":"- Santa Clara","zona":"- Santa Clara","comuna":"Bulnes"},"geometry":{"type":"Polygon","coordinates":[[[-72.32465464153016,-36.81640290135156],[-72.32506711357038,-36.81627334759309],[-72.32527304859282,-36.816407046386416],[-72.32534127312402,-36.81654460160011],[-72.32532854750089,-36.81664157539406],[-72.32490570294453,-36.81675705061437],[-72.32465464153016,-36.81640290135156]]]}}]}